{"type":"FeatureCollection","features":[{"type":"Feature","properties":{"kind":"blob","cls":1,"id":1},"geometry":{"type":"Polygon","coordinates":[[[179.75,58.38],[180.0,62.12],[177.5,62.12],[175.75,61.62],[174.38,60.25],[174.62,59.25],[175.5,58.62],[177.25,58.12],[179.75,58.38]],[[175.12,60.0],[175.75,60.38],[177.12,60.25],[176.75,59.88],[175.12,60.0]]]}},{"type":"Feature","properties":{"kind":"blob","cls":1,"id":1},"geometry":{"type":"Polygon","coordinates":[[[-179.88,62.0],[-180.0,58.38],[-179.5,58.38],[-177.75,59.12],[-177.12,60.5],[-177.75,61.38],[-179.88,62.0]]]}},{"type":"Feature","properties":{"kind":"blob","cls":1,"id":2},"geometry":{"type":"Polygon","coordinates":[[[-134.75,-65.88],[-133.12,-65.0],[-132.88,-64.0],[-133.25,-63.38],[-135.25,-62.38],[-137.75,-61.88],[-141.25,-62.38],[-143.12,-63.75],[-143.12,-64.25],[-142.25,-65.12],[-140.5,-65.88],[-134.75,-65.88]],[[-138.25,-63.62],[-139.12,-63.0],[-138.5,-62.62],[-136.5,-62.62],[-135.88,-63.0],[-136.5,-63.62],[-138.25,-63.62]]]}},{"type":"Feature","properties":{"kind":"blob","cls":4,"id":3},"geometry":{"type":"Polygon","coordinates":[[[43.75,-65.62],[45.62,-64.25],[45.62,-63.75],[43.75,-62.38],[38.75,-61.38],[35.5,-61.62],[33.62,-62.75],[33.38,-63.5],[34.25,-64.62],[36.5,-65.62],[43.75,-65.62]]]}},{"type":"Feature","properties":{"kind":"blob","cls":3,"id":4},"geometry":{"type":"Polygon","coordinates":[[[109.25,-57.88],[110.75,-57.12],[111.75,-57.12],[112.25,-57.62],[113.25,-57.38],[114.88,-56.0],[114.88,-54.75],[113.5,-53.38],[112.0,-52.62],[107.5,-52.62],[105.38,-54.0],[105.12,-56.0],[106.25,-57.12],[109.25,-57.88]]]}},{"type":"Feature","properties":{"kind":"blob","cls":6,"id":5},"geometry":{"type":"Polygon","coordinates":[[[21.25,-62.12],[23.0,-61.62],[24.12,-60.75],[24.38,-59.5],[23.25,-58.38],[21.5,-57.88],[19.25,-57.88],[16.5,-58.88],[15.5,-57.88],[13.25,-57.12],[10.25,-57.38],[8.62,-58.5],[8.62,-59.5],[10.5,-61.12],[14.0,-61.62],[14.25,-60.88],[15.5,-60.88],[16.75,-61.62],[21.25,-62.12]]]}},{"type":"Feature","properties":{"kind":"blob","cls":4,"id":6},"geometry":{"type":"Polygon","coordinates":[[[124.75,-57.88],[126.5,-57.38],[127.62,-56.25],[127.62,-55.25],[126.25,-53.88],[124.5,-53.38],[121.25,-53.88],[120.38,-54.75],[120.38,-56.0],[121.75,-57.38],[124.75,-57.88]]]}},{"type":"Feature","properties":{"kind":"blob","cls":4,"id":7},"geometry":{"type":"Polygon","coordinates":[[[-96.0,-66.62],[-93.75,-66.12],[-92.38,-65.0],[-92.38,-64.0],[-92.75,-63.38],[-94.25,-62.62],[-98.25,-62.38],[-99.75,-62.62],[-102.12,-64.0],[-102.12,-65.0],[-101.5,-65.62],[-100.0,-66.38],[-96.0,-66.62]]]}},{"type":"Feature","properties":{"kind":"blob","cls":3,"id":8},"geometry":{"type":"Polygon","coordinates":[[[-110.75,-74.38],[-99.25,-74.38],[-98.75,-73.88],[-97.75,-73.88],[-97.62,-73.5],[-98.75,-72.62],[-100.5,-72.12],[-106.25,-71.88],[-108.12,-72.25],[-106.0,-73.12],[-105.62,-73.75],[-106.0,-74.12],[-110.75,-74.38]]]}},{"type":"Feature","properties":{"kind":"blob","cls":5,"id":9},"geometry":{"type":"Polygon","coordinates":[[[109.38,-66.5],[108.75,-65.62],[107.0,-64.88],[103.88,-66.25],[109.38,-66.5]]]}},{"type":"Feature","properties":{"kind":"blob","cls":4,"id":10},"geometry":{"type":"Polygon","coordinates":[[[-30.75,-65.38],[-28.75,-64.88],[-27.62,-64.0],[-27.62,-62.75],[-28.75,-61.88],[-30.75,-61.38],[-32.25,-61.38],[-34.75,-62.12],[-35.62,-63.5],[-35.38,-64.0],[-34.25,-64.88],[-30.75,-65.38]]]}},{"type":"Feature","properties":{"kind":"blob","cls":4,"id":11},"geometry":{"type":"Polygon","coordinates":[[[-91.75,-73.62],[-89.12,-73.5],[-89.25,-73.38],[-91.75,-73.62]]]}},{"type":"Feature","properties":{"kind":"blob","cls":5,"id":12},"geometry":{"type":"MultiPolygon","coordinates":[[[[97.25,-65.88],[97.12,-66.0],[97.25,-66.12],[97.25,-65.88]]],[[[97.38,-65.75],[98.0,-65.88],[99.5,-65.12],[103.38,-64.25],[100.25,-64.38],[97.38,-65.75]]]]}},{"type":"Feature","properties":{"kind":"blob","cls":4,"id":13},"geometry":{"type":"Polygon","coordinates":[[[-47.5,-81.38],[-45.62,-81.0],[-48.25,-80.38],[-58.0,-79.38],[-73.5,-79.38],[-77.62,-79.75],[-72.25,-80.88],[-47.5,-81.38]]]}},{"type":"Feature","properties":{"kind":"blob","cls":4,"id":14},"geometry":{"type":"Polygon","coordinates":[[[-3.5,-71.88],[1.0,-71.12],[6.5,-70.88],[6.88,-70.0],[6.25,-69.12],[4.25,-68.38],[-2.75,-68.38],[-4.75,-69.12],[-5.62,-70.0],[-5.62,-70.5],[-4.75,-71.38],[-3.5,-71.88]]]}},{"type":"Feature","properties":{"kind":"blob","cls":4,"id":15},"geometry":{"type":"Polygon","coordinates":[[[79.0,-68.62],[79.75,-68.12],[85.75,-67.38],[86.38,-66.75],[86.62,-65.75],[86.25,-65.12],[84.5,-64.38],[80.75,-64.12],[75.5,-65.38],[74.12,-66.5],[74.12,-67.0],[75.0,-67.88],[79.0,-68.62]]]}},{"type":"Feature","properties":{"kind":"blob","cls":4,"id":16},"geometry":{"type":"Polygon","coordinates":[[[31.75,-53.62],[33.25,-53.12],[34.12,-52.25],[34.12,-51.25],[32.25,-49.12],[31.0,-48.38],[28.75,-48.12],[27.25,-48.62],[26.12,-50.0],[26.38,-51.25],[27.5,-52.38],[29.5,-53.38],[31.75,-53.62]]]}},{"type":"Feature","properties":{"kind":"blob","cls":1,"id":17},"geometry":{"type":"Polygon","coordinates":[[[-26.5,63.12],[-25.0,63.88],[-24.12,65.0],[-25.0,66.12],[-26.25,66.62],[-26.12,65.75],[-26.75,65.12],[-27.75,64.88],[-29.0,65.12],[-30.25,66.62],[-32.5,66.38],[-33.62,65.5],[-33.88,65.0],[-33.25,63.88],[-31.75,63.12],[-26.5,63.12]]]}},{"type":"Feature","properties":{"kind":"blob","cls":1,"id":18},"geometry":{"type":"Polygon","coordinates":[[[46.0,73.62],[56.0,73.62],[59.0,74.62],[59.62,75.75],[59.25,76.38],[57.25,77.38],[49.0,79.12],[44.75,79.62],[36.25,79.12],[34.25,78.38],[33.62,77.5],[33.62,76.5],[34.0,76.12],[37.5,74.62],[46.0,73.62]],[[58.0,74.88],[57.88,75.0],[58.0,75.12],[58.0,74.88]],[[41.25,75.88],[36.12,77.25],[36.75,77.62],[41.25,77.62],[44.75,77.12],[46.38,76.25],[46.0,75.88],[41.25,75.88]]]}},{"type":"Feature","properties":{"kind":"blob","cls":4,"id":19},"geometry":{"type":"Polygon","coordinates":[[[90.5,-61.38],[92.25,-60.88],[94.62,-58.5],[94.62,-57.5],[94.0,-56.88],[92.0,-56.12],[89.5,-56.38],[88.0,-57.12],[85.62,-59.25],[85.62,-59.75],[86.75,-60.88],[90.5,-61.38]]]}},{"type":"Feature","properties":{"kind":"blob","cls":4,"id":20},"geometry":{"type":"Polygon","coordinates":[[[-160.38,-83.0],[-160.25,-83.38],[-158.5,-83.38],[-147.5,-82.88],[-138.75,-81.88],[-136.75,-81.38],[-136.62,-81.0],[-137.75,-80.62],[-153.5,-80.88],[-158.5,-81.62],[-160.38,-83.0]]]}},{"type":"Feature","properties":{"kind":"blob","cls":1,"id":21},"geometry":{"type":"Polygon","coordinates":[[[-26.25,59.12],[-24.62,60.25],[-24.62,61.25],[-26.25,62.38],[-27.5,62.62],[-29.5,62.62],[-31.75,61.88],[-32.38,61.25],[-32.38,60.25],[-30.75,59.12],[-26.25,59.12]]]}},{"type":"Feature","properties":{"kind":"blob","cls":4,"id":22},"geometry":{"type":"Polygon","coordinates":[[[174.5,-82.62],[176.62,-82.5],[176.5,-82.38],[174.5,-82.62]]]}},{"type":"Feature","properties":{"kind":"blob","cls":4,"id":23},"geometry":{"type":"Polygon","coordinates":[[[177.5,-82.88],[179.62,-82.75],[179.5,-82.62],[177.5,-82.88]]]}},{"type":"Feature","properties":{"kind":"blob","cls":4,"id":24},"geometry":{"type":"Polygon","coordinates":[[[164.5,-75.38],[166.0,-75.38],[171.25,-73.62],[173.25,-73.38],[174.5,-72.88],[175.12,-71.75],[173.75,-70.62],[170.25,-69.88],[167.0,-69.88],[164.25,-70.38],[163.38,-70.75],[164.5,-71.12],[164.75,-70.62],[166.0,-70.62],[170.62,-71.75],[168.88,-72.5],[169.62,-72.75],[169.25,-73.12],[166.75,-73.12],[165.75,-73.88],[164.75,-73.62],[164.88,-74.25],[164.38,-74.5],[164.5,-75.38]]]}},{"type":"Feature","properties":{"kind":"blob","cls":4,"id":25},"geometry":{"type":"Polygon","coordinates":[[[162.5,-79.62],[163.75,-79.88],[168.0,-79.38],[170.25,-78.62],[170.62,-77.75],[168.0,-76.62],[163.5,-76.12],[162.38,-77.0],[163.88,-78.0],[163.75,-78.38],[164.62,-78.5],[161.75,-78.62],[162.5,-79.62]],[[166.62,-77.5],[169.12,-77.5],[169.0,-77.62],[166.62,-77.5]]]}},{"type":"Feature","properties":{"kind":"blob","cls":1,"id":26},"geometry":{"type":"Polygon","coordinates":[[[-169.5,27.88],[-168.38,29.25],[-168.62,30.5],[-170.25,31.62],[-171.5,31.38],[-172.62,30.0],[-172.38,28.75],[-171.5,27.88],[-169.5,27.88]]]}},{"type":"Feature","properties":{"kind":"blob","cls":4,"id":27},"geometry":{"type":"Polygon","coordinates":[[[162.25,-71.62],[162.62,-71.5],[162.5,-71.38],[162.25,-71.62]]]}},{"type":"Feature","properties":{"kind":"blob","cls":0,"id":28},"geometry":{"type":"Polygon","coordinates":[[[-125.25,21.12],[-124.25,21.38],[-123.38,22.25],[-123.38,24.0],[-124.25,24.88],[-125.75,25.12],[-127.38,24.0],[-127.38,22.25],[-126.5,22.88],[-125.75,22.88],[-125.38,22.5],[-125.25,21.12]]]}},{"type":"Feature","properties":{"kind":"blob","cls":4,"id":29},"geometry":{"type":"Polygon","coordinates":[[[-99.75,-51.62],[-97.25,-50.62],[-96.62,-49.25],[-97.38,-47.5],[-99.5,-46.38],[-101.0,-46.38],[-103.25,-47.38],[-104.12,-49.25],[-103.88,-50.25],[-102.25,-51.38],[-99.75,-51.62]]]}},{"type":"Feature","properties":{"kind":"blob","cls":0,"id":30},"geometry":{"type":"Polygon","coordinates":[[[162.75,14.38],[163.12,14.75],[163.0,15.38],[164.38,15.75],[164.12,17.25],[162.75,18.12],[161.5,17.88],[160.62,16.75],[160.88,15.25],[162.75,14.38]]]}},{"type":"Feature","properties":{"kind":"blob","cls":3,"id":31},"geometry":{"type":"Polygon","coordinates":[[[27.5,58.12],[29.25,58.62],[30.12,59.25],[30.38,60.25],[29.25,61.38],[27.5,61.88],[25.5,61.88],[23.0,60.88],[22.62,60.25],[22.88,59.25],[23.75,58.62],[27.5,58.12]]]}},{"type":"Feature","properties":{"kind":"blob","cls":1,"id":32},"geometry":{"type":"Polygon","coordinates":[[[-81.5,56.12],[-78.0,56.12],[-75.88,57.5],[-75.88,58.5],[-77.5,59.62],[-79.25,60.12],[-82.25,59.88],[-84.12,58.5],[-84.12,57.5],[-83.25,56.62],[-81.5,56.12]],[[-82.5,56.88],[-83.88,57.75],[-83.0,58.62],[-81.0,58.62],[-78.38,57.75],[-79.25,56.88],[-82.5,56.88]]]}},{"type":"Feature","properties":{"kind":"blob","cls":4,"id":33},"geometry":{"type":"Polygon","coordinates":[[[-108.0,-41.12],[-106.88,-40.0],[-106.62,-38.75],[-107.75,-37.38],[-109.5,-37.12],[-110.75,-37.62],[-111.62,-38.5],[-111.62,-40.25],[-110.75,-41.12],[-108.0,-41.12]]]}},{"type":"Feature","properties":{"kind":"blob","cls":4,"id":34},"geometry":{"type":"Polygon","coordinates":[[[136.25,73.62],[144.25,73.62],[147.75,74.62],[148.38,75.75],[148.0,76.38],[146.0,77.38],[140.25,78.38],[130.75,78.12],[128.5,77.62],[127.0,76.88],[126.62,76.25],[128.0,75.12],[131.25,74.12],[136.25,73.62]]]}},{"type":"Feature","properties":{"kind":"blob","cls":4,"id":35},"geometry":{"type":"Polygon","coordinates":[[[-134.0,48.38],[-132.5,48.88],[-131.62,50.0],[-131.88,51.25],[-132.5,51.88],[-134.0,52.38],[-136.75,51.88],[-137.62,50.75],[-137.62,50.0],[-136.75,48.88],[-134.0,48.38]]]}},{"type":"Feature","properties":{"kind":"blob","cls":4,"id":36},"geometry":{"type":"Polygon","coordinates":[[[-97.75,-40.38],[-96.12,-39.25],[-95.88,-38.25],[-97.0,-36.88],[-98.75,-36.62],[-100.38,-37.75],[-100.38,-39.25],[-99.5,-40.12],[-97.75,-40.38]]]}},{"type":"Feature","properties":{"kind":"blob","cls":3,"id":37},"geometry":{"type":"Polygon","coordinates":[[[179.75,79.12],[180.0,82.62],[177.0,82.12],[175.12,81.25],[178.0,80.88],[177.75,80.38],[176.12,80.0],[177.5,79.38],[179.75,79.12]]]}},{"type":"Feature","properties":{"kind":"blob","cls":3,"id":37},"geometry":{"type":"Polygon","coordinates":[[[-179.75,82.62],[-179.75,78.88],[-174.5,78.38],[-164.25,78.88],[-161.25,79.62],[-158.38,81.25],[-159.0,81.88],[-160.5,82.38],[-163.75,82.88],[-174.75,83.12],[-179.75,82.62]]]}},{"type":"Feature","properties":{"kind":"blob","cls":0,"id":38},"geometry":{"type":"Polygon","coordinates":[[[148.75,14.62],[149.62,15.75],[149.62,17.25],[148.75,18.38],[146.5,18.38],[145.62,17.25],[145.75,16.38],[146.88,16.0],[146.12,15.0],[148.75,14.62]]]}},{"type":"Feature","properties":{"kind":"blob","cls":4,"id":39},"geometry":{"type":"Polygon","coordinates":[[[92.0,57.12],[93.75,57.62],[95.12,59.25],[93.75,60.88],[92.0,61.38],[89.25,61.12],[87.75,60.62],[86.88,59.75],[86.62,59.25],[87.75,57.88],[92.0,57.12]]]}},{"type":"Feature","properties":{"kind":"blob","cls":5,"id":40},"geometry":{"type":"Polygon","coordinates":[[[-66.0,-16.62],[-64.75,-16.62],[-63.62,-15.75],[-63.62,-13.75],[-65.5,-12.38],[-68.0,-12.62],[-68.88,-13.75],[-68.12,-14.25],[-67.5,-15.62],[-67.0,-15.62],[-66.0,-16.62]]]}},{"type":"Feature","properties":{"kind":"blob","cls":1,"id":41},"geometry":{"type":"Polygon","coordinates":[[[-109.5,25.38],[-108.12,26.25],[-108.12,27.0],[-109.12,28.0],[-109.75,29.62],[-111.0,29.38],[-112.12,28.0],[-111.88,26.75],[-110.75,25.62],[-109.5,25.38]]]}},{"type":"Feature","properties":{"kind":"blob","cls":3,"id":42},"geometry":{"type":"Polygon","coordinates":[[[156.25,31.88],[157.88,32.75],[158.12,34.25],[157.5,35.12],[155.75,35.62],[154.12,34.75],[154.12,32.75],[156.25,31.88]]]}},{"type":"Feature","properties":{"kind":"blob","cls":3,"id":43},"geometry":{"type":"Polygon","coordinates":[[[68.75,25.38],[69.88,26.5],[70.25,27.62],[71.75,27.88],[72.88,29.0],[73.62,30.25],[73.62,31.25],[72.75,32.38],[70.5,31.88],[69.75,29.62],[68.25,29.88],[68.0,29.38],[67.38,29.25],[66.88,27.0],[65.62,26.75],[65.62,26.25],[66.5,25.38],[68.75,25.38]]]}},{"type":"Feature","properties":{"kind":"blob","cls":3,"id":44},"geometry":{"type":"Polygon","coordinates":[[[-73.25,-11.88],[-72.75,-11.88],[-71.12,-10.75],[-74.0,-10.62],[-73.88,-11.25],[-73.25,-11.88]]]}},{"type":"Feature","properties":{"kind":"blob","cls":0,"id":45},"geometry":{"type":"Polygon","coordinates":[[[-104.0,10.38],[-102.5,10.38],[-101.88,11.25],[-104.25,11.38],[-105.25,12.12],[-105.12,11.0],[-104.0,10.38]]]}},{"type":"Feature","properties":{"kind":"blob","cls":4,"id":46},"geometry":{"type":"Polygon","coordinates":[[[-9.0,73.38],[-5.5,73.88],[-2.25,75.12],[-1.88,76.25],[-3.25,77.12],[-5.25,77.62],[-13.0,77.88],[-16.75,77.38],[-19.25,76.38],[-19.62,75.75],[-19.38,74.75],[-18.25,74.12],[-9.0,73.38]]]}},{"type":"Feature","properties":{"kind":"blob","cls":3,"id":47},"geometry":{"type":"Polygon","coordinates":[[[-48.0,-39.88],[-46.75,-39.38],[-45.62,-38.0],[-45.88,-36.75],[-46.75,-35.88],[-48.75,-35.12],[-51.25,-35.12],[-52.25,-35.62],[-53.12,-36.5],[-53.12,-38.0],[-51.5,-39.38],[-48.0,-39.88]]]}},{"type":"Feature","properties":{"kind":"blob","cls":3,"id":48},"geometry":{"type":"Polygon","coordinates":[[[-74.12,-12.0],[-74.0,-12.12],[-73.88,-11.75],[-74.12,-12.0]]]}},{"type":"Feature","properties":{"kind":"blob","cls":3,"id":49},"geometry":{"type":"Polygon","coordinates":[[[-74.5,-11.38],[-74.12,-11.25],[-74.25,-11.12],[-74.5,-11.38]]]}},{"type":"Feature","properties":{"kind":"blob","cls":4,"id":50},"geometry":{"type":"Polygon","coordinates":[[[-66.75,34.12],[-65.5,33.88],[-63.88,35.0],[-63.88,36.5],[-64.5,37.12],[-66.5,37.62],[-68.12,36.5],[-68.12,35.0],[-66.75,34.12]]]}},{"type":"Feature","properties":{"kind":"blob","cls":3,"id":51},"geometry":{"type":"Polygon","coordinates":[[[-76.25,28.12],[-75.12,29.5],[-75.38,30.5],[-77.0,31.62],[-78.25,31.38],[-79.38,30.0],[-79.12,29.0],[-78.25,28.12],[-76.25,28.12]]]}},{"type":"Feature","properties":{"kind":"blob","cls":1,"id":52},"geometry":{"type":"Polygon","coordinates":[[[-51.0,61.12],[-48.38,62.0],[-49.62,62.75],[-49.75,63.62],[-50.62,63.75],[-49.38,64.25],[-50.0,65.88],[-52.25,65.62],[-52.88,66.25],[-50.0,66.62],[-55.25,66.38],[-57.38,65.0],[-57.38,63.5],[-56.0,61.88],[-51.0,61.12]]]}},{"type":"Feature","properties":{"kind":"blob","cls":4,"id":53},"geometry":{"type":"Polygon","coordinates":[[[-123.12,49.75],[-126.62,51.25],[-125.75,50.12],[-123.12,49.75]]]}},{"type":"Feature","properties":{"kind":"blob","cls":3,"id":54},"geometry":{"type":"Polygon","coordinates":[[[58.75,28.62],[59.88,29.25],[59.88,31.0],[59.5,31.38],[58.5,31.12],[57.88,30.5],[57.88,29.75],[58.38,29.5],[58.75,28.62]]]}},{"type":"Feature","properties":{"kind":"blob","cls":1,"id":55},"geometry":{"type":"Polygon","coordinates":[[[50.5,28.12],[52.12,29.25],[51.12,30.0],[51.25,30.38],[50.75,30.38],[49.88,31.25],[49.5,32.38],[47.75,33.38],[47.5,32.88],[47.0,33.12],[46.62,32.5],[46.62,30.75],[47.38,29.25],[48.25,28.38],[50.5,28.12]]]}},{"type":"Feature","properties":{"kind":"blob","cls":4,"id":56},"geometry":{"type":"Polygon","coordinates":[[[165.0,-35.62],[165.5,-34.88],[166.75,-34.88],[167.38,-34.25],[167.62,-32.75],[167.0,-31.88],[164.75,-31.38],[162.62,-32.5],[162.38,-34.25],[163.0,-35.12],[165.0,-35.62]]]}},{"type":"Feature","properties":{"kind":"blob","cls":4,"id":57},"geometry":{"type":"Polygon","coordinates":[[[-55.5,68.88],[-53.5,69.38],[-51.25,69.38],[-51.12,69.75],[-51.62,70.75],[-54.0,72.88],[-58.5,74.88],[-59.5,75.88],[-64.0,75.38],[-66.38,74.0],[-66.38,73.25],[-65.0,71.88],[-62.5,71.12],[-61.0,69.62],[-55.5,68.88]],[[-53.25,69.62],[-53.88,70.0],[-52.62,69.75],[-53.25,69.62]],[[-52.88,70.5],[-52.12,70.5],[-52.25,70.38],[-52.88,70.5]]]}},{"type":"Feature","properties":{"kind":"blob","cls":3,"id":58},"geometry":{"type":"Polygon","coordinates":[[[-64.0,-21.38],[-63.62,-21.25],[-64.0,-20.62],[-64.0,-21.38]]]}},{"type":"Feature","properties":{"kind":"blob","cls":5,"id":59},"geometry":{"type":"Polygon","coordinates":[[[94.0,25.62],[94.38,26.25],[93.0,26.88],[92.88,26.25],[94.0,25.62]]]}},{"type":"Feature","properties":{"kind":"blob","cls":4,"id":60},"geometry":{"type":"MultiPolygon","coordinates":[[[[95.0,25.38],[94.88,25.25],[95.0,25.12],[95.0,25.38]]],[[[95.25,25.62],[95.12,25.5],[95.5,25.38],[95.25,25.62]]]]}},{"type":"Feature","properties":{"kind":"blob","cls":3,"id":61},"geometry":{"type":"MultiPolygon","coordinates":[[[[62.0,30.38],[61.88,30.25],[62.25,30.12],[62.0,30.38]]],[[[61.5,30.38],[61.88,30.5],[61.0,31.38],[61.5,30.38]]]]}},{"type":"Feature","properties":{"kind":"blob","cls":1,"id":62},"geometry":{"type":"Polygon","coordinates":[[[62.62,30.0],[62.75,29.88],[62.88,30.0],[62.62,30.0]]]}},{"type":"Feature","properties":{"kind":"blob","cls":3,"id":63},"geometry":{"type":"Polygon","coordinates":[[[61.75,32.12],[62.12,32.75],[61.62,33.0],[61.5,33.62],[60.88,32.5],[61.75,32.12]]]}},{"type":"Feature","properties":{"kind":"blob","cls":4,"id":64},"geometry":{"type":"Polygon","coordinates":[[[-66.5,-28.12],[-66.12,-27.75],[-66.5,-27.62],[-66.5,-28.12]]]}},{"type":"Feature","properties":{"kind":"blob","cls":3,"id":65},"geometry":{"type":"Polygon","coordinates":[[[-64.5,-23.88],[-63.62,-23.0],[-63.75,-21.62],[-64.38,-22.25],[-64.5,-23.88]]]}},{"type":"Feature","properties":{"kind":"blob","cls":3,"id":66},"geometry":{"type":"Polygon","coordinates":[[[60.38,31.0],[60.5,30.88],[60.62,31.25],[60.38,31.0]]]}},{"type":"Feature","properties":{"kind":"blob","cls":3,"id":67},"geometry":{"type":"Polygon","coordinates":[[[-65.88,-27.25],[-65.75,-27.38],[-65.62,-27.25],[-65.88,-27.25]]]}},{"type":"Feature","properties":{"kind":"blob","cls":1,"id":68},"geometry":{"type":"Polygon","coordinates":[[[62.25,-33.62],[63.88,-32.75],[63.62,-32.0],[64.38,-31.5],[64.38,-31.0],[63.25,-29.62],[61.25,-29.12],[60.0,-29.62],[59.12,-30.75],[59.38,-32.5],[60.0,-33.12],[62.25,-33.62]]]}},{"type":"Feature","properties":{"kind":"center","id":1,"lat":60.25,"lon":179.0,"mslp":934.4,"hvtl":175.3,"hvtu":-24.0,"hb":-14.1,"idx":1.6,"cls":1,"psfc":934.4,"terrain":false,"radius_km":200,"name":"sym shallow warm","track":"T02"},"geometry":{"type":"Point","coordinates":[179.0,60.25]}},{"type":"Feature","properties":{"kind":"center","id":2,"lat":-64.0,"lon":-138.5,"mslp":948.2,"hvtl":106.6,"hvtu":-75.5,"hb":-7.6,"idx":0.9,"cls":1,"psfc":948.2,"terrain":false,"radius_km":200,"name":"sym shallow warm","track":"T11"},"geometry":{"type":"Point","coordinates":[-138.5,-64.0]}},{"type":"Feature","properties":{"kind":"center","id":3,"lat":-63.75,"lon":38.75,"mslp":955.4,"hvtl":-77.9,"hvtu":-127.9,"hb":57.2,"idx":-2.2,"cls":4,"psfc":955.4,"terrain":false,"radius_km":200,"name":"asym cold","track":"T20"},"geometry":{"type":"Point","coordinates":[38.75,-63.75]}},{"type":"Feature","properties":{"kind":"center","id":4,"lat":-55.25,"lon":109.75,"mslp":960.0,"hvtl":123.4,"hvtu":-177.2,"hb":15.2,"idx":0.7,"cls":3,"psfc":960.0,"terrain":false,"radius_km":200,"name":"asym shallow warm","track":"T23"},"geometry":{"type":"Point","coordinates":[109.75,-55.25]}},{"type":"Feature","properties":{"kind":"center","id":5,"lat":-59.5,"lon":12.75,"mslp":966.1,"hvtl":-89.3,"hvtu":42.8,"hb":-5.8,"idx":-1.0,"cls":6,"psfc":966.1,"terrain":false,"radius_km":200,"name":"shallow cold","track":"T24"},"geometry":{"type":"Point","coordinates":[12.75,-59.5]}},{"type":"Feature","properties":{"kind":"center","id":6,"lat":-55.5,"lon":123.75,"mslp":966.1,"hvtl":-126.2,"hvtu":-138.6,"hb":66.4,"idx":-2.6,"cls":4,"psfc":966.1,"terrain":false,"radius_km":200,"name":"asym cold","track":"T18"},"geometry":{"type":"Point","coordinates":[123.75,-55.5]}},{"type":"Feature","properties":{"kind":"center","id":7,"lat":-64.5,"lon":-97.25,"mslp":966.4,"hvtl":-92.3,"hvtu":-315.2,"hb":29.5,"idx":-2.5,"cls":4,"psfc":966.4,"terrain":false,"radius_km":200,"name":"asym cold","track":"T34"},"geometry":{"type":"Point","coordinates":[-97.25,-64.5]}},{"type":"Feature","properties":{"kind":"center","id":8,"lat":-72.25,"lon":-104.75,"mslp":972.6,"hvtl":26.4,"hvtu":-130.0,"hb":14.4,"idx":-0.3,"cls":3,"psfc":972.6,"terrain":false,"radius_km":200,"name":"asym shallow warm","track":"T29"},"geometry":{"type":"Point","coordinates":[-104.75,-72.25]}},{"type":"Feature","properties":{"kind":"center","id":9,"lat":-66.25,"lon":104.0,"mslp":976.0,"hvtl":-146.2,"hvtu":-63.5,"hb":8.4,"idx":-2.4,"cls":5,"psfc":902.4,"terrain":false,"radius_km":200,"name":"sym cold"},"geometry":{"type":"Point","coordinates":[104.0,-66.25]}},{"type":"Feature","properties":{"kind":"center","id":10,"lat":-64.25,"lon":-28.75,"mslp":976.3,"hvtl":-71.8,"hvtu":-91.0,"hb":27.4,"idx":-2.0,"cls":4,"psfc":976.3,"terrain":false,"radius_km":200,"name":"asym cold","track":"T54"},"geometry":{"type":"Point","coordinates":[-28.75,-64.25]}},{"type":"Feature","properties":{"kind":"center","id":11,"lat":-73.5,"lon":-90.75,"mslp":976.6,"hvtl":-113.5,"hvtu":-196.0,"hb":18.4,"idx":-2.6,"cls":4,"psfc":913.5,"terrain":false,"radius_km":200,"name":"asym cold","track":"T55"},"geometry":{"type":"Point","coordinates":[-90.75,-73.5]}},{"type":"Feature","properties":{"kind":"center","id":12,"lat":-65.0,"lon":98.75,"mslp":978.5,"hvtl":-72.4,"hvtu":-31.8,"hb":-0.8,"idx":-1.5,"cls":5,"psfc":978.5,"terrain":false,"radius_km":200,"name":"sym cold","track":"T30"},"geometry":{"type":"Point","coordinates":[98.75,-65.0]}},{"type":"Feature","properties":{"kind":"center","id":13,"lat":-81.25,"lon":-63.25,"mslp":978.9,"hvtl":-225.9,"hvtu":-0.6,"hb":53.2,"idx":-2.0,"cls":4,"psfc":962.4,"terrain":false,"radius_km":200,"name":"asym cold","track":"T58"},"geometry":{"type":"Point","coordinates":[-63.25,-81.25]}},{"type":"Feature","properties":{"kind":"center","id":14,"lat":-69.75,"lon":0.5,"mslp":979.6,"hvtl":-91.3,"hvtu":-120.0,"hb":31.2,"idx":-2.3,"cls":4,"psfc":979.5,"terrain":false,"radius_km":200,"name":"asym cold","track":"T05"},"geometry":{"type":"Point","coordinates":[0.5,-69.75]}},{"type":"Feature","properties":{"kind":"center","id":15,"lat":-66.25,"lon":80.75,"mslp":979.9,"hvtl":-345.2,"hvtu":-242.6,"hb":62.8,"idx":-3.0,"cls":4,"psfc":979.9,"terrain":false,"radius_km":200,"name":"asym cold","track":"T41"},"geometry":{"type":"Point","coordinates":[80.75,-66.25]}},{"type":"Feature","properties":{"kind":"center","id":16,"lat":-50.5,"lon":29.5,"mslp":980.6,"hvtl":-473.4,"hvtu":-419.3,"hb":95.7,"idx":-3.0,"cls":4,"psfc":980.6,"terrain":false,"radius_km":200,"name":"asym cold","track":"T07"},"geometry":{"type":"Point","coordinates":[29.5,-50.5]}},{"type":"Feature","properties":{"kind":"center","id":17,"lat":65.0,"lon":-29.25,"mslp":981.2,"hvtl":113.1,"hvtu":-6.1,"hb":3.4,"idx":1.6,"cls":1,"psfc":981.2,"terrain":false,"radius_km":200,"name":"sym shallow warm","track":"T65"},"geometry":{"type":"Point","coordinates":[-29.25,65.0]}},{"type":"Feature","properties":{"kind":"center","id":18,"lat":75.75,"lon":50.75,"mslp":982.0,"hvtl":51.2,"hvtu":-47.2,"hb":4.4,"idx":0.5,"cls":1,"psfc":982.0,"terrain":false,"radius_km":200,"name":"sym shallow warm","track":"T50"},"geometry":{"type":"Point","coordinates":[50.75,75.75]}},{"type":"Feature","properties":{"kind":"center","id":19,"lat":-59.5,"lon":89.5,"mslp":982.1,"hvtl":-182.9,"hvtu":-136.4,"hb":28.7,"idx":-2.8,"cls":4,"psfc":982.1,"terrain":false,"radius_km":200,"name":"asym cold"},"geometry":{"type":"Point","coordinates":[89.5,-59.5]}},{"type":"Feature","properties":{"kind":"center","id":20,"lat":-80.75,"lon":-146.25,"mslp":982.8,"hvtl":-60.5,"hvtu":-142.2,"hb":35.6,"idx":-2.0,"cls":4,"psfc":959.7,"terrain":false,"radius_km":200,"name":"asym cold","track":"T66"},"geometry":{"type":"Point","coordinates":[-146.25,-80.75]}},{"type":"Feature","properties":{"kind":"center","id":21,"lat":62.25,"lon":-27.25,"mslp":983.7,"hvtl":46.7,"hvtu":-189.5,"hb":8.3,"idx":-0.1,"cls":1,"psfc":983.7,"terrain":false,"radius_km":200,"name":"sym shallow warm","track":"T62"},"geometry":{"type":"Point","coordinates":[-27.25,62.25]}},{"type":"Feature","properties":{"kind":"center","id":22,"lat":-82.5,"lon":176.5,"mslp":984.9,"hvtl":-4.0,"hvtu":-89.9,"hb":21.7,"idx":-0.8,"cls":4,"psfc":977.3,"terrain":false,"radius_km":200,"name":"asym cold"},"geometry":{"type":"Point","coordinates":[176.5,-82.5]}},{"type":"Feature","properties":{"kind":"center","id":23,"lat":-82.75,"lon":179.5,"mslp":985.0,"hvtl":-2.6,"hvtu":-86.3,"hb":23.1,"idx":-0.7,"cls":4,"psfc":976.2,"terrain":false,"radius_km":200,"name":"asym cold"},"geometry":{"type":"Point","coordinates":[179.5,-82.75]}},{"type":"Feature","properties":{"kind":"center","id":24,"lat":-72.5,"lon":174.75,"mslp":985.3,"hvtl":-39.0,"hvtu":-130.4,"hb":18.0,"idx":-1.6,"cls":4,"psfc":985.3,"terrain":false,"radius_km":200,"name":"asym cold","track":"T37"},"geometry":{"type":"Point","coordinates":[174.75,-72.5]}},{"type":"Feature","properties":{"kind":"center","id":25,"lat":-76.5,"lon":164.75,"mslp":986.2,"hvtl":-124.8,"hvtu":-55.0,"hb":40.0,"idx":-2.2,"cls":4,"psfc":986.2,"terrain":false,"radius_km":200,"name":"asym cold","track":"T64"},"geometry":{"type":"Point","coordinates":[164.75,-76.5]}},{"type":"Feature","properties":{"kind":"center","id":26,"lat":29.5,"lon":-170.5,"mslp":986.4,"hvtl":36.8,"hvtu":-44.7,"hb":7.1,"idx":0.3,"cls":1,"psfc":986.4,"terrain":false,"radius_km":200,"name":"sym shallow warm","track":"T70"},"geometry":{"type":"Point","coordinates":[-170.5,29.5]}},{"type":"Feature","properties":{"kind":"center","id":27,"lat":-71.5,"lon":162.25,"mslp":987.1,"hvtl":-154.6,"hvtu":-180.7,"hb":22.2,"idx":-2.8,"cls":4,"psfc":926.1,"terrain":false,"radius_km":200,"name":"asym cold","track":"T46"},"geometry":{"type":"Point","coordinates":[162.25,-71.5]}},{"type":"Feature","properties":{"kind":"center","id":28,"lat":23.0,"lon":-125.5,"mslp":988.5,"hvtl":89.0,"hvtu":101.9,"hb":1.8,"idx":2.2,"cls":0,"psfc":988.5,"terrain":false,"radius_km":200,"name":"sym deep warm","track":"T42"},"geometry":{"type":"Point","coordinates":[-125.5,23.0]}},{"type":"Feature","properties":{"kind":"center","id":29,"lat":-49.0,"lon":-100.25,"mslp":988.9,"hvtl":-114.7,"hvtu":-230.7,"hb":40.5,"idx":-2.6,"cls":4,"psfc":988.9,"terrain":false,"radius_km":200,"name":"asym cold","track":"T71"},"geometry":{"type":"Point","coordinates":[-100.25,-49.0]}},{"type":"Feature","properties":{"kind":"center","id":30,"lat":16.25,"lon":162.5,"mslp":990.7,"hvtl":86.0,"hvtu":84.4,"hb":3.0,"idx":2.1,"cls":0,"psfc":990.6,"terrain":false,"radius_km":200,"name":"sym deep warm","track":"T12"},"geometry":{"type":"Point","coordinates":[162.5,16.25]}},{"type":"Feature","properties":{"kind":"center","id":31,"lat":60.0,"lon":26.5,"mslp":995.9,"hvtl":52.1,"hvtu":-285.0,"hb":50.6,"idx":-0.0,"cls":3,"psfc":995.9,"terrain":false,"radius_km":200,"name":"asym shallow warm","track":"T81"},"geometry":{"type":"Point","coordinates":[26.5,60.0]}},{"type":"Feature","properties":{"kind":"center","id":32,"lat":58.25,"lon":-79.5,"mslp":996.4,"hvtl":44.9,"hvtu":-50.6,"hb":7.1,"idx":0.4,"cls":1,"psfc":996.4,"terrain":false,"radius_km":200,"name":"sym shallow warm","track":"T87"},"geometry":{"type":"Point","coordinates":[-79.5,58.25]}},{"type":"Feature","properties":{"kind":"center","id":33,"lat":-41.0,"lon":-108.0,"mslp":996.9,"hvtl":-91.8,"hvtu":-135.5,"hb":13.0,"idx":-2.3,"cls":4,"psfc":996.9,"terrain":false,"radius_km":200,"name":"asym cold"},"geometry":{"type":"Point","coordinates":[-108.0,-41.0]}},{"type":"Feature","properties":{"kind":"center","id":34,"lat":76.0,"lon":137.25,"mslp":997.8,"hvtl":-66.1,"hvtu":-203.2,"hb":59.9,"idx":-2.1,"cls":4,"psfc":997.3,"terrain":false,"radius_km":200,"name":"asym cold","track":"T88"},"geometry":{"type":"Point","coordinates":[137.25,76.0]}},{"type":"Feature","properties":{"kind":"center","id":35,"lat":50.5,"lon":-134.75,"mslp":997.8,"hvtl":-59.1,"hvtu":-345.0,"hb":71.3,"idx":-2.1,"cls":4,"psfc":997.8,"terrain":false,"radius_km":200,"name":"asym cold","track":"T85"},"geometry":{"type":"Point","coordinates":[-134.75,50.5]}},{"type":"Feature","properties":{"kind":"center","id":36,"lat":-40.0,"lon":-99.5,"mslp":998.5,"hvtl":-111.5,"hvtu":-371.5,"hb":47.9,"idx":-2.6,"cls":4,"psfc":998.5,"terrain":false,"radius_km":200,"name":"asym cold","track":"T74"},"geometry":{"type":"Point","coordinates":[-99.5,-40.0]}},{"type":"Feature","properties":{"kind":"center","id":37,"lat":81.0,"lon":-172.0,"mslp":999.8,"hvtl":39.7,"hvtu":-92.1,"hb":11.5,"idx":0.0,"cls":3,"psfc":999.8,"terrain":false,"radius_km":200,"name":"asym shallow warm","track":"T96"},"geometry":{"type":"Point","coordinates":[-172.0,81.0]}},{"type":"Feature","properties":{"kind":"center","id":38,"lat":16.75,"lon":147.75,"mslp":999.9,"hvtl":47.0,"hvtu":38.5,"hb":4.2,"idx":1.2,"cls":0,"psfc":999.8,"terrain":false,"radius_km":200,"name":"sym deep warm","track":"T06"},"geometry":{"type":"Point","coordinates":[147.75,16.75]}},{"type":"Feature","properties":{"kind":"center","id":39,"lat":59.25,"lon":90.25,"mslp":1000.1,"hvtl":-112.8,"hvtu":-92.5,"hb":37.7,"idx":-2.3,"cls":4,"psfc":979.0,"terrain":false,"radius_km":200,"name":"asym cold","track":"T100"},"geometry":{"type":"Point","coordinates":[90.25,59.25]}},{"type":"Feature","properties":{"kind":"center","id":40,"lat":-14.5,"lon":-66.5,"mslp":1001.9,"hvtl":-42.0,"hvtu":-78.9,"hb":-1.0,"idx":-1.5,"cls":5,"psfc":982.4,"terrain":false,"radius_km":200,"name":"sym cold","track":"T91"},"geometry":{"type":"Point","coordinates":[-66.5,-14.5]}},{"type":"Feature","properties":{"kind":"center","id":41,"lat":27.25,"lon":-109.75,"mslp":1002.6,"hvtl":15.6,"hvtu":-186.0,"hb":-10.6,"idx":-0.6,"cls":1,"psfc":996.6,"terrain":false,"radius_km":200,"name":"sym shallow warm","track":"T107"},"geometry":{"type":"Point","coordinates":[-109.75,27.25]}},{"type":"Feature","properties":{"kind":"center","id":42,"lat":33.75,"lon":156.0,"mslp":1002.8,"hvtl":64.2,"hvtu":-47.2,"hb":46.4,"idx":0.7,"cls":3,"psfc":1002.8,"terrain":false,"radius_km":200,"name":"asym shallow warm","track":"T44"},"geometry":{"type":"Point","coordinates":[156.0,33.75]}},{"type":"Feature","properties":{"kind":"center","id":43,"lat":29.75,"lon":70.5,"mslp":1003.5,"hvtl":22.4,"hvtu":-56.3,"hb":20.1,"idx":-0.1,"cls":3,"psfc":989.9,"terrain":false,"radius_km":200,"name":"asym shallow warm","track":"T103"},"geometry":{"type":"Point","coordinates":[70.5,29.75]}},{"type":"Feature","properties":{"kind":"center","id":44,"lat":-10.75,"lon":-73.5,"mslp":1004.1,"hvtl":90.8,"hvtu":-5.3,"hb":17.5,"idx":1.4,"cls":3,"psfc":971.2,"terrain":false,"radius_km":200,"name":"asym shallow warm"},"geometry":{"type":"Point","coordinates":[-73.5,-10.75]}},{"type":"Feature","properties":{"kind":"center","id":45,"lat":11.25,"lon":-102.75,"mslp":1004.5,"hvtl":6.5,"hvtu":44.3,"hb":-7.3,"idx":0.5,"cls":0,"psfc":1004.5,"terrain":false,"radius_km":200,"name":"sym deep warm","track":"T115"},"geometry":{"type":"Point","coordinates":[-102.75,11.25]}},{"type":"Feature","properties":{"kind":"center","id":46,"lat":75.75,"lon":-11.25,"mslp":1005.0,"hvtl":-115.2,"hvtu":-230.6,"hb":61.6,"idx":-2.6,"cls":4,"psfc":1005.0,"terrain":false,"radius_km":200,"name":"asym cold","track":"T57"},"geometry":{"type":"Point","coordinates":[-11.25,75.75]}},{"type":"Feature","properties":{"kind":"center","id":47,"lat":-37.75,"lon":-49.0,"mslp":1006.0,"hvtl":20.4,"hvtu":-268.3,"hb":106.0,"idx":-0.6,"cls":3,"psfc":1006.0,"terrain":false,"radius_km":200,"name":"asym shallow warm","track":"T110"},"geometry":{"type":"Point","coordinates":[-49.0,-37.75]}},{"type":"Feature","properties":{"kind":"center","id":48,"lat":-11.75,"lon":-74.0,"mslp":1007.4,"hvtl":120.6,"hvtu":-20.8,"hb":46.8,"idx":1.5,"cls":3,"psfc":933.7,"terrain":false,"radius_km":200,"name":"asym shallow warm"},"geometry":{"type":"Point","coordinates":[-74.0,-11.75]}},{"type":"Feature","properties":{"kind":"center","id":49,"lat":-11.25,"lon":-74.25,"mslp":1008.0,"hvtl":92.3,"hvtu":-5.1,"hb":36.3,"idx":1.4,"cls":3,"psfc":901.8,"terrain":true,"radius_km":200,"name":"asym shallow warm"},"geometry":{"type":"Point","coordinates":[-74.25,-11.25]}},{"type":"Feature","properties":{"kind":"center","id":50,"lat":35.75,"lon":-66.0,"mslp":1008.1,"hvtl":-0.3,"hvtu":-231.5,"hb":26.6,"idx":-1.0,"cls":4,"psfc":1008.1,"terrain":false,"radius_km":200,"name":"asym cold","track":"T105"},"geometry":{"type":"Point","coordinates":[-66.0,35.75]}},{"type":"Feature","properties":{"kind":"center","id":51,"lat":29.75,"lon":-77.25,"mslp":1008.3,"hvtl":64.4,"hvtu":-127.9,"hb":23.2,"idx":0.3,"cls":3,"psfc":1008.3,"terrain":false,"radius_km":200,"name":"asym shallow warm","track":"T116"},"geometry":{"type":"Point","coordinates":[-77.25,29.75]}},{"type":"Feature","properties":{"kind":"center","id":52,"lat":63.5,"lon":-52.0,"mslp":1009.0,"hvtl":0.7,"hvtu":-116.8,"hb":9.5,"idx":-0.8,"cls":1,"psfc":1009.0,"terrain":false,"radius_km":200,"name":"sym shallow warm"},"geometry":{"type":"Point","coordinates":[-52.0,63.5]}},{"type":"Feature","properties":{"kind":"center","id":53,"lat":50.5,"lon":-124.75,"mslp":1009.7,"hvtl":-193.5,"hvtu":-186.5,"hb":81.2,"idx":-2.9,"cls":4,"psfc":902.9,"terrain":true,"radius_km":200,"name":"asym cold"},"geometry":{"type":"Point","coordinates":[-124.75,50.5]}},{"type":"Feature","properties":{"kind":"center","id":54,"lat":30.0,"lon":59.0,"mslp":1010.9,"hvtl":131.4,"hvtu":-38.0,"hb":23.7,"idx":1.4,"cls":3,"psfc":973.3,"terrain":false,"radius_km":200,"name":"asym shallow warm","track":"T114"},"geometry":{"type":"Point","coordinates":[59.0,30.0]}},{"type":"Feature","properties":{"kind":"center","id":55,"lat":30.0,"lon":50.25,"mslp":1011.0,"hvtl":41.6,"hvtu":-82.4,"hb":8.2,"idx":0.1,"cls":1,"psfc":1009.3,"terrain":false,"radius_km":200,"name":"sym shallow warm"},"geometry":{"type":"Point","coordinates":[50.25,30.0]}},{"type":"Feature","properties":{"kind":"center","id":56,"lat":-33.5,"lon":165.0,"mslp":1012.0,"hvtl":-109.2,"hvtu":-112.0,"hb":25.4,"idx":-2.4,"cls":4,"psfc":1012.0,"terrain":false,"radius_km":200,"name":"asym cold","track":"T120"},"geometry":{"type":"Point","coordinates":[165.0,-33.5]}},{"type":"Feature","properties":{"kind":"center","id":57,"lat":69.0,"lon":-55.5,"mslp":1012.8,"hvtl":-147.4,"hvtu":-96.7,"hb":15.6,"idx":-2.5,"cls":4,"psfc":1012.8,"terrain":false,"radius_km":200,"name":"asym cold"},"geometry":{"type":"Point","coordinates":[-55.5,69.0]}},{"type":"Feature","properties":{"kind":"center","id":58,"lat":-21.25,"lon":-64.0,"mslp":1013.4,"hvtl":30.1,"hvtu":-262.1,"hb":67.1,"idx":-0.4,"cls":3,"psfc":918.3,"terrain":true,"radius_km":200,"name":"asym shallow warm"},"geometry":{"type":"Point","coordinates":[-64.0,-21.25]}},{"type":"Feature","properties":{"kind":"center","id":59,"lat":26.75,"lon":93.0,"mslp":1013.4,"hvtl":-30.8,"hvtu":-99.9,"hb":7.4,"idx":-1.4,"cls":5,"psfc":1003.7,"terrain":false,"radius_km":200,"name":"sym cold","track":"T124"},"geometry":{"type":"Point","coordinates":[93.0,26.75]}},{"type":"Feature","properties":{"kind":"center","id":60,"lat":25.5,"lon":95.5,"mslp":1013.5,"hvtl":-32.3,"hvtu":-95.3,"hb":10.4,"idx":-1.4,"cls":4,"psfc":989.6,"terrain":false,"radius_km":200,"name":"asym cold","track":"T122"},"geometry":{"type":"Point","coordinates":[95.5,25.5]}},{"type":"Feature","properties":{"kind":"center","id":61,"lat":31.25,"lon":61.25,"mslp":1013.8,"hvtl":108.7,"hvtu":-60.7,"hb":30.3,"idx":1.0,"cls":3,"psfc":956.6,"terrain":false,"radius_km":200,"name":"asym shallow warm"},"geometry":{"type":"Point","coordinates":[61.25,31.25]}},{"type":"Feature","properties":{"kind":"center","id":62,"lat":30.0,"lon":62.75,"mslp":1014.1,"hvtl":100.0,"hvtu":-37.9,"hb":4.8,"idx":1.2,"cls":1,"psfc":947.1,"terrain":false,"radius_km":200,"name":"sym shallow warm","track":"T133"},"geometry":{"type":"Point","coordinates":[62.75,30.0]}},{"type":"Feature","properties":{"kind":"center","id":63,"lat":32.25,"lon":61.75,"mslp":1014.6,"hvtl":125.1,"hvtu":-88.0,"hb":56.3,"idx":1.0,"cls":3,"psfc":944.7,"terrain":false,"radius_km":200,"name":"asym shallow warm"},"geometry":{"type":"Point","coordinates":[61.75,32.25]}},{"type":"Feature","properties":{"kind":"center","id":64,"lat":-28.0,"lon":-66.5,"mslp":1014.7,"hvtl":-32.4,"hvtu":-254.9,"hb":32.0,"idx":-1.6,"cls":4,"psfc":927.4,"terrain":false,"radius_km":200,"name":"asym cold"},"geometry":{"type":"Point","coordinates":[-66.5,-28.0]}},{"type":"Feature","properties":{"kind":"center","id":65,"lat":-23.25,"lon":-64.0,"mslp":1014.9,"hvtl":50.2,"hvtu":-265.9,"hb":67.8,"idx":-0.1,"cls":3,"psfc":981.1,"terrain":false,"radius_km":200,"name":"asym shallow warm"},"geometry":{"type":"Point","coordinates":[-64.0,-23.25]}},{"type":"Feature","properties":{"kind":"center","id":66,"lat":31.0,"lon":60.5,"mslp":1015.7,"hvtl":107.1,"hvtu":-50.0,"hb":33.9,"idx":1.1,"cls":3,"psfc":915.2,"terrain":true,"radius_km":200,"name":"asym shallow warm"},"geometry":{"type":"Point","coordinates":[60.5,31.0]}},{"type":"Feature","properties":{"kind":"center","id":67,"lat":-27.25,"lon":-65.75,"mslp":1017.4,"hvtl":5.4,"hvtu":-275.5,"hb":41.9,"idx":-0.9,"cls":3,"psfc":930.3,"terrain":false,"radius_km":200,"name":"asym shallow warm","track":"T127"},"geometry":{"type":"Point","coordinates":[-65.75,-27.25]}},{"type":"Feature","properties":{"kind":"center","id":68,"lat":-31.5,"lon":61.75,"mslp":1018.8,"hvtl":29.6,"hvtu":-158.9,"hb":-2.2,"idx":-0.3,"cls":1,"psfc":1018.8,"terrain":false,"radius_km":200,"name":"sym shallow warm","track":"T135"},"geometry":{"type":"Point","coordinates":[61.75,-31.5]}}]}