{"type":"FeatureCollection","features":[{"type":"Feature","properties":{"kind":"blob","cls":3,"id":1},"geometry":{"type":"Polygon","coordinates":[[[-124.5,-63.38],[-122.62,-62.0],[-122.62,-61.5],[-123.5,-60.38],[-124.5,-59.88],[-128.5,-59.88],[-130.62,-61.5],[-130.62,-62.0],[-128.75,-63.38],[-124.5,-63.38]]]}},{"type":"Feature","properties":{"kind":"blob","cls":3,"id":2},"geometry":{"type":"Polygon","coordinates":[[[-4.0,-58.12],[-2.38,-56.75],[-2.38,-55.75],[-3.75,-54.38],[-6.12,-53.75],[-5.12,-52.75],[-5.12,-51.75],[-6.25,-50.62],[-7.75,-50.12],[-10.0,-50.38],[-11.38,-51.5],[-11.38,-52.75],[-10.25,-53.88],[-8.88,-54.25],[-9.88,-55.5],[-9.62,-57.0],[-8.5,-56.62],[-7.88,-57.25],[-7.88,-58.0],[-4.0,-58.12]]]}},{"type":"Feature","properties":{"kind":"blob","cls":4,"id":3},"geometry":{"type":"Polygon","coordinates":[[[-132.0,-72.12],[-127.75,-71.38],[-126.5,-70.88],[-125.62,-70.0],[-125.62,-69.5],[-126.5,-68.62],[-128.0,-68.12],[-134.0,-67.88],[-137.25,-68.62],[-138.25,-69.12],[-138.88,-70.0],[-138.25,-70.88],[-136.75,-71.62],[-132.0,-72.12]]]}},{"type":"Feature","properties":{"kind":"blob","cls":4,"id":4},"geometry":{"type":"Polygon","coordinates":[[[-159.5,-63.38],[-155.25,-63.38],[-154.25,-62.88],[-153.12,-61.5],[-154.0,-60.38],[-155.0,-59.88],[-157.75,-59.62],[-160.5,-60.12],[-162.38,-61.5],[-162.38,-62.0],[-161.5,-62.88],[-159.5,-63.38]]]}},{"type":"Feature","properties":{"kind":"blob","cls":4,"id":5},"geometry":{"type":"Polygon","coordinates":[[[179.75,-82.88],[180.0,-79.62],[172.5,-79.88],[167.0,-80.62],[166.38,-81.0],[173.0,-82.38],[179.75,-82.88]]]}},{"type":"Feature","properties":{"kind":"blob","cls":4,"id":5},"geometry":{"type":"Polygon","coordinates":[[[-179.75,-79.62],[-180.0,-82.88],[-174.5,-83.12],[-161.0,-83.12],[-151.5,-82.62],[-146.62,-82.0],[-151.0,-81.88],[-151.75,-81.38],[-143.0,-81.62],[-145.88,-81.25],[-141.88,-80.75],[-142.75,-79.38],[-148.0,-79.62],[-149.0,-78.88],[-151.25,-78.88],[-153.0,-78.62],[-153.25,-78.12],[-157.38,-77.75],[-155.75,-77.12],[-160.5,-77.88],[-161.38,-78.5],[-161.38,-79.0],[-159.75,-79.88],[-154.38,-81.0],[-155.25,-81.38],[-161.75,-81.62],[-164.5,-80.62],[-169.25,-79.88],[-179.75,-79.62]]]}},{"type":"Feature","properties":{"kind":"blob","cls":0,"id":6},"geometry":{"type":"Polygon","coordinates":[[[148.25,20.12],[149.12,21.0],[149.12,22.5],[147.5,23.62],[146.25,23.38],[145.38,22.5],[146.12,22.25],[146.12,21.75],[145.38,21.5],[145.38,21.0],[146.25,20.12],[148.25,20.12]]]}},{"type":"Feature","properties":{"kind":"blob","cls":6,"id":7},"geometry":{"type":"Polygon","coordinates":[[[-145.0,-77.88],[-144.88,-77.5],[-145.25,-77.12],[-148.25,-76.88],[-154.25,-76.88],[-154.62,-77.25],[-145.0,-77.88]]]}},{"type":"Feature","properties":{"kind":"blob","cls":4,"id":8},"geometry":{"type":"Polygon","coordinates":[[[109.75,-66.12],[111.62,-65.0],[111.62,-64.0],[111.0,-63.38],[110.5,-64.12],[108.25,-64.12],[102.75,-63.38],[102.12,-64.0],[102.12,-65.0],[102.5,-65.38],[104.0,-66.12],[109.75,-66.12]]]}},{"type":"Feature","properties":{"kind":"blob","cls":4,"id":9},"geometry":{"type":"Polygon","coordinates":[[[130.75,-64.12],[132.75,-63.62],[133.62,-63.0],[133.88,-61.5],[132.75,-60.38],[130.5,-59.62],[128.25,-59.62],[126.0,-60.38],[125.38,-61.0],[125.12,-62.0],[127.0,-63.62],[130.75,-64.12]]]}},{"type":"Feature","properties":{"kind":"blob","cls":1,"id":10},"geometry":{"type":"Polygon","coordinates":[[[107.5,-62.62],[108.12,-62.5],[108.0,-62.38],[107.5,-62.62]]]}},{"type":"Feature","properties":{"kind":"blob","cls":1,"id":11},"geometry":{"type":"Polygon","coordinates":[[[109.0,-62.88],[109.62,-62.75],[109.5,-62.62],[109.0,-62.88]]]}},{"type":"Feature","properties":{"kind":"blob","cls":1,"id":12},"geometry":{"type":"Polygon","coordinates":[[[110.38,-63.25],[110.5,-63.38],[110.62,-63.25],[110.38,-63.25]]]}},{"type":"Feature","properties":{"kind":"blob","cls":1,"id":13},"geometry":{"type":"Polygon","coordinates":[[[109.88,-63.0],[110.0,-63.12],[110.12,-63.0],[109.88,-63.0]]]}},{"type":"Feature","properties":{"kind":"blob","cls":4,"id":14},"geometry":{"type":"Polygon","coordinates":[[[100.25,-54.88],[103.75,-53.88],[105.38,-52.5],[105.38,-51.0],[104.5,-50.12],[103.0,-49.62],[101.25,-49.62],[97.75,-50.88],[96.38,-52.25],[96.38,-53.5],[97.25,-54.38],[100.25,-54.88]]]}},{"type":"Feature","properties":{"kind":"blob","cls":4,"id":15},"geometry":{"type":"Polygon","coordinates":[[[-18.25,-71.88],[-18.38,-71.0],[-16.75,-69.88],[-15.5,-69.88],[-15.12,-70.25],[-16.0,-71.62],[-14.0,-71.38],[-12.75,-70.88],[-11.62,-69.75],[-11.62,-69.0],[-12.25,-68.12],[-14.0,-67.38],[-19.25,-67.12],[-21.75,-67.62],[-23.62,-69.0],[-23.62,-70.0],[-22.75,-70.88],[-20.75,-71.62],[-18.25,-71.88]]]}},{"type":"Feature","properties":{"kind":"blob","cls":4,"id":16},"geometry":{"type":"Polygon","coordinates":[[[170.25,-73.62],[173.0,-73.12],[174.62,-72.25],[174.62,-71.25],[173.0,-70.38],[170.25,-69.88],[165.0,-70.38],[170.62,-71.75],[169.88,-72.25],[170.38,-72.5],[169.5,-73.12],[168.5,-72.88],[166.88,-73.25],[170.25,-73.62]]]}},{"type":"Feature","properties":{"kind":"blob","cls":5,"id":17},"geometry":{"type":"Polygon","coordinates":[[[179.75,51.62],[180.0,55.62],[179.5,55.62],[177.5,54.88],[176.62,53.5],[177.25,52.38],[179.75,51.62]]]}},{"type":"Feature","properties":{"kind":"blob","cls":5,"id":17},"geometry":{"type":"Polygon","coordinates":[[[-179.75,55.62],[-180.0,51.62],[-177.25,52.38],[-176.62,53.5],[-177.12,54.5],[-178.5,55.38],[-179.75,55.62]]]}},{"type":"Feature","properties":{"kind":"blob","cls":0,"id":18},"geometry":{"type":"Polygon","coordinates":[[[-172.75,21.62],[-171.88,22.5],[-171.88,24.0],[-173.5,25.12],[-174.75,24.88],[-175.62,24.0],[-175.62,22.5],[-174.75,21.62],[-172.75,21.62]]]}},{"type":"Feature","properties":{"kind":"blob","cls":4,"id":19},"geometry":{"type":"Polygon","coordinates":[[[164.0,-70.88],[164.5,-71.12],[164.62,-70.75],[164.25,-70.62],[164.0,-70.88]]]}},{"type":"Feature","properties":{"kind":"blob","cls":0,"id":20},"geometry":{"type":"Polygon","coordinates":[[[-111.5,18.38],[-110.62,19.5],[-110.88,21.0],[-112.25,21.88],[-113.5,21.62],[-114.38,20.5],[-114.25,19.38],[-113.5,20.38],[-112.5,20.38],[-112.12,20.0],[-112.25,19.12],[-113.88,18.75],[-111.5,18.38]]]}},{"type":"Feature","properties":{"kind":"blob","cls":4,"id":21},"geometry":{"type":"Polygon","coordinates":[[[81.75,-57.88],[83.12,-56.75],[83.12,-55.75],[82.25,-54.88],[80.5,-54.38],[77.25,-54.62],[75.88,-55.75],[75.88,-56.75],[77.25,-57.88],[81.75,-57.88]]]}},{"type":"Feature","properties":{"kind":"blob","cls":4,"id":22},"geometry":{"type":"Polygon","coordinates":[[[-18.5,64.12],[-18.5,64.62],[-20.62,64.75],[-19.25,64.88],[-18.75,65.88],[-17.5,65.12],[-15.25,64.88],[-15.75,64.12],[-13.5,64.38],[-11.75,65.12],[-10.88,66.5],[-12.25,67.88],[-15.0,68.62],[-20.75,68.38],[-22.0,68.12],[-23.0,67.12],[-25.62,66.75],[-25.88,65.75],[-25.5,65.12],[-23.75,64.38],[-18.5,64.12]]]}},{"type":"Feature","properties":{"kind":"blob","cls":5,"id":23},"geometry":{"type":"Polygon","coordinates":[[[67.0,-68.12],[67.38,-67.5],[67.38,-67.0],[66.25,-65.88],[64.5,-65.12],[61.75,-64.62],[58.0,-64.62],[54.75,-65.38],[53.88,-66.0],[55.75,-66.38],[56.0,-67.12],[62.25,-67.88],[67.0,-68.12]]]}},{"type":"Feature","properties":{"kind":"blob","cls":6,"id":24},"geometry":{"type":"Polygon","coordinates":[[[121.0,70.88],[122.12,71.25],[120.75,71.62],[120.75,72.12],[123.5,72.12],[123.62,72.75],[123.0,73.62],[120.75,74.38],[115.25,74.62],[111.5,73.88],[110.12,72.75],[110.75,71.62],[111.75,71.12],[121.0,70.88]]]}},{"type":"Feature","properties":{"kind":"blob","cls":4,"id":25},"geometry":{"type":"Polygon","coordinates":[[[-18.0,63.88],[-16.38,64.0],[-16.5,64.12],[-18.0,63.88]]]}},{"type":"Feature","properties":{"kind":"blob","cls":5,"id":26},"geometry":{"type":"Polygon","coordinates":[[[14.12,-70.5],[14.25,-70.88],[18.5,-70.88],[29.75,-70.38],[33.75,-69.88],[34.38,-69.25],[33.5,-68.38],[32.0,-67.88],[26.5,-67.62],[17.0,-68.62],[15.0,-69.38],[14.12,-70.5]]]}},{"type":"Feature","properties":{"kind":"blob","cls":4,"id":27},"geometry":{"type":"Polygon","coordinates":[[[53.0,-59.12],[56.75,-59.12],[58.12,-58.25],[58.38,-57.25],[57.5,-56.12],[56.5,-55.62],[52.0,-55.62],[50.62,-56.5],[50.38,-57.5],[51.25,-58.62],[53.0,-59.12]]]}},{"type":"Feature","properties":{"kind":"blob","cls":4,"id":28},"geometry":{"type":"Polygon","coordinates":[[[-103.25,-51.12],[-101.0,-50.12],[-100.62,-49.5],[-100.88,-47.75],[-102.75,-46.88],[-104.5,-46.88],[-106.25,-47.62],[-106.88,-49.25],[-106.62,-50.0],[-105.5,-50.88],[-103.25,-51.12]]]}},{"type":"Feature","properties":{"kind":"blob","cls":4,"id":29},"geometry":{"type":"Polygon","coordinates":[[[-51.75,-81.62],[-46.88,-81.25],[-49.25,-80.38],[-52.75,-79.88],[-64.25,-79.62],[-60.0,-78.88],[-58.62,-78.0],[-58.62,-77.5],[-59.75,-76.62],[-62.75,-75.88],[-74.25,-75.88],[-77.75,-76.62],[-78.0,-77.38],[-79.12,-77.5],[-78.75,-78.62],[-76.5,-79.38],[-68.88,-80.0],[-73.75,-80.88],[-67.0,-81.38],[-51.75,-81.62]],[[-67.38,-79.75],[-65.12,-79.75],[-65.25,-79.88],[-67.38,-79.75]]]}},{"type":"Feature","properties":{"kind":"blob","cls":3,"id":30},"geometry":{"type":"Polygon","coordinates":[[[-55.5,64.88],[-53.75,65.62],[-53.12,66.5],[-54.5,67.88],[-57.25,68.62],[-61.0,68.38],[-63.38,67.0],[-63.38,66.0],[-63.0,65.62],[-61.25,64.88],[-55.5,64.88]]]}},{"type":"Feature","properties":{"kind":"blob","cls":3,"id":31},"geometry":{"type":"Polygon","coordinates":[[[-151.0,53.88],[-148.5,54.62],[-146.88,56.5],[-147.38,58.0],[-150.25,59.38],[-152.0,59.38],[-154.5,58.38],[-155.12,57.5],[-154.88,55.5],[-153.75,54.38],[-151.0,53.88]]]}},{"type":"Feature","properties":{"kind":"blob","cls":1,"id":32},"geometry":{"type":"Polygon","coordinates":[[[-41.5,58.38],[-38.0,59.38],[-37.12,60.25],[-37.12,61.25],[-38.62,62.5],[-36.25,62.88],[-34.75,63.62],[-33.88,65.0],[-34.12,65.75],[-34.75,66.38],[-35.75,66.38],[-41.75,63.88],[-42.5,62.88],[-43.12,62.75],[-42.88,62.0],[-44.0,60.38],[-44.75,60.62],[-45.25,61.38],[-46.25,61.38],[-46.62,61.0],[-46.38,59.5],[-45.5,58.88],[-41.5,58.38]]]}},{"type":"Feature","properties":{"kind":"blob","cls":4,"id":33},"geometry":{"type":"Polygon","coordinates":[[[150.25,74.12],[152.25,74.62],[153.62,75.75],[153.25,76.38],[150.75,77.38],[145.75,78.12],[139.75,77.88],[137.5,77.38],[136.12,76.25],[136.5,75.62],[138.75,74.62],[140.75,74.12],[150.25,74.12]]]}},{"type":"Feature","properties":{"kind":"blob","cls":5,"id":34},"geometry":{"type":"Polygon","coordinates":[[[-67.5,72.62],[-68.38,74.5],[-67.88,76.5],[-74.5,76.38],[-77.62,75.0],[-77.25,74.12],[-75.75,73.38],[-67.5,72.62]]]}},{"type":"Feature","properties":{"kind":"blob","cls":4,"id":35},"geometry":{"type":"Polygon","coordinates":[[[-52.12,71.0],[-53.0,71.88],[-54.0,71.88],[-53.88,72.5],[-54.25,72.88],[-57.0,74.12],[-58.25,74.38],[-58.88,73.75],[-58.0,71.88],[-55.75,71.12],[-52.12,71.0]]]}},{"type":"Feature","properties":{"kind":"blob","cls":4,"id":36},"geometry":{"type":"MultiPolygon","coordinates":[[[[-65.5,73.12],[-65.62,73.0],[-65.5,72.88],[-65.5,73.12]]],[[[-65.25,73.12],[-63.5,73.38],[-61.88,74.5],[-61.88,75.0],[-62.75,75.62],[-65.25,73.12]]]]}},{"type":"Feature","properties":{"kind":"blob","cls":4,"id":37},"geometry":{"type":"Polygon","coordinates":[[[147.5,56.62],[149.5,57.38],[150.12,58.0],[150.12,59.5],[149.0,60.62],[146.5,60.62],[146.0,61.12],[144.5,60.62],[144.5,60.12],[143.5,60.88],[142.5,60.88],[141.12,59.75],[141.12,58.5],[142.0,57.62],[144.0,56.88],[147.5,56.62]]]}},{"type":"Feature","properties":{"kind":"blob","cls":4,"id":38},"geometry":{"type":"Polygon","coordinates":[[[16.0,69.88],[18.75,70.38],[20.88,71.75],[20.88,72.5],[19.75,73.38],[18.0,73.88],[13.0,74.12],[8.75,73.12],[7.62,72.25],[7.62,71.75],[9.0,70.62],[16.0,69.88]]]}},{"type":"Feature","properties":{"kind":"blob","cls":1,"id":39},"geometry":{"type":"Polygon","coordinates":[[[-60.0,-50.62],[-58.62,-49.75],[-58.38,-47.75],[-59.25,-46.88],[-60.5,-46.38],[-62.25,-46.38],[-63.5,-46.88],[-64.88,-48.0],[-65.12,-49.5],[-64.0,-50.62],[-60.0,-50.62]]]}},{"type":"Feature","properties":{"kind":"blob","cls":1,"id":40},"geometry":{"type":"Polygon","coordinates":[[[-60.25,-24.62],[-59.38,-23.75],[-59.38,-21.75],[-60.38,-20.75],[-60.12,-19.25],[-62.25,-17.12],[-64.12,-17.0],[-63.88,-15.5],[-64.75,-14.38],[-66.75,-14.38],[-67.62,-15.5],[-63.38,-18.25],[-63.88,-19.0],[-63.12,-19.75],[-63.38,-20.75],[-64.12,-21.0],[-63.62,-21.75],[-64.38,-23.0],[-63.25,-24.12],[-60.25,-24.62]]]}},{"type":"Feature","properties":{"kind":"blob","cls":1,"id":41},"geometry":{"type":"Polygon","coordinates":[[[-62.75,79.38],[-60.0,80.12],[-58.0,80.12],[-57.62,80.5],[-59.75,80.88],[-59.5,81.38],[-48.88,81.25],[-50.75,82.12],[-54.0,82.62],[-62.75,82.88],[-69.75,82.12],[-71.62,81.25],[-69.25,81.12],[-69.25,80.62],[-70.62,80.25],[-69.75,79.88],[-62.75,79.38]]]}},{"type":"Feature","properties":{"kind":"blob","cls":3,"id":42},"geometry":{"type":"Polygon","coordinates":[[[-67.25,-30.12],[-65.5,-30.12],[-64.62,-29.25],[-64.38,-27.75],[-65.25,-26.62],[-65.88,-27.25],[-65.38,-28.75],[-65.75,-28.38],[-66.38,-28.75],[-66.12,-28.0],[-66.5,-27.62],[-66.88,-28.0],[-66.62,-29.0],[-67.38,-29.75],[-67.25,-30.12]]]}},{"type":"Feature","properties":{"kind":"blob","cls":4,"id":43},"geometry":{"type":"Polygon","coordinates":[[[60.25,55.38],[62.25,56.12],[62.88,57.0],[62.62,58.25],[60.25,59.38],[57.75,59.12],[56.25,58.38],[55.62,57.5],[55.88,56.5],[57.25,55.62],[60.25,55.38]]]}},{"type":"Feature","properties":{"kind":"blob","cls":4,"id":44},"geometry":{"type":"Polygon","coordinates":[[[-52.25,-31.38],[-51.12,-30.0],[-51.38,-29.0],[-53.0,-27.88],[-54.25,-28.12],[-55.38,-29.5],[-55.12,-30.5],[-54.25,-31.38],[-52.25,-31.38]]]}},{"type":"Feature","properties":{"kind":"blob","cls":1,"id":45},"geometry":{"type":"Polygon","coordinates":[[[-70.0,-13.62],[-69.38,-12.75],[-69.38,-11.5],[-70.25,-10.38],[-74.38,-10.0],[-73.0,-12.38],[-72.25,-11.88],[-71.25,-13.12],[-70.0,-13.62]]]}},{"type":"Feature","properties":{"kind":"blob","cls":3,"id":46},"geometry":{"type":"Polygon","coordinates":[[[-68.38,-30.0],[-68.25,-30.12],[-68.12,-30.0],[-68.38,-30.0]]]}},{"type":"Feature","properties":{"kind":"blob","cls":1,"id":47},"geometry":{"type":"Polygon","coordinates":[[[-74.0,-12.38],[-74.0,-11.62],[-74.12,-11.75],[-74.0,-12.38]]]}},{"type":"Feature","properties":{"kind":"blob","cls":1,"id":48},"geometry":{"type":"MultiPolygon","coordinates":[[[[67.75,24.88],[69.0,25.38],[70.38,27.25],[70.12,28.25],[68.75,29.62],[67.5,29.88],[66.88,27.0],[65.38,26.75],[65.62,26.0],[67.75,24.88]]],[[[71.5,28.62],[73.25,29.38],[74.12,30.5],[74.12,31.75],[73.5,32.38],[70.5,31.88],[70.12,31.5],[70.12,30.0],[69.12,29.5],[71.5,28.62]]]]}},{"type":"Feature","properties":{"kind":"blob","cls":4,"id":49},"geometry":{"type":"Polygon","coordinates":[[[-121.5,37.88],[-120.62,38.25],[-120.62,38.75],[-121.88,40.25],[-122.0,41.12],[-123.12,40.75],[-122.62,39.5],[-123.12,39.5],[-123.62,40.5],[-123.5,41.88],[-124.62,41.0],[-124.62,39.5],[-123.25,38.12],[-121.5,37.88]]]}},{"type":"Feature","properties":{"kind":"blob","cls":1,"id":50},"geometry":{"type":"Polygon","coordinates":[[[-75.12,-10.25],[-75.0,-10.62],[-74.62,-10.5],[-74.75,-10.12],[-75.12,-10.25]]]}},{"type":"Feature","properties":{"kind":"blob","cls":1,"id":51},"geometry":{"type":"Polygon","coordinates":[[[-74.5,-11.38],[-74.12,-11.25],[-74.25,-11.12],[-74.5,-11.38]]]}},{"type":"Feature","properties":{"kind":"blob","cls":5,"id":52},"geometry":{"type":"Polygon","coordinates":[[[80.5,25.62],[81.38,26.5],[81.62,27.75],[80.5,29.12],[79.75,29.12],[78.75,29.88],[76.88,28.5],[76.62,27.5],[78.25,25.62],[80.5,25.62]]]}},{"type":"Feature","properties":{"kind":"blob","cls":1,"id":53},"geometry":{"type":"Polygon","coordinates":[[[59.75,28.12],[60.12,28.5],[59.75,31.12],[58.5,30.88],[57.88,30.0],[58.38,29.0],[59.75,28.12]]]}},{"type":"Feature","properties":{"kind":"blob","cls":3,"id":54},"geometry":{"type":"Polygon","coordinates":[[[39.0,22.62],[39.88,23.5],[39.62,25.25],[38.25,26.12],[37.0,25.88],[36.12,25.0],[36.12,23.5],[37.0,22.62],[39.0,22.62]],[[39.0,24.38],[38.88,24.5],[39.0,24.62],[39.0,24.38]],[[39.5,23.62],[39.38,23.75],[39.5,23.88],[39.5,23.62]]]}},{"type":"Feature","properties":{"kind":"blob","cls":6,"id":55},"geometry":{"type":"Polygon","coordinates":[[[-150.25,73.38],[-146.75,73.88],[-144.75,74.62],[-143.38,76.25],[-144.75,77.38],[-149.5,78.12],[-157.75,77.88],[-161.12,76.75],[-157.75,76.62],[-155.75,76.12],[-155.38,75.5],[-156.0,75.12],[-159.88,74.5],[-157.0,73.62],[-150.25,73.38]]]}},{"type":"Feature","properties":{"kind":"blob","cls":4,"id":56},"geometry":{"type":"Polygon","coordinates":[[[-122.62,41.75],[-122.5,41.62],[-122.38,41.75],[-122.62,41.75]]]}},{"type":"Feature","properties":{"kind":"blob","cls":1,"id":57},"geometry":{"type":"Polygon","coordinates":[[[63.12,29.75],[61.25,31.12],[60.38,31.0],[60.88,30.75],[60.75,30.12],[61.0,30.38],[63.12,29.75]]]}},{"type":"Feature","properties":{"kind":"blob","cls":1,"id":58},"geometry":{"type":"Polygon","coordinates":[[[86.5,25.38],[87.38,26.25],[87.38,27.0],[85.25,27.38],[84.5,27.88],[82.75,27.88],[82.38,27.0],[82.62,26.25],[83.5,25.38],[86.5,25.38]]]}},{"type":"Feature","properties":{"kind":"blob","cls":4,"id":59},"geometry":{"type":"Polygon","coordinates":[[[-122.88,42.25],[-122.75,42.12],[-122.62,42.25],[-122.88,42.25]]]}},{"type":"Feature","properties":{"kind":"blob","cls":4,"id":60},"geometry":{"type":"Polygon","coordinates":[[[123.25,39.12],[124.38,40.25],[124.38,41.25],[123.0,42.62],[122.25,42.88],[120.25,42.62],[118.88,41.25],[118.88,40.25],[120.0,39.12],[123.25,39.12]]]}},{"type":"Feature","properties":{"kind":"blob","cls":4,"id":61},"geometry":{"type":"MultiPolygon","coordinates":[[[[71.0,41.12],[70.88,41.0],[71.0,40.88],[71.0,41.12]]],[[[67.25,39.38],[67.75,39.88],[70.25,40.12],[70.88,40.75],[69.62,40.5],[69.62,41.75],[70.38,42.5],[70.12,42.75],[73.75,42.88],[73.88,44.25],[72.0,45.38],[69.75,44.88],[69.12,44.25],[69.12,42.75],[68.0,42.38],[66.62,41.0],[67.25,39.38]]]]}},{"type":"Feature","properties":{"kind":"blob","cls":4,"id":62},"geometry":{"type":"Polygon","coordinates":[[[-91.25,46.38],[-90.0,46.88],[-89.12,47.75],[-89.12,48.75],[-90.0,49.62],[-91.25,50.12],[-92.75,50.12],[-94.0,49.62],[-94.88,48.75],[-94.88,47.75],[-94.0,46.88],[-91.25,46.38]]]}},{"type":"Feature","properties":{"kind":"blob","cls":4,"id":63},"geometry":{"type":"Polygon","coordinates":[[[61.0,33.12],[61.25,32.88],[61.62,33.5],[61.5,33.62],[61.0,33.12]]]}},{"type":"Feature","properties":{"kind":"blob","cls":4,"id":64},"geometry":{"type":"Polygon","coordinates":[[[63.0,35.62],[63.5,35.38],[65.0,35.88],[67.25,37.38],[68.12,38.5],[66.5,37.62],[66.38,38.25],[67.12,39.0],[66.75,39.38],[64.5,39.38],[63.5,38.88],[62.62,37.5],[63.0,35.62]]]}},{"type":"Feature","properties":{"kind":"blob","cls":1,"id":65},"geometry":{"type":"Polygon","coordinates":[[[59.12,28.0],[57.75,28.88],[57.38,28.25],[59.12,28.0]]]}},{"type":"Feature","properties":{"kind":"blob","cls":4,"id":66},"geometry":{"type":"MultiPolygon","coordinates":[[[[57.5,34.12],[58.12,35.25],[57.0,35.12],[56.62,35.75],[57.38,36.0],[56.25,36.88],[56.12,36.0],[55.12,35.25],[57.5,34.12]],[[57.38,34.75],[57.25,34.62],[57.12,34.75],[57.38,34.75]]],[[[56.75,37.12],[56.62,37.0],[56.75,36.88],[56.75,37.12]]]]}},{"type":"Feature","properties":{"kind":"blob","cls":3,"id":67},"geometry":{"type":"Polygon","coordinates":[[[66.75,-30.62],[68.25,-30.62],[69.62,-29.0],[69.38,-28.0],[67.5,-26.62],[66.25,-26.88],[64.88,-28.5],[64.88,-29.25],[65.5,-30.12],[66.25,-29.38],[67.38,-29.75],[67.38,-30.25],[66.75,-30.62]]]}},{"type":"Feature","properties":{"kind":"blob","cls":3,"id":68},"geometry":{"type":"Polygon","coordinates":[[[152.5,-45.38],[153.75,-44.88],[154.38,-44.25],[154.38,-42.75],[153.5,-41.88],[152.25,-41.38],[150.0,-41.88],[149.12,-42.75],[149.12,-44.25],[149.75,-44.88],[152.5,-45.38]]]}},{"type":"Feature","properties":{"kind":"blob","cls":4,"id":69},"geometry":{"type":"Polygon","coordinates":[[[72.75,-31.88],[73.88,-30.5],[73.62,-29.5],[72.0,-28.38],[70.75,-28.62],[69.62,-30.0],[69.88,-31.0],[70.75,-31.88],[72.75,-31.88]]]}},{"type":"Feature","properties":{"kind":"blob","cls":4,"id":70},"geometry":{"type":"MultiPolygon","coordinates":[[[[54.62,37.0],[55.38,37.0],[55.25,37.12],[54.62,37.0]]],[[[55.5,37.38],[55.38,37.25],[55.5,37.12],[55.5,37.38]]]]}},{"type":"Feature","properties":{"kind":"blob","cls":4,"id":71},"geometry":{"type":"Polygon","coordinates":[[[54.0,36.62],[54.38,36.75],[54.25,36.88],[54.0,36.62]]]}},{"type":"Feature","properties":{"kind":"blob","cls":1,"id":72},"geometry":{"type":"Polygon","coordinates":[[[66.0,-30.62],[66.38,-30.5],[66.25,-30.38],[66.0,-30.62]]]}},{"type":"Feature","properties":{"kind":"blob","cls":4,"id":73},"geometry":{"type":"MultiPolygon","coordinates":[[[[53.25,36.38],[53.12,36.25],[53.25,36.12],[53.25,36.38]]],[[[53.5,36.62],[53.38,36.5],[53.5,36.38],[53.5,36.62]]]]}},{"type":"Feature","properties":{"kind":"center","id":1,"lat":-61.75,"lon":-126.75,"mslp":937.0,"hvtl":3.3,"hvtu":-97.1,"hb":75.7,"idx":-0.7,"cls":3,"psfc":937.0,"terrain":false,"radius_km":200,"name":"asym shallow warm","track":"T03"},"geometry":{"type":"Point","coordinates":[-126.75,-61.75]}},{"type":"Feature","properties":{"kind":"center","id":2,"lat":-56.25,"lon":-6.25,"mslp":947.3,"hvtl":217.3,"hvtu":-17.2,"hb":92.7,"idx":1.8,"cls":3,"psfc":947.3,"terrain":false,"radius_km":200,"name":"asym shallow warm","track":"T05"},"geometry":{"type":"Point","coordinates":[-6.25,-56.25]}},{"type":"Feature","properties":{"kind":"center","id":3,"lat":-69.75,"lon":-132.25,"mslp":948.0,"hvtl":-74.0,"hvtu":-64.0,"hb":51.5,"idx":-1.8,"cls":4,"psfc":948.0,"terrain":false,"radius_km":200,"name":"asym cold"},"geometry":{"type":"Point","coordinates":[-132.25,-69.75]}},{"type":"Feature","properties":{"kind":"center","id":4,"lat":-61.75,"lon":-158.25,"mslp":950.1,"hvtl":-1.4,"hvtu":-125.6,"hb":43.5,"idx":-0.9,"cls":4,"psfc":950.1,"terrain":false,"radius_km":200,"name":"asym cold","track":"T10"},"geometry":{"type":"Point","coordinates":[-158.25,-61.75]}},{"type":"Feature","properties":{"kind":"center","id":5,"lat":-82.5,"lon":-178.75,"mslp":953.1,"hvtl":-185.0,"hvtu":-26.6,"hb":51.4,"idx":-2.2,"cls":4,"psfc":945.6,"terrain":false,"radius_km":200,"name":"asym cold","track":"T17"},"geometry":{"type":"Point","coordinates":[-178.75,-82.5]}},{"type":"Feature","properties":{"kind":"center","id":6,"lat":21.75,"lon":147.25,"mslp":954.8,"hvtl":147.6,"hvtu":186.7,"hb":-3.5,"idx":2.8,"cls":0,"psfc":954.8,"terrain":false,"radius_km":200,"name":"sym deep warm","track":"T02"},"geometry":{"type":"Point","coordinates":[147.25,21.75]}},{"type":"Feature","properties":{"kind":"center","id":7,"lat":-77.0,"lon":-154.25,"mslp":957.0,"hvtl":-252.5,"hvtu":14.3,"hb":74.1,"idx":-1.8,"cls":6,"psfc":953.8,"terrain":false,"radius_km":200,"name":"shallow cold"},"geometry":{"type":"Point","coordinates":[-154.25,-77.0]}},{"type":"Feature","properties":{"kind":"center","id":8,"lat":-64.5,"lon":106.75,"mslp":959.4,"hvtl":-50.4,"hvtu":-44.2,"hb":15.2,"idx":-1.3,"cls":4,"psfc":959.4,"terrain":false,"radius_km":200,"name":"asym cold","track":"T16"},"geometry":{"type":"Point","coordinates":[106.75,-64.5]}},{"type":"Feature","properties":{"kind":"center","id":9,"lat":-61.75,"lon":129.25,"mslp":962.1,"hvtl":-147.8,"hvtu":-332.5,"hb":58.2,"idx":-2.8,"cls":4,"psfc":962.1,"terrain":false,"radius_km":200,"name":"asym cold","track":"T27"},"geometry":{"type":"Point","coordinates":[129.25,-61.75]}},{"type":"Feature","properties":{"kind":"center","id":10,"lat":-62.5,"lon":107.5,"mslp":964.2,"hvtl":44.0,"hvtu":-228.4,"hb":-19.8,"idx":-0.2,"cls":1,"psfc":964.2,"terrain":false,"radius_km":200,"name":"sym shallow warm"},"geometry":{"type":"Point","coordinates":[107.5,-62.5]}},{"type":"Feature","properties":{"kind":"center","id":11,"lat":-62.75,"lon":109.0,"mslp":964.2,"hvtl":56.3,"hvtu":-181.9,"hb":-10.7,"idx":0.1,"cls":1,"psfc":964.2,"terrain":false,"radius_km":200,"name":"sym shallow warm"},"geometry":{"type":"Point","coordinates":[109.0,-62.75]}},{"type":"Feature","properties":{"kind":"center","id":12,"lat":-63.25,"lon":110.5,"mslp":964.2,"hvtl":72.2,"hvtu":-127.7,"hb":-0.4,"idx":0.4,"cls":1,"psfc":964.2,"terrain":false,"radius_km":200,"name":"sym shallow warm"},"geometry":{"type":"Point","coordinates":[110.5,-63.25]}},{"type":"Feature","properties":{"kind":"center","id":13,"lat":-63.0,"lon":110.0,"mslp":964.3,"hvtl":79.3,"hvtu":-146.8,"hb":-4.6,"idx":0.4,"cls":1,"psfc":964.3,"terrain":false,"radius_km":200,"name":"sym shallow warm"},"geometry":{"type":"Point","coordinates":[110.0,-63.0]}},{"type":"Feature","properties":{"kind":"center","id":14,"lat":-52.0,"lon":101.0,"mslp":965.5,"hvtl":-202.1,"hvtu":-340.8,"hb":40.6,"idx":-2.9,"cls":4,"psfc":965.5,"terrain":false,"radius_km":200,"name":"asym cold"},"geometry":{"type":"Point","coordinates":[101.0,-52.0]}},{"type":"Feature","properties":{"kind":"center","id":15,"lat":-69.0,"lon":-18.0,"mslp":966.9,"hvtl":-193.7,"hvtu":-39.7,"hb":19.6,"idx":-2.3,"cls":4,"psfc":966.9,"terrain":false,"radius_km":200,"name":"asym cold","track":"T36"},"geometry":{"type":"Point","coordinates":[-18.0,-69.0]}},{"type":"Feature","properties":{"kind":"center","id":16,"lat":-71.75,"lon":171.0,"mslp":969.7,"hvtl":-97.4,"hvtu":-2.6,"hb":17.9,"idx":-1.5,"cls":4,"psfc":953.3,"terrain":false,"radius_km":200,"name":"asym cold","track":"T35"},"geometry":{"type":"Point","coordinates":[171.0,-71.75]}},{"type":"Feature","properties":{"kind":"center","id":17,"lat":53.5,"lon":-180.0,"mslp":969.9,"hvtl":-10.8,"hvtu":-206.5,"hb":1.4,"idx":-1.2,"cls":5,"psfc":969.9,"terrain":false,"radius_km":200,"name":"sym cold","track":"T40"},"geometry":{"type":"Point","coordinates":[-180.0,53.5]}},{"type":"Feature","properties":{"kind":"center","id":18,"lat":23.25,"lon":-173.75,"mslp":974.1,"hvtl":104.8,"hvtu":265.1,"hb":-3.9,"idx":2.6,"cls":0,"psfc":974.1,"terrain":false,"radius_km":200,"name":"sym deep warm","track":"T44"},"geometry":{"type":"Point","coordinates":[-173.75,23.25]}},{"type":"Feature","properties":{"kind":"center","id":19,"lat":-70.75,"lon":164.5,"mslp":974.8,"hvtl":-251.6,"hvtu":-28.8,"hb":38.6,"idx":-2.3,"cls":4,"psfc":902.7,"terrain":false,"radius_km":200,"name":"asym cold"},"geometry":{"type":"Point","coordinates":[164.5,-70.75]}},{"type":"Feature","properties":{"kind":"center","id":20,"lat":20.25,"lon":-112.25,"mslp":975.4,"hvtl":53.7,"hvtu":247.2,"hb":8.1,"idx":2.0,"cls":0,"psfc":975.4,"terrain":false,"radius_km":200,"name":"sym deep warm","track":"T42"},"geometry":{"type":"Point","coordinates":[-112.25,20.25]}},{"type":"Feature","properties":{"kind":"center","id":21,"lat":-56.5,"lon":83.0,"mslp":976.6,"hvtl":-318.6,"hvtu":-344.3,"hb":74.7,"idx":-3.0,"cls":4,"psfc":976.6,"terrain":false,"radius_km":200,"name":"asym cold"},"geometry":{"type":"Point","coordinates":[83.0,-56.5]}},{"type":"Feature","properties":{"kind":"center","id":22,"lat":66.5,"lon":-16.5,"mslp":979.6,"hvtl":-54.2,"hvtu":-149.2,"hb":31.1,"idx":-1.9,"cls":4,"psfc":977.6,"terrain":false,"radius_km":200,"name":"asym cold","track":"T50"},"geometry":{"type":"Point","coordinates":[-16.5,66.5]}},{"type":"Feature","properties":{"kind":"center","id":23,"lat":-67.5,"lon":67.25,"mslp":979.9,"hvtl":-51.7,"hvtu":-110.1,"hb":-2.3,"idx":-1.8,"cls":5,"psfc":979.9,"terrain":false,"radius_km":200,"name":"sym cold","track":"T48"},"geometry":{"type":"Point","coordinates":[67.25,-67.5]}},{"type":"Feature","properties":{"kind":"center","id":24,"lat":72.5,"lon":117.0,"mslp":981.7,"hvtl":-57.1,"hvtu":60.2,"hb":-11.7,"idx":-0.5,"cls":6,"psfc":977.9,"terrain":false,"radius_km":200,"name":"shallow cold","track":"T60"},"geometry":{"type":"Point","coordinates":[117.0,72.5]}},{"type":"Feature","properties":{"kind":"center","id":25,"lat":64.0,"lon":-16.5,"mslp":983.1,"hvtl":-120.5,"hvtu":-235.2,"hb":18.8,"idx":-2.7,"cls":4,"psfc":912.9,"terrain":false,"radius_km":200,"name":"asym cold"},"geometry":{"type":"Point","coordinates":[-16.5,64.0]}},{"type":"Feature","properties":{"kind":"center","id":26,"lat":-70.5,"lon":19.75,"mslp":983.3,"hvtl":-2.5,"hvtu":-176.7,"hb":4.8,"idx":-1.0,"cls":5,"psfc":975.8,"terrain":false,"radius_km":200,"name":"sym cold"},"geometry":{"type":"Point","coordinates":[19.75,-70.5]}},{"type":"Feature","properties":{"kind":"center","id":27,"lat":-57.5,"lon":54.25,"mslp":983.4,"hvtl":-225.6,"hvtu":-276.5,"hb":39.0,"idx":-2.9,"cls":4,"psfc":983.4,"terrain":false,"radius_km":200,"name":"asym cold","track":"T08"},"geometry":{"type":"Point","coordinates":[54.25,-57.5]}},{"type":"Feature","properties":{"kind":"center","id":28,"lat":-49.0,"lon":-103.75,"mslp":987.3,"hvtl":-14.7,"hvtu":-63.6,"hb":32.7,"idx":-0.9,"cls":4,"psfc":987.3,"terrain":false,"radius_km":200,"name":"asym cold","track":"T73"},"geometry":{"type":"Point","coordinates":[-103.75,-49.0]}},{"type":"Feature","properties":{"kind":"center","id":29,"lat":-77.75,"lon":-68.75,"mslp":988.5,"hvtl":-122.8,"hvtu":-149.4,"hb":46.2,"idx":-2.6,"cls":4,"psfc":978.7,"terrain":false,"radius_km":200,"name":"asym cold","track":"T67"},"geometry":{"type":"Point","coordinates":[-68.75,-77.75]}},{"type":"Feature","properties":{"kind":"center","id":30,"lat":66.5,"lon":-58.5,"mslp":989.7,"hvtl":49.7,"hvtu":-0.0,"hb":12.7,"idx":0.9,"cls":3,"psfc":989.7,"terrain":false,"radius_km":200,"name":"asym shallow warm","track":"T69"},"geometry":{"type":"Point","coordinates":[-58.5,66.5]}},{"type":"Feature","properties":{"kind":"center","id":31,"lat":57.0,"lon":-151.5,"mslp":992.4,"hvtl":18.4,"hvtu":-140.8,"hb":29.3,"idx":-0.5,"cls":3,"psfc":992.4,"terrain":false,"radius_km":200,"name":"asym shallow warm","track":"T78"},"geometry":{"type":"Point","coordinates":[-151.5,57.0]}},{"type":"Feature","properties":{"kind":"center","id":32,"lat":65.0,"lon":-38.75,"mslp":993.5,"hvtl":20.8,"hvtu":-177.0,"hb":9.7,"idx":-0.5,"cls":1,"psfc":993.4,"terrain":false,"radius_km":200,"name":"sym shallow warm","track":"T62"},"geometry":{"type":"Point","coordinates":[-38.75,65.0]}},{"type":"Feature","properties":{"kind":"center","id":33,"lat":75.75,"lon":145.0,"mslp":995.9,"hvtl":-57.9,"hvtu":-118.3,"hb":27.2,"idx":-1.9,"cls":4,"psfc":995.8,"terrain":false,"radius_km":200,"name":"asym cold","track":"T75"},"geometry":{"type":"Point","coordinates":[145.0,75.75]}},{"type":"Feature","properties":{"kind":"center","id":34,"lat":74.75,"lon":-70.0,"mslp":996.1,"hvtl":-129.9,"hvtu":-65.0,"hb":2.0,"idx":-2.3,"cls":5,"psfc":996.1,"terrain":false,"radius_km":200,"name":"sym cold"},"geometry":{"type":"Point","coordinates":[-70.0,74.75]}},{"type":"Feature","properties":{"kind":"center","id":35,"lat":71.25,"lon":-52.75,"mslp":996.1,"hvtl":-200.3,"hvtu":-65.7,"hb":46.7,"idx":-2.5,"cls":4,"psfc":912.6,"terrain":false,"radius_km":200,"name":"asym cold","track":"T80"},"geometry":{"type":"Point","coordinates":[-52.75,71.25]}},{"type":"Feature","properties":{"kind":"center","id":36,"lat":74.25,"lon":-64.0,"mslp":996.2,"hvtl":-161.9,"hvtu":-57.0,"hb":36.1,"idx":-2.4,"cls":4,"psfc":996.2,"terrain":false,"radius_km":200,"name":"asym cold","track":"T83"},"geometry":{"type":"Point","coordinates":[-64.0,74.25]}},{"type":"Feature","properties":{"kind":"center","id":37,"lat":59.0,"lon":145.75,"mslp":996.4,"hvtl":-26.2,"hvtu":-166.8,"hb":19.2,"idx":-1.4,"cls":4,"psfc":996.4,"terrain":false,"radius_km":200,"name":"asym cold"},"geometry":{"type":"Point","coordinates":[145.75,59.0]}},{"type":"Feature","properties":{"kind":"center","id":38,"lat":72.0,"lon":14.5,"mslp":996.6,"hvtl":-62.1,"hvtu":-162.8,"hb":33.4,"idx":-2.0,"cls":4,"psfc":996.6,"terrain":false,"radius_km":200,"name":"asym cold","track":"T63"},"geometry":{"type":"Point","coordinates":[14.5,72.0]}},{"type":"Feature","properties":{"kind":"center","id":39,"lat":-48.5,"lon":-61.75,"mslp":997.0,"hvtl":98.5,"hvtu":-85.3,"hb":-3.6,"idx":0.8,"cls":1,"psfc":997.0,"terrain":false,"radius_km":200,"name":"sym shallow warm","track":"T86"},"geometry":{"type":"Point","coordinates":[-61.75,-48.5]}},{"type":"Feature","properties":{"kind":"center","id":40,"lat":-19.0,"lon":-63.25,"mslp":997.9,"hvtl":84.7,"hvtu":-186.9,"hb":-7.3,"idx":0.4,"cls":1,"psfc":936.0,"terrain":false,"radius_km":200,"name":"sym shallow warm","track":"T89"},"geometry":{"type":"Point","coordinates":[-63.25,-19.0]}},{"type":"Feature","properties":{"kind":"center","id":41,"lat":81.0,"lon":-60.25,"mslp":1001.7,"hvtl":13.2,"hvtu":-36.2,"hb":3.8,"idx":-0.1,"cls":1,"psfc":916.6,"terrain":false,"radius_km":200,"name":"sym shallow warm"},"geometry":{"type":"Point","coordinates":[-60.25,81.0]}},{"type":"Feature","properties":{"kind":"center","id":42,"lat":-28.25,"lon":-66.5,"mslp":1003.2,"hvtl":34.3,"hvtu":-271.7,"hb":33.4,"idx":-0.3,"cls":3,"psfc":921.1,"terrain":false,"radius_km":200,"name":"asym shallow warm","track":"T98"},"geometry":{"type":"Point","coordinates":[-66.5,-28.25]}},{"type":"Feature","properties":{"kind":"center","id":43,"lat":57.25,"lon":59.25,"mslp":1004.5,"hvtl":-68.0,"hvtu":-95.9,"hb":39.3,"idx":-1.9,"cls":4,"psfc":963.1,"terrain":false,"radius_km":200,"name":"asym cold","track":"T118"},"geometry":{"type":"Point","coordinates":[59.25,57.25]}},{"type":"Feature","properties":{"kind":"center","id":44,"lat":-29.75,"lon":-53.25,"mslp":1005.1,"hvtl":-51.2,"hvtu":-150.0,"hb":40.7,"idx":-1.8,"cls":4,"psfc":996.6,"terrain":false,"radius_km":200,"name":"asym cold","track":"T20"},"geometry":{"type":"Point","coordinates":[-53.25,-29.75]}},{"type":"Feature","properties":{"kind":"center","id":45,"lat":-12.25,"lon":-71.25,"mslp":1005.4,"hvtl":96.5,"hvtu":-135.2,"hb":-7.1,"idx":0.6,"cls":1,"psfc":964.7,"terrain":false,"radius_km":200,"name":"sym shallow warm","track":"T99"},"geometry":{"type":"Point","coordinates":[-71.25,-12.25]}},{"type":"Feature","properties":{"kind":"center","id":46,"lat":-30.0,"lon":-68.25,"mslp":1005.5,"hvtl":76.8,"hvtu":-255.4,"hb":24.4,"idx":0.3,"cls":3,"psfc":901.0,"terrain":true,"radius_km":200,"name":"asym shallow warm"},"geometry":{"type":"Point","coordinates":[-68.25,-30.0]}},{"type":"Feature","properties":{"kind":"center","id":47,"lat":-12.0,"lon":-74.0,"mslp":1006.1,"hvtl":42.0,"hvtu":-118.9,"hb":8.9,"idx":-0.0,"cls":1,"psfc":930.2,"terrain":false,"radius_km":200,"name":"sym shallow warm"},"geometry":{"type":"Point","coordinates":[-74.0,-12.0]}},{"type":"Feature","properties":{"kind":"center","id":48,"lat":27.5,"lon":67.75,"mslp":1006.2,"hvtl":27.4,"hvtu":-71.4,"hb":-7.9,"idx":-0.1,"cls":1,"psfc":1001.1,"terrain":false,"radius_km":200,"name":"sym shallow warm"},"geometry":{"type":"Point","coordinates":[67.75,27.5]}},{"type":"Feature","properties":{"kind":"center","id":49,"lat":39.75,"lon":-122.0,"mslp":1007.1,"hvtl":-45.9,"hvtu":-90.5,"hb":37.6,"idx":-1.6,"cls":4,"psfc":1002.0,"terrain":false,"radius_km":200,"name":"asym cold"},"geometry":{"type":"Point","coordinates":[-122.0,39.75]}},{"type":"Feature","properties":{"kind":"center","id":50,"lat":-10.25,"lon":-75.0,"mslp":1008.0,"hvtl":38.8,"hvtu":-45.1,"hb":-0.8,"idx":0.3,"cls":1,"psfc":966.8,"terrain":false,"radius_km":200,"name":"sym shallow warm"},"geometry":{"type":"Point","coordinates":[-75.0,-10.25]}},{"type":"Feature","properties":{"kind":"center","id":51,"lat":-11.25,"lon":-74.25,"mslp":1008.7,"hvtl":38.8,"hvtu":-89.2,"hb":2.8,"idx":0.0,"cls":1,"psfc":902.5,"terrain":true,"radius_km":200,"name":"sym shallow warm"},"geometry":{"type":"Point","coordinates":[-74.25,-11.25]}},{"type":"Feature","properties":{"kind":"center","id":52,"lat":28.5,"lon":77.25,"mslp":1008.9,"hvtl":-17.3,"hvtu":-127.1,"hb":1.3,"idx":-1.2,"cls":5,"psfc":982.8,"terrain":false,"radius_km":200,"name":"sym cold"},"geometry":{"type":"Point","coordinates":[77.25,28.5]}},{"type":"Feature","properties":{"kind":"center","id":53,"lat":30.75,"lon":58.5,"mslp":1009.5,"hvtl":62.2,"hvtu":-104.7,"hb":5.9,"idx":0.3,"cls":1,"psfc":976.7,"terrain":false,"radius_km":200,"name":"sym shallow warm"},"geometry":{"type":"Point","coordinates":[58.5,30.75]}},{"type":"Feature","properties":{"kind":"center","id":54,"lat":23.25,"lon":38.0,"mslp":1009.6,"hvtl":65.2,"hvtu":-98.7,"hb":11.2,"idx":0.4,"cls":3,"psfc":1009.6,"terrain":false,"radius_km":200,"name":"asym shallow warm"},"geometry":{"type":"Point","coordinates":[38.0,23.25]}},{"type":"Feature","properties":{"kind":"center","id":55,"lat":76.0,"lon":-152.25,"mslp":1009.7,"hvtl":-110.0,"hvtu":20.4,"hb":0.8,"idx":-1.4,"cls":6,"psfc":1009.7,"terrain":false,"radius_km":200,"name":"shallow cold","track":"T123"},"geometry":{"type":"Point","coordinates":[-152.25,76.0]}},{"type":"Feature","properties":{"kind":"center","id":56,"lat":41.75,"lon":-122.5,"mslp":1009.8,"hvtl":-41.7,"hvtu":-53.6,"hb":39.9,"idx":-1.3,"cls":4,"psfc":911.6,"terrain":true,"radius_km":200,"name":"asym cold"},"geometry":{"type":"Point","coordinates":[-122.5,41.75]}},{"type":"Feature","properties":{"kind":"center","id":57,"lat":31.0,"lon":61.25,"mslp":1010.6,"hvtl":17.2,"hvtu":-90.4,"hb":9.6,"idx":-0.4,"cls":1,"psfc":956.6,"terrain":false,"radius_km":200,"name":"sym shallow warm"},"geometry":{"type":"Point","coordinates":[61.25,31.0]}},{"type":"Feature","properties":{"kind":"center","id":58,"lat":27.25,"lon":83.0,"mslp":1010.9,"hvtl":11.1,"hvtu":-163.0,"hb":-0.1,"idx":-0.7,"cls":1,"psfc":1000.8,"terrain":false,"radius_km":200,"name":"sym shallow warm"},"geometry":{"type":"Point","coordinates":[83.0,27.25]}},{"type":"Feature","properties":{"kind":"center","id":59,"lat":42.25,"lon":-122.75,"mslp":1011.6,"hvtl":-39.4,"hvtu":-36.8,"hb":41.1,"idx":-1.1,"cls":4,"psfc":912.8,"terrain":true,"radius_km":200,"name":"asym cold"},"geometry":{"type":"Point","coordinates":[-122.75,42.25]}},{"type":"Feature","properties":{"kind":"center","id":60,"lat":40.75,"lon":121.5,"mslp":1011.7,"hvtl":-31.8,"hvtu":-313.4,"hb":49.5,"idx":-1.6,"cls":4,"psfc":1011.6,"terrain":false,"radius_km":200,"name":"asym cold","track":"T94"},"geometry":{"type":"Point","coordinates":[121.5,40.75]}},{"type":"Feature","properties":{"kind":"center","id":61,"lat":44.75,"lon":71.75,"mslp":1011.7,"hvtl":-365.2,"hvtu":-201.2,"hb":71.2,"idx":-3.0,"cls":4,"psfc":977.2,"terrain":false,"radius_km":200,"name":"asym cold"},"geometry":{"type":"Point","coordinates":[71.75,44.75]}},{"type":"Feature","properties":{"kind":"center","id":62,"lat":48.25,"lon":-92.0,"mslp":1012.0,"hvtl":-264.2,"hvtu":-285.6,"hb":61.0,"idx":-3.0,"cls":4,"psfc":965.7,"terrain":false,"radius_km":200,"name":"asym cold","track":"T61"},"geometry":{"type":"Point","coordinates":[-92.0,48.25]}},{"type":"Feature","properties":{"kind":"center","id":63,"lat":33.0,"lon":61.0,"mslp":1012.3,"hvtl":-28.0,"hvtu":-125.7,"hb":52.6,"idx":-1.4,"cls":4,"psfc":926.3,"terrain":false,"radius_km":200,"name":"asym cold"},"geometry":{"type":"Point","coordinates":[61.0,33.0]}},{"type":"Feature","properties":{"kind":"center","id":64,"lat":37.5,"lon":65.5,"mslp":1012.4,"hvtl":-271.0,"hvtu":-88.9,"hb":53.5,"idx":-2.7,"cls":4,"psfc":983.3,"terrain":false,"radius_km":200,"name":"asym cold","track":"T131"},"geometry":{"type":"Point","coordinates":[65.5,37.5]}},{"type":"Feature","properties":{"kind":"center","id":65,"lat":28.5,"lon":57.75,"mslp":1012.5,"hvtl":45.5,"hvtu":-48.6,"hb":-22.3,"idx":0.4,"cls":1,"psfc":942.8,"terrain":false,"radius_km":200,"name":"sym shallow warm"},"geometry":{"type":"Point","coordinates":[57.75,28.5]}},{"type":"Feature","properties":{"kind":"center","id":66,"lat":35.25,"lon":55.25,"mslp":1012.8,"hvtl":-172.1,"hvtu":-208.6,"hb":126.9,"idx":-2.8,"cls":4,"psfc":930.9,"terrain":false,"radius_km":200,"name":"asym cold","track":"T125"},"geometry":{"type":"Point","coordinates":[55.25,35.25]}},{"type":"Feature","properties":{"kind":"center","id":67,"lat":-28.75,"lon":67.25,"mslp":1015.7,"hvtl":40.2,"hvtu":-177.8,"hb":21.2,"idx":-0.2,"cls":3,"psfc":1015.7,"terrain":false,"radius_km":200,"name":"asym shallow warm","track":"T134"},"geometry":{"type":"Point","coordinates":[67.25,-28.75]}},{"type":"Feature","properties":{"kind":"center","id":68,"lat":-41.75,"lon":151.25,"mslp":1016.1,"hvtl":22.2,"hvtu":-66.4,"hb":20.0,"idx":-0.1,"cls":3,"psfc":1016.1,"terrain":false,"radius_km":200,"name":"asym shallow warm"},"geometry":{"type":"Point","coordinates":[151.25,-41.75]}},{"type":"Feature","properties":{"kind":"center","id":69,"lat":-30.25,"lon":71.75,"mslp":1018.8,"hvtl":-10.5,"hvtu":-121.7,"hb":14.1,"idx":-1.0,"cls":4,"psfc":1018.8,"terrain":false,"radius_km":200,"name":"asym cold"},"geometry":{"type":"Point","coordinates":[71.75,-30.25]}},{"type":"Feature","properties":{"kind":"center","id":70,"lat":37.0,"lon":54.75,"mslp":1020.3,"hvtl":-297.3,"hvtu":-314.0,"hb":137.0,"idx":-3.0,"cls":4,"psfc":1013.1,"terrain":false,"radius_km":200,"name":"asym cold"},"geometry":{"type":"Point","coordinates":[54.75,37.0]}},{"type":"Feature","properties":{"kind":"center","id":71,"lat":36.75,"lon":54.25,"mslp":1020.8,"hvtl":-283.0,"hvtu":-301.5,"hb":145.1,"idx":-3.0,"cls":4,"psfc":934.5,"terrain":false,"radius_km":200,"name":"asym cold","track":"T128"},"geometry":{"type":"Point","coordinates":[54.25,36.75]}},{"type":"Feature","properties":{"kind":"center","id":72,"lat":-30.5,"lon":66.25,"mslp":1021.2,"hvtl":49.4,"hvtu":-62.9,"hb":-9.9,"idx":0.4,"cls":1,"psfc":1021.2,"terrain":false,"radius_km":200,"name":"sym shallow warm"},"geometry":{"type":"Point","coordinates":[66.25,-30.5]}},{"type":"Feature","properties":{"kind":"center","id":73,"lat":36.5,"lon":53.5,"mslp":1021.5,"hvtl":-258.7,"hvtu":-283.4,"hb":151.8,"idx":-3.0,"cls":4,"psfc":928.7,"terrain":true,"radius_km":200,"name":"asym cold"},"geometry":{"type":"Point","coordinates":[53.5,36.5]}}]}