{"type":"FeatureCollection","features":[{"type":"Feature","properties":{"kind":"blob","cls":4,"id":1},"geometry":{"type":"Polygon","coordinates":[[[28.75,-62.12],[30.5,-61.62],[31.38,-61.0],[31.62,-59.5],[30.5,-58.38],[27.75,-57.38],[25.75,-57.38],[24.0,-57.88],[22.62,-59.25],[22.62,-60.0],[23.75,-61.12],[28.75,-62.12]]]}},{"type":"Feature","properties":{"kind":"blob","cls":3,"id":2},"geometry":{"type":"Polygon","coordinates":[[[179.75,56.38],[180.0,60.38],[177.0,60.62],[175.0,60.12],[173.12,58.75],[173.12,57.75],[175.0,56.38],[179.75,56.38]]]}},{"type":"Feature","properties":{"kind":"blob","cls":3,"id":2},"geometry":{"type":"Polygon","coordinates":[[[-179.75,60.38],[-180.0,56.38],[-178.75,56.88],[-177.88,57.75],[-177.88,59.0],[-179.75,60.38]]]}},{"type":"Feature","properties":{"kind":"blob","cls":3,"id":3},"geometry":{"type":"Polygon","coordinates":[[[-143.75,-68.12],[-141.25,-67.62],[-138.0,-66.12],[-135.0,-65.62],[-133.0,-64.62],[-132.12,-63.5],[-133.0,-62.12],[-134.25,-61.62],[-139.25,-61.62],[-143.25,-63.38],[-147.75,-64.12],[-146.62,-64.75],[-150.88,-66.25],[-150.5,-67.12],[-148.75,-67.88],[-143.75,-68.12]]]}},{"type":"Feature","properties":{"kind":"blob","cls":1,"id":4},"geometry":{"type":"Polygon","coordinates":[[[-157.25,-70.38],[-154.75,-69.88],[-152.88,-68.5],[-152.88,-68.0],[-153.75,-66.88],[-154.75,-66.38],[-157.75,-65.62],[-163.25,-65.88],[-165.38,-67.0],[-165.38,-68.25],[-164.25,-69.38],[-162.25,-70.12],[-157.25,-70.38]]]}},{"type":"Feature","properties":{"kind":"blob","cls":1,"id":5},"geometry":{"type":"Polygon","coordinates":[[[-148.5,-64.62],[-148.12,-64.5],[-148.25,-64.38],[-148.5,-64.62]]]}},{"type":"Feature","properties":{"kind":"blob","cls":4,"id":6},"geometry":{"type":"Polygon","coordinates":[[[105.5,-58.38],[107.38,-57.0],[107.38,-55.75],[106.5,-54.88],[104.75,-54.38],[100.75,-54.62],[98.88,-56.5],[100.25,-58.12],[105.5,-58.38]]]}},{"type":"Feature","properties":{"kind":"blob","cls":4,"id":7},"geometry":{"type":"MultiPolygon","coordinates":[[[[110.62,-66.5],[111.0,-66.62],[111.12,-66.25],[110.62,-66.5]]],[[[120.75,-66.88],[121.12,-66.5],[120.5,-65.62],[117.5,-64.62],[113.0,-64.88],[111.12,-66.0],[113.0,-65.88],[114.25,-66.62],[120.75,-66.88]]]]}},{"type":"Feature","properties":{"kind":"blob","cls":4,"id":8},"geometry":{"type":"Polygon","coordinates":[[[7.38,-62.5],[6.12,-60.75],[6.75,-59.62],[7.75,-59.88],[9.75,-62.38],[12.25,-61.62],[13.5,-60.38],[15.0,-59.88],[16.12,-58.75],[16.12,-57.75],[14.5,-56.62],[11.5,-56.38],[9.5,-57.12],[8.25,-58.38],[3.25,-58.88],[1.62,-60.0],[1.62,-61.0],[2.25,-61.62],[3.75,-62.38],[7.38,-62.5]]]}},{"type":"Feature","properties":{"kind":"blob","cls":4,"id":9},"geometry":{"type":"Polygon","coordinates":[[[-106.0,-62.12],[-104.38,-61.0],[-104.12,-60.0],[-104.75,-59.12],[-107.0,-58.38],[-109.0,-58.38],[-111.25,-59.12],[-111.88,-60.0],[-111.88,-61.0],[-110.25,-62.12],[-106.0,-62.12]]]}},{"type":"Feature","properties":{"kind":"blob","cls":5,"id":10},"geometry":{"type":"Polygon","coordinates":[[[3.75,-58.62],[5.62,-56.75],[4.0,-55.12],[0.0,-55.12],[-1.38,-56.25],[-1.62,-57.25],[-0.5,-58.38],[3.75,-58.62]]]}},{"type":"Feature","properties":{"kind":"blob","cls":4,"id":11},"geometry":{"type":"Polygon","coordinates":[[[108.5,-66.62],[109.88,-66.5],[109.75,-66.38],[108.5,-66.62]]]}},{"type":"Feature","properties":{"kind":"blob","cls":5,"id":12},"geometry":{"type":"Polygon","coordinates":[[[100.62,-66.0],[100.75,-66.38],[101.25,-66.38],[108.88,-65.5],[106.25,-64.62],[104.0,-64.62],[102.0,-65.12],[100.62,-66.0]]]}},{"type":"Feature","properties":{"kind":"blob","cls":4,"id":13},"geometry":{"type":"Polygon","coordinates":[[[75.25,-65.88],[76.88,-65.0],[77.12,-64.0],[76.0,-62.88],[73.5,-62.12],[69.75,-62.38],[67.88,-63.5],[67.62,-64.5],[68.0,-65.12],[69.5,-65.88],[75.25,-65.88]]]}},{"type":"Feature","properties":{"kind":"blob","cls":4,"id":14},"geometry":{"type":"Polygon","coordinates":[[[64.75,-67.88],[65.62,-67.0],[65.62,-66.5],[65.0,-65.62],[62.0,-64.62],[54.5,-65.12],[52.25,-65.62],[51.38,-66.25],[55.25,-66.12],[55.88,-66.5],[56.0,-67.12],[64.75,-67.88]]]}},{"type":"Feature","properties":{"kind":"blob","cls":4,"id":15},"geometry":{"type":"Polygon","coordinates":[[[-37.5,-80.12],[-31.25,-78.88],[-35.25,-78.62],[-35.38,-78.25],[-33.25,-77.38],[-31.5,-77.38],[-29.62,-76.75],[-38.5,-76.88],[-41.75,-77.62],[-42.88,-78.5],[-41.0,-79.62],[-37.5,-80.12]]]}},{"type":"Feature","properties":{"kind":"blob","cls":4,"id":16},"geometry":{"type":"Polygon","coordinates":[[[-7.12,-71.5],[-6.75,-71.88],[-5.0,-71.38],[-1.5,-71.62],[4.0,-70.88],[9.12,-70.75],[6.25,-70.12],[1.75,-70.38],[-0.25,-69.88],[-2.75,-69.88],[-6.25,-70.62],[-7.12,-71.5]]]}},{"type":"Feature","properties":{"kind":"blob","cls":1,"id":17},"geometry":{"type":"Polygon","coordinates":[[[46.75,72.12],[51.0,72.88],[53.25,74.12],[53.62,75.0],[52.25,76.12],[49.0,76.88],[42.75,77.12],[40.38,76.75],[43.75,76.12],[45.38,75.25],[45.0,74.88],[41.0,74.88],[36.75,75.62],[36.12,75.0],[36.12,74.5],[37.0,73.62],[38.75,72.88],[46.75,72.12]]]}},{"type":"Feature","properties":{"kind":"blob","cls":4,"id":18},"geometry":{"type":"Polygon","coordinates":[[[142.75,-67.12],[143.12,-66.75],[143.12,-65.75],[141.0,-64.62],[137.25,-64.38],[135.25,-64.88],[133.88,-65.75],[134.0,-66.62],[135.25,-66.38],[142.75,-67.12]]]}},{"type":"Feature","properties":{"kind":"blob","cls":4,"id":19},"geometry":{"type":"Polygon","coordinates":[[[50.75,-67.38],[51.25,-67.38],[51.62,-67.0],[51.0,-66.62],[50.75,-67.38]]]}},{"type":"Feature","properties":{"kind":"blob","cls":4,"id":20},"geometry":{"type":"Polygon","coordinates":[[[120.75,-52.62],[122.25,-52.12],[123.12,-51.0],[122.88,-49.5],[122.25,-48.88],[120.75,-48.38],[118.0,-48.88],[117.12,-49.75],[116.88,-50.75],[118.0,-52.12],[120.75,-52.62]]]}},{"type":"Feature","properties":{"kind":"blob","cls":6,"id":21},"geometry":{"type":"Polygon","coordinates":[[[-59.75,-81.12],[-47.75,-81.38],[-47.38,-81.0],[-55.0,-80.88],[-59.75,-81.12]]]}},{"type":"Feature","properties":{"kind":"blob","cls":1,"id":22},"geometry":{"type":"Polygon","coordinates":[[[-114.5,-56.12],[-112.0,-55.12],[-111.38,-54.25],[-111.62,-53.0],[-114.5,-51.62],[-117.5,-52.38],[-118.38,-53.25],[-118.62,-54.25],[-117.75,-55.38],[-114.5,-56.12]]]}},{"type":"Feature","properties":{"kind":"blob","cls":3,"id":23},"geometry":{"type":"Polygon","coordinates":[[[-34.5,60.88],[-32.5,61.38],[-30.62,62.75],[-30.62,63.75],[-31.75,64.62],[-33.75,65.12],[-36.25,65.12],[-38.25,64.62],[-37.38,63.25],[-38.0,62.62],[-39.62,62.5],[-38.25,61.38],[-34.5,60.88]]]}},{"type":"Feature","properties":{"kind":"blob","cls":4,"id":24},"geometry":{"type":"Polygon","coordinates":[[[166.25,-70.62],[168.75,-70.12],[170.12,-69.25],[170.12,-68.25],[167.75,-67.12],[163.25,-66.88],[160.75,-67.38],[159.38,-68.25],[159.38,-69.25],[159.75,-69.62],[161.75,-70.38],[166.25,-70.62]]]}},{"type":"Feature","properties":{"kind":"blob","cls":4,"id":25},"geometry":{"type":"Polygon","coordinates":[[[-78.88,-78.75],[-78.5,-79.12],[-72.5,-78.12],[-71.12,-77.25],[-71.12,-76.75],[-71.75,-76.12],[-73.25,-76.12],[-73.5,-75.62],[-74.75,-75.38],[-79.5,-75.12],[-80.38,-76.0],[-77.62,-77.25],[-78.62,-77.5],[-78.88,-78.75]]]}},{"type":"Feature","properties":{"kind":"blob","cls":3,"id":26},"geometry":{"type":"Polygon","coordinates":[[[164.25,-75.38],[166.0,-75.62],[167.75,-75.12],[166.38,-74.0],[167.88,-73.25],[166.75,-73.12],[165.75,-73.88],[164.75,-73.62],[164.88,-74.25],[164.38,-74.5],[164.25,-75.38]]]}},{"type":"Feature","properties":{"kind":"blob","cls":0,"id":27},"geometry":{"type":"Polygon","coordinates":[[[-123.75,20.88],[-122.5,20.88],[-121.62,21.75],[-121.62,23.5],[-123.25,24.62],[-124.75,24.38],[-125.88,23.25],[-125.88,21.75],[-125.5,21.38],[-124.0,21.62],[-123.75,20.88]]]}},{"type":"Feature","properties":{"kind":"blob","cls":4,"id":28},"geometry":{"type":"Polygon","coordinates":[[[168.12,-73.0],[168.25,-73.12],[168.38,-73.0],[168.12,-73.0]]]}},{"type":"Feature","properties":{"kind":"blob","cls":0,"id":29},"geometry":{"type":"Polygon","coordinates":[[[163.75,15.62],[166.25,15.62],[166.62,16.0],[166.88,17.5],[166.0,18.62],[164.75,18.88],[163.38,18.0],[163.12,16.5],[163.75,15.62]]]}},{"type":"Feature","properties":{"kind":"blob","cls":4,"id":30},"geometry":{"type":"Polygon","coordinates":[[[-103.75,-47.38],[-101.88,-46.25],[-101.62,-45.25],[-102.12,-44.5],[-101.12,-43.25],[-101.12,-42.25],[-101.75,-41.38],[-103.0,-40.88],[-104.75,-40.88],[-106.38,-41.75],[-106.38,-44.25],[-107.12,-45.75],[-106.25,-46.88],[-103.75,-47.38]]]}},{"type":"Feature","properties":{"kind":"blob","cls":4,"id":31},"geometry":{"type":"Polygon","coordinates":[[[13.75,-45.12],[15.0,-44.62],[15.62,-43.75],[15.38,-42.25],[13.75,-41.38],[11.25,-41.88],[10.62,-42.75],[10.62,-43.75],[11.25,-44.62],[13.75,-45.12]]]}},{"type":"Feature","properties":{"kind":"blob","cls":3,"id":32},"geometry":{"type":"Polygon","coordinates":[[[-79.0,54.62],[-76.5,55.38],[-75.12,56.75],[-75.38,58.25],[-76.0,58.88],[-78.0,59.62],[-79.75,59.62],[-82.5,58.62],[-82.75,57.88],[-82.0,57.88],[-80.38,56.75],[-81.25,56.38],[-83.0,56.62],[-83.12,56.25],[-82.0,55.12],[-79.0,54.62]]]}},{"type":"Feature","properties":{"kind":"blob","cls":3,"id":33},"geometry":{"type":"Polygon","coordinates":[[[-166.75,28.38],[-165.62,29.75],[-165.88,31.0],[-167.5,32.12],[-169.0,31.88],[-170.12,30.5],[-169.88,29.5],[-168.75,28.38],[-166.75,28.38]]]}},{"type":"Feature","properties":{"kind":"blob","cls":4,"id":34},"geometry":{"type":"Polygon","coordinates":[[[133.5,75.38],[137.5,76.12],[138.5,76.62],[139.12,77.5],[137.25,78.88],[134.5,79.62],[130.0,80.38],[125.0,80.62],[124.0,81.12],[119.25,81.88],[106.5,81.88],[103.5,81.38],[101.62,80.5],[101.75,79.88],[104.25,78.88],[111.75,77.88],[121.25,75.62],[133.5,75.38]]]}},{"type":"Feature","properties":{"kind":"blob","cls":3,"id":35},"geometry":{"type":"Polygon","coordinates":[[[179.75,75.88],[180.0,80.62],[173.5,79.88],[171.75,79.38],[170.12,78.25],[170.5,77.38],[173.75,76.38],[179.75,75.88]]]}},{"type":"Feature","properties":{"kind":"blob","cls":3,"id":35},"geometry":{"type":"Polygon","coordinates":[[[-179.75,80.62],[-180.0,75.88],[-176.75,75.88],[-171.25,76.62],[-169.0,77.38],[-167.88,78.5],[-169.5,79.62],[-171.25,80.12],[-179.75,80.62]]]}},{"type":"Feature","properties":{"kind":"blob","cls":0,"id":36},"geometry":{"type":"Polygon","coordinates":[[[147.75,14.12],[149.12,15.0],[149.38,16.5],[148.5,17.62],[147.0,17.88],[145.62,17.0],[145.38,16.5],[146.38,15.75],[145.88,14.75],[147.75,14.12]]]}},{"type":"Feature","properties":{"kind":"blob","cls":0,"id":37},"geometry":{"type":"Polygon","coordinates":[[[157.5,28.62],[158.88,30.0],[158.88,31.25],[158.25,32.12],[156.0,32.62],[154.62,32.0],[154.12,31.25],[154.12,30.0],[155.25,28.62],[157.5,28.62]]]}},{"type":"Feature","properties":{"kind":"blob","cls":4,"id":38},"geometry":{"type":"Polygon","coordinates":[[[23.0,56.62],[25.0,57.12],[26.88,58.5],[27.12,59.25],[26.0,60.62],[24.25,61.12],[22.0,61.12],[20.25,60.62],[18.88,59.25],[18.88,58.0],[20.5,56.88],[23.0,56.62]]]}},{"type":"Feature","properties":{"kind":"blob","cls":4,"id":39},"geometry":{"type":"Polygon","coordinates":[[[-52.0,-39.38],[-50.25,-38.62],[-49.38,-37.75],[-49.38,-36.25],[-50.75,-35.12],[-52.5,-34.38],[-54.0,-34.38],[-55.0,-34.88],[-55.88,-35.75],[-55.88,-37.25],[-54.5,-38.88],[-52.0,-39.38]]]}},{"type":"Feature","properties":{"kind":"blob","cls":3,"id":40},"geometry":{"type":"Polygon","coordinates":[[[70.25,28.88],[72.0,28.88],[73.25,29.88],[74.5,29.38],[75.75,29.62],[76.38,30.0],[76.88,31.25],[75.25,32.38],[72.5,32.38],[70.5,31.88],[70.12,31.5],[70.12,30.0],[69.12,29.5],[70.25,28.88]]]}},{"type":"Feature","properties":{"kind":"blob","cls":0,"id":41},"geometry":{"type":"Polygon","coordinates":[[[-102.0,9.88],[-101.38,10.75],[-103.0,10.88],[-104.0,11.38],[-104.75,12.62],[-105.12,11.0],[-104.25,9.88],[-102.0,9.88]]]}},{"type":"Feature","properties":{"kind":"blob","cls":3,"id":42},"geometry":{"type":"Polygon","coordinates":[[[-77.5,28.88],[-76.12,29.5],[-75.62,30.25],[-75.62,31.5],[-76.25,32.38],[-78.25,32.88],[-79.62,32.25],[-80.12,31.5],[-80.12,30.25],[-79.5,29.38],[-77.5,28.88]]]}},{"type":"Feature","properties":{"kind":"blob","cls":5,"id":43},"geometry":{"type":"MultiPolygon","coordinates":[[[[-116.5,32.62],[-116.62,32.5],[-116.5,32.38],[-116.5,32.62]]],[[[-116.62,33.0],[-116.75,33.12],[-116.88,33.0],[-116.62,33.0]]],[[[-115.75,31.88],[-113.75,31.88],[-112.88,32.5],[-112.62,33.25],[-115.75,35.12],[-116.62,34.5],[-115.88,34.0],[-116.62,34.0],[-116.62,33.25],[-115.75,31.88]]]]}},{"type":"Feature","properties":{"kind":"blob","cls":5,"id":44},"geometry":{"type":"Polygon","coordinates":[[[-64.75,-17.38],[-64.12,-16.5],[-64.38,-15.0],[-65.75,-14.12],[-67.0,-14.38],[-67.62,-15.5],[-64.75,-17.38]]]}},{"type":"Feature","properties":{"kind":"blob","cls":1,"id":45},"geometry":{"type":"Polygon","coordinates":[[[68.62,30.0],[68.75,29.88],[68.88,30.0],[68.62,30.0]]]}},{"type":"Feature","properties":{"kind":"blob","cls":5,"id":46},"geometry":{"type":"Polygon","coordinates":[[[96.0,23.62],[97.12,24.25],[95.25,25.62],[94.25,24.62],[93.62,24.75],[94.5,23.88],[96.0,23.62]]]}},{"type":"Feature","properties":{"kind":"blob","cls":1,"id":47},"geometry":{"type":"Polygon","coordinates":[[[58.5,28.88],[59.88,29.5],[59.88,31.0],[59.5,31.38],[58.5,31.12],[57.88,30.25],[58.5,28.88]]]}},{"type":"Feature","properties":{"kind":"blob","cls":4,"id":48},"geometry":{"type":"Polygon","coordinates":[[[-13.5,71.12],[-10.25,72.38],[-9.12,73.25],[-8.88,74.0],[-9.75,75.38],[-12.5,76.38],[-21.0,76.38],[-22.62,75.75],[-21.62,75.5],[-22.12,75.0],[-21.75,74.62],[-24.25,74.38],[-25.12,72.5],[-24.12,72.0],[-24.62,71.75],[-24.25,71.38],[-13.5,71.12]]]}},{"type":"Feature","properties":{"kind":"blob","cls":5,"id":49},"geometry":{"type":"Polygon","coordinates":[[[93.75,25.62],[94.38,26.25],[93.75,26.38],[93.75,25.62]]]}},{"type":"Feature","properties":{"kind":"blob","cls":4,"id":50},"geometry":{"type":"Polygon","coordinates":[[[-57.75,72.38],[-54.38,73.0],[-57.75,74.38],[-60.0,76.38],[-66.75,76.62],[-64.62,77.5],[-65.5,77.88],[-69.62,78.0],[-69.0,78.38],[-67.0,78.38],[-66.5,78.88],[-75.25,78.88],[-77.75,78.38],[-79.38,77.25],[-78.75,76.12],[-76.25,74.62],[-70.75,73.88],[-65.75,72.62],[-57.75,72.38]],[[-71.62,78.25],[-70.38,78.25],[-70.5,78.12],[-71.62,78.25]],[[-68.12,77.0],[-67.38,77.0],[-67.5,76.88],[-68.12,77.0]]]}},{"type":"Feature","properties":{"kind":"blob","cls":6,"id":51},"geometry":{"type":"Polygon","coordinates":[[[165.5,-39.12],[166.5,-38.62],[167.38,-37.5],[167.38,-35.75],[166.75,-36.38],[166.12,-36.0],[167.12,-35.25],[165.25,-33.88],[163.5,-33.88],[161.62,-35.25],[161.62,-37.25],[163.0,-38.62],[165.5,-39.12]]]}},{"type":"Feature","properties":{"kind":"blob","cls":5,"id":52},"geometry":{"type":"Polygon","coordinates":[[[-105.25,75.38],[-97.25,75.38],[-94.25,76.12],[-92.62,77.5],[-93.5,78.38],[-96.5,79.12],[-104.75,79.62],[-110.0,78.88],[-111.25,78.38],[-112.12,77.5],[-111.5,76.62],[-109.75,75.88],[-105.25,75.38]]]}},{"type":"Feature","properties":{"kind":"blob","cls":4,"id":53},"geometry":{"type":"Polygon","coordinates":[[[-141.25,45.88],[-138.5,47.38],[-138.12,48.0],[-138.38,49.75],[-140.25,50.62],[-141.25,50.62],[-143.75,49.62],[-144.62,48.5],[-144.62,47.25],[-143.75,46.38],[-141.25,45.88]]]}},{"type":"Feature","properties":{"kind":"blob","cls":3,"id":54},"geometry":{"type":"Polygon","coordinates":[[[61.25,32.38],[61.75,32.38],[62.12,32.75],[61.5,33.38],[61.25,32.38]]]}},{"type":"Feature","properties":{"kind":"blob","cls":3,"id":55},"geometry":{"type":"Polygon","coordinates":[[[47.0,-41.88],[48.12,-40.75],[48.12,-39.5],[46.5,-37.88],[45.75,-37.62],[44.0,-37.88],[42.62,-39.5],[42.88,-40.5],[44.25,-41.88],[47.0,-41.88]]]}},{"type":"Feature","properties":{"kind":"blob","cls":3,"id":56},"geometry":{"type":"Polygon","coordinates":[[[62.75,-33.38],[63.25,-33.38],[64.5,-32.88],[65.38,-31.75],[65.38,-30.5],[64.0,-29.12],[62.0,-28.88],[60.75,-29.38],[60.12,-30.25],[60.12,-31.75],[60.5,-32.12],[61.0,-31.62],[62.25,-31.88],[62.75,-33.38]]]}},{"type":"Feature","properties":{"kind":"center","id":1,"lat":-59.75,"lon":27.0,"mslp":954.4,"hvtl":-38.1,"hvtu":-241.5,"hb":86.4,"idx":-1.7,"cls":4,"psfc":954.4,"terrain":false,"radius_km":200,"name":"asym cold","track":"T20"},"geometry":{"type":"Point","coordinates":[27.0,-59.75]}},{"type":"Feature","properties":{"kind":"center","id":2,"lat":58.25,"lon":177.75,"mslp":954.5,"hvtl":2.1,"hvtu":-301.6,"hb":46.5,"idx":-1.0,"cls":3,"psfc":954.5,"terrain":false,"radius_km":200,"name":"asym shallow warm","track":"T02"},"geometry":{"type":"Point","coordinates":[177.75,58.25]}},{"type":"Feature","properties":{"kind":"center","id":3,"lat":-63.75,"lon":-137.75,"mslp":957.3,"hvtl":84.2,"hvtu":-192.7,"hb":20.4,"idx":0.4,"cls":3,"psfc":957.3,"terrain":false,"radius_km":200,"name":"asym shallow warm","track":"T11"},"geometry":{"type":"Point","coordinates":[-137.75,-63.75]}},{"type":"Feature","properties":{"kind":"center","id":4,"lat":-68.0,"lon":-159.25,"mslp":958.4,"hvtl":77.8,"hvtu":-55.8,"hb":-14.1,"idx":0.8,"cls":1,"psfc":958.4,"terrain":false,"radius_km":200,"name":"sym shallow warm","track":"T13"},"geometry":{"type":"Point","coordinates":[-159.25,-68.0]}},{"type":"Feature","properties":{"kind":"center","id":5,"lat":-64.5,"lon":-148.25,"mslp":959.1,"hvtl":63.1,"hvtu":-102.8,"hb":1.3,"idx":0.3,"cls":1,"psfc":959.1,"terrain":false,"radius_km":200,"name":"sym shallow warm"},"geometry":{"type":"Point","coordinates":[-148.25,-64.5]}},{"type":"Feature","properties":{"kind":"center","id":6,"lat":-56.5,"lon":103.0,"mslp":959.9,"hvtl":-4.3,"hvtu":-335.0,"hb":44.1,"idx":-1.1,"cls":4,"psfc":959.9,"terrain":false,"radius_km":200,"name":"asym cold","track":"T23"},"geometry":{"type":"Point","coordinates":[103.0,-56.5]}},{"type":"Feature","properties":{"kind":"center","id":7,"lat":-66.5,"lon":115.75,"mslp":963.7,"hvtl":-61.2,"hvtu":-16.0,"hb":30.0,"idx":-1.3,"cls":4,"psfc":962.7,"terrain":false,"radius_km":200,"name":"asym cold","track":"T01"},"geometry":{"type":"Point","coordinates":[115.75,-66.5]}},{"type":"Feature","properties":{"kind":"center","id":8,"lat":-58.5,"lon":12.25,"mslp":964.0,"hvtl":-225.2,"hvtu":-77.8,"hb":28.4,"idx":-2.6,"cls":4,"psfc":964.0,"terrain":false,"radius_km":200,"name":"asym cold","track":"T24"},"geometry":{"type":"Point","coordinates":[12.25,-58.5]}},{"type":"Feature","properties":{"kind":"center","id":9,"lat":-60.25,"lon":-108.0,"mslp":965.4,"hvtl":-7.2,"hvtu":-231.2,"hb":26.1,"idx":-1.1,"cls":4,"psfc":965.4,"terrain":false,"radius_km":200,"name":"asym cold","track":"T34"},"geometry":{"type":"Point","coordinates":[-108.0,-60.25]}},{"type":"Feature","properties":{"kind":"center","id":10,"lat":-57.0,"lon":2.0,"mslp":967.4,"hvtl":-61.4,"hvtu":-34.4,"hb":9.6,"idx":-1.4,"cls":5,"psfc":967.3,"terrain":false,"radius_km":200,"name":"sym cold"},"geometry":{"type":"Point","coordinates":[2.0,-57.0]}},{"type":"Feature","properties":{"kind":"center","id":11,"lat":-66.5,"lon":109.25,"mslp":967.7,"hvtl":-166.3,"hvtu":-78.0,"hb":36.7,"idx":-2.5,"cls":4,"psfc":967.7,"terrain":false,"radius_km":200,"name":"asym cold","track":"T30"},"geometry":{"type":"Point","coordinates":[109.25,-66.5]}},{"type":"Feature","properties":{"kind":"center","id":12,"lat":-66.0,"lon":104.25,"mslp":969.6,"hvtl":-99.5,"hvtu":-113.6,"hb":0.1,"idx":-2.3,"cls":5,"psfc":962.0,"terrain":false,"radius_km":200,"name":"sym cold"},"geometry":{"type":"Point","coordinates":[104.25,-66.0]}},{"type":"Feature","properties":{"kind":"center","id":13,"lat":-64.25,"lon":72.25,"mslp":970.7,"hvtl":-319.3,"hvtu":-140.3,"hb":66.9,"idx":-2.9,"cls":4,"psfc":970.7,"terrain":false,"radius_km":200,"name":"asym cold","track":"T41"},"geometry":{"type":"Point","coordinates":[72.25,-64.25]}},{"type":"Feature","properties":{"kind":"center","id":14,"lat":-67.25,"lon":59.25,"mslp":973.2,"hvtl":-361.5,"hvtu":-163.1,"hb":88.4,"idx":-2.9,"cls":4,"psfc":971.8,"terrain":false,"radius_km":200,"name":"asym cold"},"geometry":{"type":"Point","coordinates":[59.25,-67.25]}},{"type":"Feature","properties":{"kind":"center","id":15,"lat":-77.0,"lon":-38.5,"mslp":974.8,"hvtl":-199.7,"hvtu":-22.4,"hb":43.2,"idx":-2.1,"cls":4,"psfc":974.8,"terrain":false,"radius_km":200,"name":"asym cold","track":"T51"},"geometry":{"type":"Point","coordinates":[-38.5,-77.0]}},{"type":"Feature","properties":{"kind":"center","id":16,"lat":-71.5,"lon":-5.5,"mslp":977.3,"hvtl":-107.7,"hvtu":-121.5,"hb":19.9,"idx":-2.4,"cls":4,"psfc":919.0,"terrain":false,"radius_km":200,"name":"asym cold","track":"T05"},"geometry":{"type":"Point","coordinates":[-5.5,-71.5]}},{"type":"Feature","properties":{"kind":"center","id":17,"lat":74.5,"lon":44.25,"mslp":978.1,"hvtl":73.9,"hvtu":-54.1,"hb":-7.6,"idx":0.8,"cls":1,"psfc":978.1,"terrain":false,"radius_km":200,"name":"sym shallow warm","track":"T50"},"geometry":{"type":"Point","coordinates":[44.25,74.5]}},{"type":"Feature","properties":{"kind":"center","id":18,"lat":-66.25,"lon":138.5,"mslp":978.9,"hvtl":-110.3,"hvtu":-207.2,"hb":13.4,"idx":-2.6,"cls":4,"psfc":978.9,"terrain":false,"radius_km":200,"name":"asym cold"},"geometry":{"type":"Point","coordinates":[138.5,-66.25]}},{"type":"Feature","properties":{"kind":"center","id":19,"lat":-67.25,"lon":51.25,"mslp":979.3,"hvtl":-325.2,"hvtu":-250.2,"hb":23.3,"idx":-3.0,"cls":4,"psfc":902.9,"terrain":false,"radius_km":200,"name":"asym cold","track":"T21"},"geometry":{"type":"Point","coordinates":[51.25,-67.25]}},{"type":"Feature","properties":{"kind":"center","id":20,"lat":-51.25,"lon":120.5,"mslp":979.8,"hvtl":-276.3,"hvtu":-242.5,"hb":52.7,"idx":-3.0,"cls":4,"psfc":979.8,"terrain":false,"radius_km":200,"name":"asym cold","track":"T18"},"geometry":{"type":"Point","coordinates":[120.5,-51.25]}},{"type":"Feature","properties":{"kind":"center","id":21,"lat":-81.0,"lon":-47.5,"mslp":980.0,"hvtl":-142.2,"hvtu":11.8,"hb":29.6,"idx":-1.7,"cls":6,"psfc":964.2,"terrain":false,"radius_km":200,"name":"shallow cold","track":"T58"},"geometry":{"type":"Point","coordinates":[-47.5,-81.0]}},{"type":"Feature","properties":{"kind":"center","id":22,"lat":-53.75,"lon":-115.0,"mslp":980.2,"hvtl":11.0,"hvtu":-228.2,"hb":0.1,"idx":-0.8,"cls":1,"psfc":980.2,"terrain":false,"radius_km":200,"name":"sym shallow warm"},"geometry":{"type":"Point","coordinates":[-115.0,-53.75]}},{"type":"Feature","properties":{"kind":"center","id":23,"lat":63.0,"lon":-35.25,"mslp":982.9,"hvtl":258.1,"hvtu":-155.2,"hb":29.5,"idx":1.1,"cls":3,"psfc":982.9,"terrain":false,"radius_km":200,"name":"asym shallow warm","track":"T62"},"geometry":{"type":"Point","coordinates":[-35.25,63.0]}},{"type":"Feature","properties":{"kind":"center","id":24,"lat":-68.75,"lon":164.75,"mslp":983.3,"hvtl":-168.0,"hvtu":-222.2,"hb":40.7,"idx":-2.8,"cls":4,"psfc":983.3,"terrain":false,"radius_km":200,"name":"asym cold","track":"T46"},"geometry":{"type":"Point","coordinates":[164.75,-68.75]}},{"type":"Feature","properties":{"kind":"center","id":25,"lat":-77.25,"lon":-77.5,"mslp":983.5,"hvtl":-267.2,"hvtu":-71.8,"hb":53.7,"idx":-2.6,"cls":4,"psfc":907.2,"terrain":false,"radius_km":200,"name":"asym cold","track":"T55"},"geometry":{"type":"Point","coordinates":[-77.5,-77.25]}},{"type":"Feature","properties":{"kind":"center","id":26,"lat":-74.75,"lon":165.0,"mslp":986.0,"hvtl":60.2,"hvtu":-105.3,"hb":24.4,"idx":0.3,"cls":3,"psfc":985.7,"terrain":false,"radius_km":200,"name":"asym shallow warm","track":"T64"},"geometry":{"type":"Point","coordinates":[165.0,-74.75]}},{"type":"Feature","properties":{"kind":"center","id":27,"lat":22.5,"lon":-123.75,"mslp":986.6,"hvtl":75.9,"hvtu":113.0,"hb":5.7,"idx":2.1,"cls":0,"psfc":986.6,"terrain":false,"radius_km":200,"name":"sym deep warm","track":"T42"},"geometry":{"type":"Point","coordinates":[-123.75,22.5]}},{"type":"Feature","properties":{"kind":"center","id":28,"lat":-73.0,"lon":168.25,"mslp":986.7,"hvtl":-26.6,"hvtu":-119.6,"hb":16.9,"idx":-1.4,"cls":4,"psfc":905.5,"terrain":false,"radius_km":200,"name":"asym cold","track":"T37"},"geometry":{"type":"Point","coordinates":[168.25,-73.0]}},{"type":"Feature","properties":{"kind":"center","id":29,"lat":17.0,"lon":165.0,"mslp":992.5,"hvtl":52.9,"hvtu":124.5,"hb":9.1,"idx":1.8,"cls":0,"psfc":992.5,"terrain":false,"radius_km":200,"name":"sym deep warm","track":"T12"},"geometry":{"type":"Point","coordinates":[165.0,17.0]}},{"type":"Feature","properties":{"kind":"center","id":30,"lat":-45.5,"lon":-104.5,"mslp":993.6,"hvtl":-178.0,"hvtu":-233.1,"hb":42.4,"idx":-2.9,"cls":4,"psfc":993.6,"terrain":false,"radius_km":200,"name":"asym cold","track":"T71"},"geometry":{"type":"Point","coordinates":[-104.5,-45.5]}},{"type":"Feature","properties":{"kind":"center","id":31,"lat":-44.0,"lon":14.5,"mslp":993.7,"hvtl":-416.0,"hvtu":-495.0,"hb":92.3,"idx":-3.0,"cls":4,"psfc":993.7,"terrain":false,"radius_km":200,"name":"asym cold"},"geometry":{"type":"Point","coordinates":[14.5,-44.0]}},{"type":"Feature","properties":{"kind":"center","id":32,"lat":57.25,"lon":-79.0,"mslp":994.2,"hvtl":52.7,"hvtu":-59.0,"hb":11.4,"idx":0.4,"cls":3,"psfc":994.2,"terrain":false,"radius_km":200,"name":"asym shallow warm","track":"T87"},"geometry":{"type":"Point","coordinates":[-79.0,57.25]}},{"type":"Feature","properties":{"kind":"center","id":33,"lat":30.25,"lon":-168.0,"mslp":995.5,"hvtl":129.9,"hvtu":-225.8,"hb":14.3,"idx":0.7,"cls":3,"psfc":995.5,"terrain":false,"radius_km":200,"name":"asym shallow warm","track":"T70"},"geometry":{"type":"Point","coordinates":[-168.0,30.25]}},{"type":"Feature","properties":{"kind":"center","id":34,"lat":77.75,"lon":127.5,"mslp":996.8,"hvtl":-79.2,"hvtu":-192.9,"hb":62.6,"idx":-2.3,"cls":4,"psfc":996.8,"terrain":false,"radius_km":200,"name":"asym cold","track":"T88"},"geometry":{"type":"Point","coordinates":[127.5,77.75]}},{"type":"Feature","properties":{"kind":"center","id":35,"lat":78.25,"lon":-179.5,"mslp":998.1,"hvtl":31.5,"hvtu":-153.6,"hb":13.2,"idx":-0.3,"cls":3,"psfc":998.1,"terrain":false,"radius_km":200,"name":"asym shallow warm","track":"T96"},"geometry":{"type":"Point","coordinates":[-179.5,78.25]}},{"type":"Feature","properties":{"kind":"center","id":36,"lat":16.0,"lon":147.25,"mslp":1001.8,"hvtl":49.0,"hvtu":4.1,"hb":5.0,"idx":1.0,"cls":0,"psfc":1001.8,"terrain":false,"radius_km":200,"name":"sym deep warm","track":"T06"},"geometry":{"type":"Point","coordinates":[147.25,16.0]}},{"type":"Feature","properties":{"kind":"center","id":37,"lat":30.5,"lon":156.5,"mslp":1002.8,"hvtl":85.0,"hvtu":5.9,"hb":3.1,"idx":1.4,"cls":0,"psfc":1002.8,"terrain":false,"radius_km":200,"name":"sym deep warm","track":"T44"},"geometry":{"type":"Point","coordinates":[156.5,30.5]}},{"type":"Feature","properties":{"kind":"center","id":38,"lat":59.0,"lon":23.0,"mslp":1003.2,"hvtl":-167.0,"hvtu":-329.8,"hb":65.3,"idx":-2.9,"cls":4,"psfc":1002.8,"terrain":false,"radius_km":200,"name":"asym cold","track":"T81"},"geometry":{"type":"Point","coordinates":[23.0,59.0]}},{"type":"Feature","properties":{"kind":"center","id":39,"lat":-36.5,"lon":-52.5,"mslp":1004.8,"hvtl":-48.5,"hvtu":-276.7,"hb":86.9,"idx":-1.9,"cls":4,"psfc":1004.8,"terrain":false,"radius_km":200,"name":"asym cold","track":"T110"},"geometry":{"type":"Point","coordinates":[-52.5,-36.5]}},{"type":"Feature","properties":{"kind":"center","id":40,"lat":30.5,"lon":70.75,"mslp":1004.9,"hvtl":33.7,"hvtu":-58.1,"hb":10.2,"idx":0.1,"cls":3,"psfc":988.6,"terrain":false,"radius_km":200,"name":"asym shallow warm","track":"T103"},"geometry":{"type":"Point","coordinates":[70.75,30.5]}},{"type":"Feature","properties":{"kind":"center","id":41,"lat":11.25,"lon":-103.75,"mslp":1005.2,"hvtl":3.6,"hvtu":28.3,"hb":-9.3,"idx":0.3,"cls":0,"psfc":1005.2,"terrain":false,"radius_km":200,"name":"sym deep warm","track":"T115"},"geometry":{"type":"Point","coordinates":[-103.75,11.25]}},{"type":"Feature","properties":{"kind":"center","id":42,"lat":30.75,"lon":-77.75,"mslp":1005.3,"hvtl":54.1,"hvtu":-179.7,"hb":23.5,"idx":0.0,"cls":3,"psfc":1005.3,"terrain":false,"radius_km":200,"name":"asym shallow warm","track":"T116"},"geometry":{"type":"Point","coordinates":[-77.75,30.75]}},{"type":"Feature","properties":{"kind":"center","id":43,"lat":33.25,"lon":-115.75,"mslp":1005.4,"hvtl":-32.9,"hvtu":-176.4,"hb":-7.8,"idx":-1.6,"cls":5,"psfc":1011.1,"terrain":false,"radius_km":200,"name":"sym cold","track":"T107"},"geometry":{"type":"Point","coordinates":[-115.75,33.25]}},{"type":"Feature","properties":{"kind":"center","id":44,"lat":-15.75,"lon":-65.25,"mslp":1006.5,"hvtl":-67.4,"hvtu":-75.5,"hb":3.9,"idx":-1.8,"cls":5,"psfc":986.5,"terrain":false,"radius_km":200,"name":"sym cold","track":"T91"},"geometry":{"type":"Point","coordinates":[-65.25,-15.75]}},{"type":"Feature","properties":{"kind":"center","id":45,"lat":30.0,"lon":68.75,"mslp":1009.1,"hvtl":11.4,"hvtu":-54.7,"hb":8.9,"idx":-0.3,"cls":1,"psfc":900.2,"terrain":true,"radius_km":200,"name":"sym shallow warm"},"geometry":{"type":"Point","coordinates":[68.75,30.0]}},{"type":"Feature","properties":{"kind":"center","id":46,"lat":24.75,"lon":95.0,"mslp":1009.1,"hvtl":-15.4,"hvtu":-96.0,"hb":9.8,"idx":-1.0,"cls":5,"psfc":990.5,"terrain":false,"radius_km":200,"name":"sym cold","track":"T122"},"geometry":{"type":"Point","coordinates":[95.0,24.75]}},{"type":"Feature","properties":{"kind":"center","id":47,"lat":30.0,"lon":58.25,"mslp":1009.1,"hvtl":125.0,"hvtu":-15.3,"hb":9.7,"idx":1.5,"cls":1,"psfc":976.5,"terrain":false,"radius_km":200,"name":"sym shallow warm","track":"T114"},"geometry":{"type":"Point","coordinates":[58.25,30.0]}},{"type":"Feature","properties":{"kind":"center","id":48,"lat":73.75,"lon":-16.5,"mslp":1009.1,"hvtl":-259.4,"hvtu":-209.6,"hb":53.7,"idx":-2.9,"cls":4,"psfc":1009.1,"terrain":false,"radius_km":200,"name":"asym cold","track":"T57"},"geometry":{"type":"Point","coordinates":[-16.5,73.75]}},{"type":"Feature","properties":{"kind":"center","id":49,"lat":26.25,"lon":94.0,"mslp":1010.3,"hvtl":-15.5,"hvtu":-88.4,"hb":4.0,"idx":-1.0,"cls":5,"psfc":989.5,"terrain":false,"radius_km":200,"name":"sym cold","track":"T124"},"geometry":{"type":"Point","coordinates":[94.0,26.25]}},{"type":"Feature","properties":{"kind":"center","id":50,"lat":75.0,"lon":-61.5,"mslp":1010.7,"hvtl":-205.3,"hvtu":-120.6,"hb":25.9,"idx":-2.8,"cls":4,"psfc":1010.7,"terrain":false,"radius_km":200,"name":"asym cold","track":"T112"},"geometry":{"type":"Point","coordinates":[-61.5,75.0]}},{"type":"Feature","properties":{"kind":"center","id":51,"lat":-37.0,"lon":164.75,"mslp":1010.9,"hvtl":-133.7,"hvtu":2.9,"hb":28.9,"idx":-1.7,"cls":6,"psfc":1010.9,"terrain":false,"radius_km":200,"name":"shallow cold","track":"T120"},"geometry":{"type":"Point","coordinates":[164.75,-37.0]}},{"type":"Feature","properties":{"kind":"center","id":52,"lat":77.25,"lon":-101.5,"mslp":1011.6,"hvtl":-79.2,"hvtu":-34.7,"hb":2.5,"idx":-1.7,"cls":5,"psfc":1011.6,"terrain":false,"radius_km":200,"name":"sym cold","track":"T126"},"geometry":{"type":"Point","coordinates":[-101.5,77.25]}},{"type":"Feature","properties":{"kind":"center","id":53,"lat":48.25,"lon":-141.5,"mslp":1012.0,"hvtl":-203.1,"hvtu":-350.7,"hb":77.5,"idx":-2.9,"cls":4,"psfc":1012.0,"terrain":false,"radius_km":200,"name":"asym cold","track":"T85"},"geometry":{"type":"Point","coordinates":[-141.5,48.25]}},{"type":"Feature","properties":{"kind":"center","id":54,"lat":32.5,"lon":61.75,"mslp":1013.6,"hvtl":214.2,"hvtu":-67.6,"hb":60.9,"idx":1.4,"cls":3,"psfc":935.9,"terrain":false,"radius_km":200,"name":"asym shallow warm","track":"T133"},"geometry":{"type":"Point","coordinates":[61.75,32.5]}},{"type":"Feature","properties":{"kind":"center","id":55,"lat":-39.75,"lon":45.25,"mslp":1017.8,"hvtl":59.6,"hvtu":-51.3,"hb":15.5,"idx":0.6,"cls":3,"psfc":1017.8,"terrain":false,"radius_km":200,"name":"asym shallow warm"},"geometry":{"type":"Point","coordinates":[45.25,-39.75]}},{"type":"Feature","properties":{"kind":"center","id":56,"lat":-30.75,"lon":62.5,"mslp":1017.8,"hvtl":40.4,"hvtu":-149.3,"hb":16.3,"idx":-0.1,"cls":3,"psfc":1017.8,"terrain":false,"radius_km":200,"name":"asym shallow warm","track":"T135"},"geometry":{"type":"Point","coordinates":[62.5,-30.75]}}]}