{"type":"FeatureCollection","features":[{"type":"Feature","properties":{"kind":"blob","cls":0,"id":1},"geometry":{"type":"Polygon","coordinates":[[[117.0,-63.62],[118.38,-62.75],[117.0,-62.62],[116.62,-62.25],[117.25,-61.88],[118.75,-62.12],[118.88,-61.5],[117.0,-60.12],[112.75,-60.12],[110.88,-61.5],[110.88,-62.25],[112.75,-63.62],[117.0,-63.62]]]}},{"type":"Feature","properties":{"kind":"blob","cls":1,"id":2},"geometry":{"type":"Polygon","coordinates":[[[12.5,-69.38],[14.75,-68.88],[17.0,-67.38],[17.88,-66.25],[9.0,-66.38],[7.25,-66.12],[7.25,-65.62],[17.88,-65.25],[16.0,-64.12],[12.0,-63.88],[7.5,-64.88],[5.75,-65.62],[4.62,-66.75],[4.62,-67.5],[5.5,-68.38],[12.5,-69.38]]]}},{"type":"Feature","properties":{"kind":"blob","cls":3,"id":3},"geometry":{"type":"Polygon","coordinates":[[[179.88,-69.0],[180.0,-65.62],[178.0,-64.88],[173.75,-64.62],[171.25,-65.12],[170.0,-65.62],[168.88,-66.75],[169.75,-68.38],[172.0,-69.38],[177.5,-69.62],[179.88,-69.0]]]}},{"type":"Feature","properties":{"kind":"blob","cls":3,"id":3},"geometry":{"type":"Polygon","coordinates":[[[-179.88,-65.75],[-179.75,-68.88],[-178.62,-68.0],[-178.62,-67.0],[-179.88,-65.75]]]}},{"type":"Feature","properties":{"kind":"blob","cls":2,"id":4},"geometry":{"type":"Polygon","coordinates":[[[147.0,34.38],[148.25,34.12],[150.12,35.5],[150.12,37.25],[149.5,37.88],[148.5,38.38],[147.0,38.38],[145.38,37.25],[145.38,35.5],[147.0,34.38]]]}},{"type":"Feature","properties":{"kind":"blob","cls":3,"id":5},"geometry":{"type":"Polygon","coordinates":[[[32.75,-68.12],[34.5,-67.38],[35.12,-66.5],[34.5,-65.38],[31.5,-64.38],[27.25,-64.62],[25.12,-65.75],[25.12,-66.75],[25.75,-67.38],[27.5,-68.12],[32.75,-68.12]]]}},{"type":"Feature","properties":{"kind":"blob","cls":6,"id":6},"geometry":{"type":"MultiPolygon","coordinates":[[[[-4.5,-65.88],[-4.62,-66.0],[-4.5,-66.12],[-4.5,-65.88]]],[[[-8.25,-67.38],[-4.75,-66.38],[-5.75,-66.12],[-6.5,-66.38],[-7.5,-66.12],[-7.62,-65.75],[-6.5,-65.12],[-4.0,-65.62],[-3.62,-65.0],[-4.12,-63.5],[-5.5,-62.12],[-8.0,-61.38],[-9.5,-61.38],[-12.0,-62.12],[-12.62,-62.75],[-13.62,-65.75],[-12.25,-66.88],[-8.25,-67.38]]]]}},{"type":"Feature","properties":{"kind":"blob","cls":1,"id":7},"geometry":{"type":"Polygon","coordinates":[[[165.0,-67.12],[168.0,-66.38],[169.38,-65.25],[169.38,-64.25],[167.5,-63.12],[162.25,-62.88],[160.0,-63.38],[158.38,-64.5],[158.12,-65.0],[159.25,-66.38],[165.0,-67.12]]]}},{"type":"Feature","properties":{"kind":"blob","cls":2,"id":8},"geometry":{"type":"MultiPolygon","coordinates":[[[[-122.75,-63.88],[-122.88,-64.0],[-122.5,-64.12],[-122.75,-63.88]]],[[[-117.25,-67.12],[-114.5,-66.38],[-113.38,-65.0],[-113.62,-64.25],[-114.38,-63.75],[-111.25,-62.88],[-110.38,-62.0],[-110.38,-61.5],[-111.25,-60.62],[-113.5,-59.88],[-115.25,-59.88],[-117.5,-60.62],[-118.38,-61.5],[-117.75,-62.88],[-121.25,-63.12],[-122.38,-63.75],[-120.5,-64.12],[-120.12,-64.75],[-122.62,-66.25],[-121.25,-66.88],[-117.25,-67.12]]]]}},{"type":"Feature","properties":{"kind":"blob","cls":3,"id":9},"geometry":{"type":"Polygon","coordinates":[[[-128.25,-56.38],[-126.25,-55.62],[-125.62,-54.75],[-125.88,-53.75],[-128.25,-52.62],[-131.25,-53.38],[-131.88,-54.25],[-131.62,-55.25],[-130.25,-56.12],[-128.25,-56.38]]]}},{"type":"Feature","properties":{"kind":"blob","cls":3,"id":10},"geometry":{"type":"Polygon","coordinates":[[[-172.25,-81.38],[-163.12,-81.5],[-171.5,-81.38],[-172.88,-80.75],[-170.5,-79.88],[-167.25,-79.38],[-156.5,-79.12],[-155.0,-79.88],[-154.88,-79.25],[-156.0,-78.38],[-158.5,-77.62],[-163.25,-77.12],[-169.0,-77.12],[-176.5,-78.12],[-178.25,-78.62],[-179.88,-79.75],[-178.75,-80.62],[-177.0,-81.12],[-172.25,-81.38]]]}},{"type":"Feature","properties":{"kind":"blob","cls":1,"id":11},"geometry":{"type":"Polygon","coordinates":[[[-161.5,-81.38],[-159.88,-81.25],[-160.0,-81.12],[-161.5,-81.38]]]}},{"type":"Feature","properties":{"kind":"blob","cls":1,"id":12},"geometry":{"type":"Polygon","coordinates":[[[-159.0,-81.12],[-158.12,-81.0],[-158.25,-80.88],[-159.0,-81.12]]]}},{"type":"Feature","properties":{"kind":"blob","cls":1,"id":13},"geometry":{"type":"Polygon","coordinates":[[[-157.38,-80.75],[-157.25,-80.88],[-157.12,-80.75],[-157.38,-80.75]]]}},{"type":"Feature","properties":{"kind":"blob","cls":3,"id":14},"geometry":{"type":"Polygon","coordinates":[[[46.25,66.88],[51.5,66.88],[53.0,67.38],[53.88,68.25],[53.62,69.5],[52.5,70.62],[49.62,71.25],[50.75,71.88],[51.38,72.75],[50.75,73.88],[47.0,75.12],[41.25,75.38],[37.25,74.62],[35.88,73.5],[35.88,72.75],[36.75,71.88],[38.5,71.12],[41.25,70.62],[40.62,69.75],[40.62,69.0],[41.5,68.12],[43.0,67.38],[46.25,66.88]]]}},{"type":"Feature","properties":{"kind":"blob","cls":0,"id":15},"geometry":{"type":"Polygon","coordinates":[[[-117.75,18.88],[-116.88,20.0],[-116.88,21.25],[-117.75,22.38],[-120.0,22.38],[-120.88,21.25],[-120.75,20.12],[-120.0,20.88],[-118.88,20.25],[-119.25,19.38],[-120.38,19.25],[-117.75,18.88]]]}},{"type":"Feature","properties":{"kind":"blob","cls":4,"id":16},"geometry":{"type":"Polygon","coordinates":[[[94.5,-56.38],[96.5,-55.62],[97.38,-54.5],[97.12,-53.5],[94.75,-52.38],[93.25,-52.38],[91.25,-53.12],[90.62,-54.0],[90.88,-55.25],[92.25,-56.12],[94.5,-56.38]]]}},{"type":"Feature","properties":{"kind":"blob","cls":4,"id":17},"geometry":{"type":"Polygon","coordinates":[[[-5.25,-48.38],[-4.0,-47.88],[-3.12,-47.0],[-3.38,-45.5],[-5.25,-44.38],[-8.0,-44.38],[-9.25,-44.88],[-9.88,-45.5],[-10.12,-46.5],[-9.0,-47.88],[-5.25,-48.38]]]}},{"type":"Feature","properties":{"kind":"blob","cls":3,"id":18},"geometry":{"type":"Polygon","coordinates":[[[156.75,56.88],[158.38,58.0],[158.62,59.5],[157.75,60.38],[156.0,60.88],[154.5,60.88],[152.0,60.12],[150.62,59.0],[150.62,58.0],[152.25,56.88],[156.75,56.88]]]}},{"type":"Feature","properties":{"kind":"blob","cls":5,"id":19},"geometry":{"type":"Polygon","coordinates":[[[-61.25,47.88],[-59.25,48.62],[-58.12,50.0],[-58.38,51.0],[-59.0,51.62],[-60.5,52.12],[-62.5,52.12],[-64.0,51.62],[-64.88,50.75],[-65.12,49.5],[-63.75,48.12],[-61.25,47.88]]]}},{"type":"Feature","properties":{"kind":"blob","cls":4,"id":20},"geometry":{"type":"Polygon","coordinates":[[[-49.5,53.38],[-47.75,53.88],[-46.88,54.75],[-46.88,56.0],[-47.75,56.88],[-50.25,57.62],[-54.0,56.88],[-54.88,56.0],[-54.88,54.75],[-54.0,53.88],[-49.5,53.38]]]}},{"type":"Feature","properties":{"kind":"blob","cls":1,"id":21},"geometry":{"type":"Polygon","coordinates":[[[-59.75,52.62],[-59.25,53.12],[-58.0,52.88],[-57.0,53.38],[-56.38,54.25],[-56.38,55.5],[-57.0,56.12],[-59.0,56.88],[-60.25,56.88],[-62.25,56.12],[-63.12,55.25],[-63.38,54.25],[-62.75,53.38],[-59.75,52.62]]]}},{"type":"Feature","properties":{"kind":"blob","cls":4,"id":22},"geometry":{"type":"Polygon","coordinates":[[[-84.25,-64.88],[-82.25,-64.38],[-80.88,-63.25],[-80.88,-62.25],[-82.5,-60.88],[-84.5,-60.38],[-88.25,-60.62],[-89.88,-61.5],[-90.12,-63.25],[-89.5,-63.88],[-84.25,-64.88]]]}},{"type":"Feature","properties":{"kind":"blob","cls":4,"id":23},"geometry":{"type":"Polygon","coordinates":[[[-58.75,-81.38],[-50.0,-81.62],[-48.88,-81.25],[-56.0,-81.12],[-58.75,-81.38]]]}},{"type":"Feature","properties":{"kind":"blob","cls":0,"id":24},"geometry":{"type":"Polygon","coordinates":[[[166.5,24.88],[167.62,26.5],[166.25,28.38],[165.5,28.62],[164.25,28.38],[163.12,26.75],[163.38,25.75],[164.25,24.88],[166.5,24.88]]]}},{"type":"Feature","properties":{"kind":"blob","cls":4,"id":25},"geometry":{"type":"Polygon","coordinates":[[[-121.0,-44.62],[-119.75,-44.12],[-119.12,-43.25],[-119.12,-42.25],[-121.25,-40.12],[-123.25,-39.88],[-124.88,-40.75],[-125.12,-42.75],[-124.0,-43.88],[-121.0,-44.62]]]}},{"type":"Feature","properties":{"kind":"blob","cls":4,"id":26},"geometry":{"type":"Polygon","coordinates":[[[-94.5,56.88],[-92.0,56.62],[-90.0,57.38],[-89.12,58.25],[-88.88,59.25],[-89.38,60.75],[-90.25,61.62],[-93.0,62.62],[-95.75,62.62],[-98.0,61.88],[-98.62,61.25],[-98.62,60.0],[-97.62,58.5],[-96.75,57.62],[-94.5,56.88]]]}},{"type":"Feature","properties":{"kind":"blob","cls":3,"id":27},"geometry":{"type":"Polygon","coordinates":[[[-67.75,-32.62],[-66.5,-32.12],[-65.88,-31.25],[-65.88,-30.25],[-64.62,-29.25],[-64.38,-27.75],[-65.25,-26.62],[-65.88,-27.25],[-65.38,-28.75],[-65.75,-28.38],[-66.88,-29.25],[-67.38,-31.25],[-68.0,-31.62],[-68.12,-31.25],[-67.62,-31.0],[-68.38,-30.25],[-68.88,-32.25],[-67.75,-32.62]],[[-66.62,-31.0],[-66.5,-30.62],[-66.38,-30.75],[-66.62,-31.0]]]}},{"type":"Feature","properties":{"kind":"blob","cls":3,"id":28},"geometry":{"type":"Polygon","coordinates":[[[-66.5,-28.62],[-66.38,-28.0],[-66.75,-27.88],[-66.5,-28.62]]]}},{"type":"Feature","properties":{"kind":"blob","cls":4,"id":29},"geometry":{"type":"MultiPolygon","coordinates":[[[[-64.75,-24.38],[-64.88,-24.5],[-64.75,-24.62],[-64.75,-24.38]]],[[[-64.5,-26.12],[-62.5,-26.12],[-61.38,-24.75],[-61.62,-22.25],[-63.25,-21.12],[-64.12,-21.25],[-63.62,-21.75],[-64.38,-22.75],[-64.62,-24.0],[-64.12,-24.25],[-65.12,-25.75],[-64.5,-26.12]]]]}},{"type":"Feature","properties":{"kind":"blob","cls":4,"id":30},"geometry":{"type":"Polygon","coordinates":[[[-146.5,57.88],[-144.75,58.38],[-143.62,59.5],[-143.62,60.0],[-144.75,61.12],[-145.25,60.62],[-146.0,61.12],[-150.25,61.12],[-151.38,60.0],[-151.38,59.5],[-150.25,58.38],[-146.5,57.88]],[[-150.62,59.75],[-150.0,60.38],[-149.88,60.0],[-150.62,59.75]],[[-148.75,60.12],[-148.88,60.25],[-148.75,60.38],[-148.75,60.12]]]}},{"type":"Feature","properties":{"kind":"blob","cls":5,"id":31},"geometry":{"type":"Polygon","coordinates":[[[-65.25,-17.12],[-64.25,-17.38],[-63.88,-16.75],[-63.88,-15.5],[-64.62,-13.75],[-66.5,-12.12],[-68.75,-12.12],[-69.62,-13.5],[-68.5,-13.88],[-67.5,-15.62],[-67.0,-15.62],[-65.25,-17.12]]]}},{"type":"Feature","properties":{"kind":"blob","cls":4,"id":32},"geometry":{"type":"Polygon","coordinates":[[[-75.0,-38.88],[-73.38,-37.75],[-73.38,-35.75],[-75.0,-34.62],[-76.25,-34.62],[-78.12,-36.0],[-78.12,-37.75],[-77.0,-38.62],[-76.75,-38.12],[-76.0,-38.12],[-75.0,-38.88]]]}},{"type":"Feature","properties":{"kind":"blob","cls":4,"id":33},"geometry":{"type":"Polygon","coordinates":[[[-36.5,-49.12],[-35.25,-48.62],[-34.38,-47.75],[-34.38,-46.75],[-35.5,-45.62],[-36.75,-45.12],[-39.25,-45.62],[-40.12,-46.5],[-40.12,-47.75],[-39.25,-48.62],[-36.5,-49.12]]]}},{"type":"Feature","properties":{"kind":"blob","cls":4,"id":34},"geometry":{"type":"MultiPolygon","coordinates":[[[[169.0,-45.12],[169.25,-45.62],[169.62,-44.75],[169.25,-44.38],[168.38,-45.0],[169.0,-45.12]]],[[[167.5,-46.62],[168.75,-46.12],[169.12,-45.75],[168.25,-45.38],[167.88,-44.75],[169.38,-44.0],[167.5,-42.88],[165.0,-43.38],[164.38,-44.0],[164.12,-45.0],[165.0,-46.12],[167.5,-46.62]]]]}},{"type":"Feature","properties":{"kind":"blob","cls":4,"id":35},"geometry":{"type":"Polygon","coordinates":[[[-28.5,62.12],[-26.0,63.38],[-25.62,64.5],[-27.25,66.12],[-29.5,66.62],[-33.75,66.38],[-36.0,65.38],[-36.88,63.75],[-35.0,62.38],[-28.5,62.12]]]}},{"type":"Feature","properties":{"kind":"blob","cls":4,"id":36},"geometry":{"type":"Polygon","coordinates":[[[87.75,54.12],[88.5,54.62],[89.5,54.62],[90.62,55.75],[90.62,56.75],[89.75,57.62],[88.0,58.12],[85.0,57.62],[83.88,56.5],[83.88,55.5],[85.25,54.38],[87.75,54.12]]]}},{"type":"Feature","properties":{"kind":"blob","cls":1,"id":37},"geometry":{"type":"Polygon","coordinates":[[[-121.25,37.12],[-120.5,37.38],[-120.12,38.0],[-121.88,40.25],[-122.0,41.12],[-123.12,40.75],[-122.62,39.5],[-123.12,39.5],[-123.62,40.5],[-123.5,41.88],[-124.62,41.0],[-124.62,39.25],[-123.0,37.38],[-121.25,37.12]]]}},{"type":"Feature","properties":{"kind":"blob","cls":1,"id":38},"geometry":{"type":"Polygon","coordinates":[[[71.25,28.38],[73.12,29.5],[73.62,30.25],[73.62,32.0],[73.25,32.38],[71.0,32.12],[70.12,31.5],[70.12,30.0],[68.88,29.5],[69.75,28.62],[71.25,28.38]]]}},{"type":"Feature","properties":{"kind":"blob","cls":4,"id":39},"geometry":{"type":"Polygon","coordinates":[[[50.0,28.38],[51.38,30.25],[49.88,31.25],[49.88,32.0],[48.75,32.88],[48.0,32.88],[47.75,33.38],[47.25,32.88],[46.0,33.38],[45.38,32.5],[45.62,30.0],[46.75,28.62],[50.0,28.38]]]}},{"type":"Feature","properties":{"kind":"blob","cls":3,"id":40},"geometry":{"type":"Polygon","coordinates":[[[-122.62,41.75],[-122.5,41.62],[-122.38,41.75],[-122.62,41.75]]]}},{"type":"Feature","properties":{"kind":"blob","cls":4,"id":41},"geometry":{"type":"Polygon","coordinates":[[[36.5,25.88],[37.12,27.0],[35.0,29.12],[34.5,29.12],[34.0,28.12],[33.62,28.25],[33.38,27.25],[34.5,25.88],[36.5,25.88]]]}},{"type":"Feature","properties":{"kind":"blob","cls":4,"id":42},"geometry":{"type":"Polygon","coordinates":[[[-123.0,76.62],[-114.75,76.62],[-111.5,77.38],[-109.88,78.5],[-111.0,79.38],[-112.75,79.88],[-118.0,80.12],[-124.5,79.12],[-132.88,78.5],[-131.75,77.62],[-130.0,77.12],[-123.0,76.62]]]}},{"type":"Feature","properties":{"kind":"blob","cls":3,"id":43},"geometry":{"type":"Polygon","coordinates":[[[-4.5,43.88],[-2.75,44.62],[-0.88,46.25],[-0.88,47.25],[-1.75,48.12],[-3.0,48.62],[-4.75,48.62],[-6.5,47.88],[-7.88,46.5],[-8.12,45.5],[-7.25,44.38],[-4.5,43.88]],[[-6.5,44.88],[-7.12,45.5],[-6.75,46.38],[-6.38,46.25],[-6.5,44.88]]]}},{"type":"Feature","properties":{"kind":"blob","cls":3,"id":44},"geometry":{"type":"Polygon","coordinates":[[[-122.88,42.25],[-122.75,42.12],[-122.62,42.25],[-122.88,42.25]]]}},{"type":"Feature","properties":{"kind":"blob","cls":1,"id":45},"geometry":{"type":"Polygon","coordinates":[[[68.62,30.0],[68.75,29.88],[68.88,30.0],[68.62,30.0]]]}},{"type":"Feature","properties":{"kind":"blob","cls":4,"id":46},"geometry":{"type":"Polygon","coordinates":[[[35.25,-38.62],[36.5,-38.88],[38.12,-37.75],[38.12,-36.25],[37.5,-35.62],[35.5,-35.12],[33.88,-36.25],[33.88,-37.75],[35.25,-38.62]]]}},{"type":"Feature","properties":{"kind":"blob","cls":3,"id":47},"geometry":{"type":"Polygon","coordinates":[[[62.12,32.25],[61.5,33.62],[60.62,32.75],[62.12,32.25]]]}},{"type":"Feature","properties":{"kind":"blob","cls":3,"id":48},"geometry":{"type":"Polygon","coordinates":[[[63.0,29.62],[63.38,30.0],[62.25,30.38],[61.25,31.62],[60.62,31.75],[61.25,30.38],[63.0,29.62]]]}},{"type":"Feature","properties":{"kind":"blob","cls":5,"id":49},"geometry":{"type":"Polygon","coordinates":[[[94.0,25.62],[94.62,26.25],[92.75,26.88],[92.62,26.5],[94.0,25.62]]]}},{"type":"Feature","properties":{"kind":"blob","cls":5,"id":50},"geometry":{"type":"MultiPolygon","coordinates":[[[[95.25,25.62],[95.12,25.5],[95.25,25.38],[95.25,25.62]]],[[[95.5,25.88],[95.38,25.75],[95.5,25.62],[95.5,25.88]]]]}},{"type":"Feature","properties":{"kind":"blob","cls":4,"id":51},"geometry":{"type":"MultiPolygon","coordinates":[[[[37.5,27.88],[37.38,27.75],[37.5,27.62],[37.5,27.88]]],[[[36.12,28.25],[37.38,28.0],[36.5,29.12],[35.88,29.0],[36.12,28.25]]],[[[35.88,29.25],[35.75,29.38],[35.62,29.25],[35.88,29.25]]]]}},{"type":"Feature","properties":{"kind":"center","id":1,"lat":-61.75,"lon":114.75,"mslp":932.3,"hvtl":219.9,"hvtu":14.3,"hb":-50.2,"idx":2.1,"cls":0,"psfc":932.3,"terrain":false,"radius_km":200,"name":"sym deep warm","track":"T01"},"geometry":{"type":"Point","coordinates":[114.75,-61.75]}},{"type":"Feature","properties":{"kind":"center","id":2,"lat":-67.0,"lon":10.75,"mslp":954.9,"hvtl":91.7,"hvtu":-78.7,"hb":-6.2,"idx":0.8,"cls":1,"psfc":954.9,"terrain":false,"radius_km":200,"name":"sym shallow warm","track":"T05"},"geometry":{"type":"Point","coordinates":[10.75,-67.0]}},{"type":"Feature","properties":{"kind":"center","id":3,"lat":-67.25,"lon":175.0,"mslp":955.9,"hvtl":2.7,"hvtu":-225.9,"hb":63.9,"idx":-0.9,"cls":3,"psfc":955.9,"terrain":false,"radius_km":200,"name":"asym shallow warm","track":"T13"},"geometry":{"type":"Point","coordinates":[175.0,-67.25]}},{"type":"Feature","properties":{"kind":"center","id":4,"lat":36.25,"lon":147.75,"mslp":957.1,"hvtl":95.4,"hvtu":179.0,"hb":43.4,"idx":2.4,"cls":2,"psfc":957.1,"terrain":false,"radius_km":200,"name":"asym deep warm","track":"T02"},"geometry":{"type":"Point","coordinates":[147.75,36.25]}},{"type":"Feature","properties":{"kind":"center","id":5,"lat":-66.5,"lon":30.0,"mslp":957.5,"hvtl":59.2,"hvtu":-43.1,"hb":11.2,"idx":0.7,"cls":3,"psfc":957.5,"terrain":false,"radius_km":200,"name":"asym shallow warm","track":"T21"},"geometry":{"type":"Point","coordinates":[30.0,-66.5]}},{"type":"Feature","properties":{"kind":"center","id":6,"lat":-64.75,"lon":-8.25,"mslp":958.7,"hvtl":-143.7,"hvtu":13.4,"hb":2.2,"idx":-1.7,"cls":6,"psfc":958.7,"terrain":false,"radius_km":200,"name":"shallow cold","track":"T24"},"geometry":{"type":"Point","coordinates":[-8.25,-64.75]}},{"type":"Feature","properties":{"kind":"center","id":7,"lat":-65.0,"lon":163.75,"mslp":959.3,"hvtl":66.9,"hvtu":-134.7,"hb":1.5,"idx":0.3,"cls":1,"psfc":959.3,"terrain":false,"radius_km":200,"name":"sym shallow warm","track":"T04"},"geometry":{"type":"Point","coordinates":[163.75,-65.0]}},{"type":"Feature","properties":{"kind":"center","id":8,"lat":-65.0,"lon":-118.75,"mslp":960.4,"hvtl":51.2,"hvtu":30.7,"hb":15.7,"idx":1.2,"cls":2,"psfc":960.4,"terrain":false,"radius_km":200,"name":"asym deep warm","track":"T25"},"geometry":{"type":"Point","coordinates":[-118.75,-65.0]}},{"type":"Feature","properties":{"kind":"center","id":9,"lat":-54.5,"lon":-128.75,"mslp":967.0,"hvtl":71.5,"hvtu":-198.1,"hb":17.0,"idx":0.3,"cls":3,"psfc":967.0,"terrain":false,"radius_km":200,"name":"asym shallow warm","track":"T39"},"geometry":{"type":"Point","coordinates":[-128.75,-54.5]}},{"type":"Feature","properties":{"kind":"center","id":10,"lat":-79.5,"lon":-167.5,"mslp":967.1,"hvtl":21.1,"hvtu":-118.5,"hb":20.6,"idx":-0.4,"cls":3,"psfc":959.7,"terrain":false,"radius_km":200,"name":"asym shallow warm","track":"T32"},"geometry":{"type":"Point","coordinates":[-167.5,-79.5]}},{"type":"Feature","properties":{"kind":"center","id":11,"lat":-81.25,"lon":-161.5,"mslp":971.6,"hvtl":23.2,"hvtu":-43.5,"hb":-16.2,"idx":0.0,"cls":1,"psfc":964.1,"terrain":false,"radius_km":200,"name":"sym shallow warm"},"geometry":{"type":"Point","coordinates":[-161.5,-81.25]}},{"type":"Feature","properties":{"kind":"center","id":12,"lat":-81.0,"lon":-159.0,"mslp":971.9,"hvtl":42.8,"hvtu":-43.0,"hb":-19.5,"idx":0.4,"cls":1,"psfc":963.1,"terrain":false,"radius_km":200,"name":"sym shallow warm"},"geometry":{"type":"Point","coordinates":[-159.0,-81.0]}},{"type":"Feature","properties":{"kind":"center","id":13,"lat":-80.75,"lon":-157.25,"mslp":972.3,"hvtl":41.5,"hvtu":-39.7,"hb":-21.7,"idx":0.4,"cls":1,"psfc":962.0,"terrain":false,"radius_km":200,"name":"sym shallow warm","track":"T45"},"geometry":{"type":"Point","coordinates":[-157.25,-80.75]}},{"type":"Feature","properties":{"kind":"center","id":14,"lat":72.75,"lon":43.25,"mslp":973.2,"hvtl":17.0,"hvtu":-131.2,"hb":21.6,"idx":-0.5,"cls":3,"psfc":973.2,"terrain":false,"radius_km":200,"name":"asym shallow warm","track":"T50"},"geometry":{"type":"Point","coordinates":[43.25,72.75]}},{"type":"Feature","properties":{"kind":"center","id":15,"lat":20.5,"lon":-119.0,"mslp":975.5,"hvtl":68.8,"hvtu":177.6,"hb":3.5,"idx":2.1,"cls":0,"psfc":975.5,"terrain":false,"radius_km":200,"name":"sym deep warm","track":"T42"},"geometry":{"type":"Point","coordinates":[-119.0,20.5]}},{"type":"Feature","properties":{"kind":"center","id":16,"lat":-55.0,"lon":94.0,"mslp":975.8,"hvtl":-417.8,"hvtu":-387.2,"hb":78.5,"idx":-3.0,"cls":4,"psfc":975.8,"terrain":false,"radius_km":200,"name":"asym cold","track":"T18"},"geometry":{"type":"Point","coordinates":[94.0,-55.0]}},{"type":"Feature","properties":{"kind":"center","id":17,"lat":-46.5,"lon":-7.0,"mslp":978.9,"hvtl":-165.2,"hvtu":-281.1,"hb":95.5,"idx":-2.9,"cls":4,"psfc":978.9,"terrain":false,"radius_km":200,"name":"asym cold","track":"T20"},"geometry":{"type":"Point","coordinates":[-7.0,-46.5]}},{"type":"Feature","properties":{"kind":"center","id":18,"lat":58.75,"lon":154.75,"mslp":979.1,"hvtl":10.9,"hvtu":-369.0,"hb":38.8,"idx":-0.8,"cls":3,"psfc":979.1,"terrain":false,"radius_km":200,"name":"asym shallow warm","track":"T53"},"geometry":{"type":"Point","coordinates":[154.75,58.75]}},{"type":"Feature","properties":{"kind":"center","id":19,"lat":50.25,"lon":-61.75,"mslp":985.0,"hvtl":-57.2,"hvtu":-35.6,"hb":9.8,"idx":-1.4,"cls":5,"psfc":979.9,"terrain":false,"radius_km":200,"name":"sym cold","track":"T61"},"geometry":{"type":"Point","coordinates":[-61.75,50.25]}},{"type":"Feature","properties":{"kind":"center","id":20,"lat":55.5,"lon":-51.25,"mslp":985.1,"hvtl":-190.2,"hvtu":-331.5,"hb":59.4,"idx":-2.9,"cls":4,"psfc":985.1,"terrain":false,"radius_km":200,"name":"asym cold","track":"T56"},"geometry":{"type":"Point","coordinates":[-51.25,55.5]}},{"type":"Feature","properties":{"kind":"center","id":21,"lat":54.75,"lon":-60.0,"mslp":985.1,"hvtl":23.6,"hvtu":-79.7,"hb":-1.0,"idx":-0.2,"cls":1,"psfc":966.4,"terrain":false,"radius_km":200,"name":"sym shallow warm"},"geometry":{"type":"Point","coordinates":[-60.0,54.75]}},{"type":"Feature","properties":{"kind":"center","id":22,"lat":-62.75,"lon":-85.75,"mslp":989.5,"hvtl":-28.6,"hvtu":-253.7,"hb":20.9,"idx":-1.5,"cls":4,"psfc":989.5,"terrain":false,"radius_km":200,"name":"asym cold","track":"T68"},"geometry":{"type":"Point","coordinates":[-85.75,-62.75]}},{"type":"Feature","properties":{"kind":"center","id":23,"lat":-81.5,"lon":-58.75,"mslp":993.3,"hvtl":-278.2,"hvtu":-128.2,"hb":52.9,"idx":-2.8,"cls":4,"psfc":976.5,"terrain":false,"radius_km":200,"name":"asym cold","track":"T79"},"geometry":{"type":"Point","coordinates":[-58.75,-81.5]}},{"type":"Feature","properties":{"kind":"center","id":24,"lat":26.5,"lon":165.25,"mslp":993.6,"hvtl":97.3,"hvtu":104.5,"hb":-2.9,"idx":2.3,"cls":0,"psfc":993.6,"terrain":false,"radius_km":200,"name":"sym deep warm","track":"T44"},"geometry":{"type":"Point","coordinates":[165.25,26.5]}},{"type":"Feature","properties":{"kind":"center","id":25,"lat":-42.0,"lon":-122.75,"mslp":994.1,"hvtl":-257.5,"hvtu":-173.5,"hb":57.5,"idx":-2.9,"cls":4,"psfc":994.1,"terrain":false,"radius_km":200,"name":"asym cold"},"geometry":{"type":"Point","coordinates":[-122.75,-42.0]}},{"type":"Feature","properties":{"kind":"center","id":26,"lat":59.25,"lon":-93.75,"mslp":996.7,"hvtl":-27.0,"hvtu":-32.8,"hb":30.4,"idx":-0.8,"cls":4,"psfc":996.7,"terrain":false,"radius_km":200,"name":"asym cold","track":"T90"},"geometry":{"type":"Point","coordinates":[-93.75,59.25]}},{"type":"Feature","properties":{"kind":"center","id":27,"lat":-30.75,"lon":-68.0,"mslp":997.9,"hvtl":34.5,"hvtu":-304.1,"hb":76.6,"idx":-0.3,"cls":3,"psfc":921.9,"terrain":false,"radius_km":200,"name":"asym shallow warm","track":"T95"},"geometry":{"type":"Point","coordinates":[-68.0,-30.75]}},{"type":"Feature","properties":{"kind":"center","id":28,"lat":-28.25,"lon":-66.5,"mslp":998.3,"hvtl":111.0,"hvtu":-300.9,"hb":27.6,"idx":0.6,"cls":3,"psfc":917.0,"terrain":false,"radius_km":200,"name":"asym shallow warm","track":"T97"},"geometry":{"type":"Point","coordinates":[-66.5,-28.25]}},{"type":"Feature","properties":{"kind":"center","id":29,"lat":-24.0,"lon":-63.25,"mslp":1001.2,"hvtl":-182.8,"hvtu":-164.5,"hb":14.8,"idx":-2.8,"cls":4,"psfc":975.7,"terrain":false,"radius_km":200,"name":"asym cold","track":"T91"},"geometry":{"type":"Point","coordinates":[-63.25,-24.0]}},{"type":"Feature","properties":{"kind":"center","id":30,"lat":59.75,"lon":-147.5,"mslp":1002.0,"hvtl":-2.3,"hvtu":-140.5,"hb":16.3,"idx":-0.9,"cls":4,"psfc":1000.1,"terrain":false,"radius_km":200,"name":"asym cold","track":"T40"},"geometry":{"type":"Point","coordinates":[-147.5,59.75]}},{"type":"Feature","properties":{"kind":"center","id":31,"lat":-14.5,"lon":-66.75,"mslp":1002.2,"hvtl":-93.7,"hvtu":-99.4,"hb":6.4,"idx":-2.2,"cls":5,"psfc":982.1,"terrain":false,"radius_km":200,"name":"sym cold","track":"T89"},"geometry":{"type":"Point","coordinates":[-66.75,-14.5]}},{"type":"Feature","properties":{"kind":"center","id":32,"lat":-36.75,"lon":-75.75,"mslp":1005.2,"hvtl":-25.0,"hvtu":-51.4,"hb":20.5,"idx":-1.0,"cls":4,"psfc":1005.2,"terrain":false,"radius_km":200,"name":"asym cold","track":"T102"},"geometry":{"type":"Point","coordinates":[-75.75,-36.75]}},{"type":"Feature","properties":{"kind":"center","id":33,"lat":-47.25,"lon":-37.5,"mslp":1005.8,"hvtl":-112.7,"hvtu":-103.1,"hb":31.8,"idx":-2.4,"cls":4,"psfc":1005.9,"terrain":false,"radius_km":200,"name":"asym cold"},"geometry":{"type":"Point","coordinates":[-37.5,-47.25]}},{"type":"Feature","properties":{"kind":"center","id":34,"lat":-44.75,"lon":166.75,"mslp":1006.2,"hvtl":-122.3,"hvtu":-150.7,"hb":61.5,"idx":-2.6,"cls":4,"psfc":1006.2,"terrain":false,"radius_km":200,"name":"asym cold"},"geometry":{"type":"Point","coordinates":[166.75,-44.75]}},{"type":"Feature","properties":{"kind":"center","id":35,"lat":64.0,"lon":-31.75,"mslp":1006.6,"hvtl":-101.0,"hvtu":-397.2,"hb":15.0,"idx":-2.5,"cls":4,"psfc":1006.6,"terrain":false,"radius_km":200,"name":"asym cold","track":"T62"},"geometry":{"type":"Point","coordinates":[-31.75,64.0]}},{"type":"Feature","properties":{"kind":"center","id":36,"lat":56.25,"lon":87.25,"mslp":1006.7,"hvtl":-252.1,"hvtu":-125.1,"hb":56.6,"idx":-2.8,"cls":4,"psfc":985.4,"terrain":false,"radius_km":200,"name":"asym cold","track":"T111"},"geometry":{"type":"Point","coordinates":[87.25,56.25]}},{"type":"Feature","properties":{"kind":"center","id":37,"lat":37.5,"lon":-121.0,"mslp":1007.0,"hvtl":36.1,"hvtu":-203.7,"hb":-9.3,"idx":-0.3,"cls":1,"psfc":1003.5,"terrain":false,"radius_km":200,"name":"sym shallow warm"},"geometry":{"type":"Point","coordinates":[-121.0,37.5]}},{"type":"Feature","properties":{"kind":"center","id":38,"lat":31.0,"lon":70.75,"mslp":1007.6,"hvtl":43.5,"hvtu":-89.5,"hb":9.7,"idx":0.1,"cls":1,"psfc":990.2,"terrain":false,"radius_km":200,"name":"sym shallow warm","track":"T103"},"geometry":{"type":"Point","coordinates":[70.75,31.0]}},{"type":"Feature","properties":{"kind":"center","id":39,"lat":31.0,"lon":48.5,"mslp":1009.6,"hvtl":-86.3,"hvtu":-58.5,"hb":21.8,"idx":-1.9,"cls":4,"psfc":1008.7,"terrain":false,"radius_km":200,"name":"asym cold"},"geometry":{"type":"Point","coordinates":[48.5,31.0]}},{"type":"Feature","properties":{"kind":"center","id":40,"lat":41.75,"lon":-122.5,"mslp":1010.0,"hvtl":139.2,"hvtu":-117.6,"hb":41.1,"idx":0.9,"cls":3,"psfc":911.8,"terrain":true,"radius_km":200,"name":"asym shallow warm"},"geometry":{"type":"Point","coordinates":[-122.5,41.75]}},{"type":"Feature","properties":{"kind":"center","id":41,"lat":27.5,"lon":35.5,"mslp":1010.3,"hvtl":-87.0,"hvtu":-169.9,"hb":65.7,"idx":-2.3,"cls":4,"psfc":1009.0,"terrain":false,"radius_km":200,"name":"asym cold"},"geometry":{"type":"Point","coordinates":[35.5,27.5]}},{"type":"Feature","properties":{"kind":"center","id":42,"lat":78.25,"lon":-118.75,"mslp":1010.6,"hvtl":-118.9,"hvtu":-142.7,"hb":31.3,"idx":-2.6,"cls":4,"psfc":1010.6,"terrain":false,"radius_km":200,"name":"asym cold","track":"T126"},"geometry":{"type":"Point","coordinates":[-118.75,78.25]}},{"type":"Feature","properties":{"kind":"center","id":43,"lat":46.75,"lon":-3.75,"mslp":1011.3,"hvtl":97.3,"hvtu":-125.4,"hb":30.2,"idx":0.7,"cls":3,"psfc":1011.3,"terrain":false,"radius_km":200,"name":"asym shallow warm","track":"T129"},"geometry":{"type":"Point","coordinates":[-3.75,46.75]}},{"type":"Feature","properties":{"kind":"center","id":44,"lat":42.25,"lon":-122.75,"mslp":1012.2,"hvtl":149.6,"hvtu":-110.9,"hb":45.9,"idx":1.0,"cls":3,"psfc":913.2,"terrain":true,"radius_km":200,"name":"asym shallow warm"},"geometry":{"type":"Point","coordinates":[-122.75,42.25]}},{"type":"Feature","properties":{"kind":"center","id":45,"lat":30.0,"lon":68.75,"mslp":1012.5,"hvtl":10.2,"hvtu":-57.5,"hb":-0.4,"idx":-0.3,"cls":1,"psfc":902.1,"terrain":true,"radius_km":200,"name":"sym shallow warm"},"geometry":{"type":"Point","coordinates":[68.75,30.0]}},{"type":"Feature","properties":{"kind":"center","id":46,"lat":-37.0,"lon":36.0,"mslp":1013.3,"hvtl":-219.3,"hvtu":-218.3,"hb":69.3,"idx":-2.9,"cls":4,"psfc":1013.3,"terrain":false,"radius_km":200,"name":"asym cold"},"geometry":{"type":"Point","coordinates":[36.0,-37.0]}},{"type":"Feature","properties":{"kind":"center","id":47,"lat":32.25,"lon":62.0,"mslp":1014.5,"hvtl":64.8,"hvtu":-42.2,"hb":42.2,"idx":0.7,"cls":3,"psfc":942.4,"terrain":false,"radius_km":200,"name":"asym shallow warm","track":"T117"},"geometry":{"type":"Point","coordinates":[62.0,32.25]}},{"type":"Feature","properties":{"kind":"center","id":48,"lat":31.0,"lon":61.75,"mslp":1014.7,"hvtl":41.2,"hvtu":-35.7,"hb":18.2,"idx":0.4,"cls":3,"psfc":959.0,"terrain":false,"radius_km":200,"name":"asym shallow warm","track":"T130"},"geometry":{"type":"Point","coordinates":[61.75,31.0]}},{"type":"Feature","properties":{"kind":"center","id":49,"lat":26.5,"lon":92.75,"mslp":1015.1,"hvtl":-64.9,"hvtu":-144.9,"hb":2.1,"idx":-2.0,"cls":5,"psfc":1006.9,"terrain":false,"radius_km":200,"name":"sym cold"},"geometry":{"type":"Point","coordinates":[92.75,26.5]}},{"type":"Feature","properties":{"kind":"center","id":50,"lat":25.75,"lon":95.5,"mslp":1015.7,"hvtl":-46.0,"hvtu":-147.9,"hb":3.8,"idx":-1.8,"cls":5,"psfc":976.8,"terrain":false,"radius_km":200,"name":"sym cold","track":"T122"},"geometry":{"type":"Point","coordinates":[95.5,25.75]}},{"type":"Feature","properties":{"kind":"center","id":51,"lat":28.25,"lon":36.5,"mslp":1016.2,"hvtl":-108.6,"hvtu":-168.2,"hb":63.5,"idx":-2.5,"cls":4,"psfc":921.2,"terrain":true,"radius_km":200,"name":"asym cold"},"geometry":{"type":"Point","coordinates":[36.5,28.25]}}]}