{"type":"FeatureCollection","features":[{"type":"Feature","properties":{"kind":"blob","cls":4,"id":1},"geometry":{"type":"Polygon","coordinates":[[[-121.0,-70.38],[-118.5,-69.88],[-117.12,-68.75],[-117.12,-68.25],[-118.0,-67.38],[-119.5,-66.88],[-123.75,-66.62],[-126.25,-67.12],[-127.62,-68.25],[-127.62,-68.75],[-126.75,-69.62],[-121.0,-70.38]]]}},{"type":"Feature","properties":{"kind":"blob","cls":3,"id":2},"geometry":{"type":"Polygon","coordinates":[[[2.5,-63.12],[4.75,-62.38],[5.88,-61.25],[5.88,-59.5],[4.5,-58.12],[2.25,-57.38],[-1.25,-57.88],[-3.12,-60.0],[-0.62,-60.25],[-2.88,-61.5],[-1.0,-62.88],[2.5,-63.12]]]}},{"type":"Feature","properties":{"kind":"blob","cls":0,"id":3},"geometry":{"type":"Polygon","coordinates":[[[147.25,21.88],[148.12,22.75],[148.12,24.5],[146.5,25.62],[145.25,25.38],[144.38,24.5],[144.38,22.75],[145.25,21.88],[147.25,21.88]],[[145.62,23.0],[145.12,23.25],[145.25,23.88],[145.88,23.75],[145.62,23.0]]]}},{"type":"Feature","properties":{"kind":"blob","cls":2,"id":4},"geometry":{"type":"Polygon","coordinates":[[[-141.25,-62.88],[-136.5,-62.88],[-134.88,-61.75],[-134.88,-60.75],[-137.0,-59.38],[-140.75,-58.62],[-144.0,-58.88],[-145.88,-60.25],[-145.88,-61.25],[-145.25,-61.88],[-141.25,-62.88]]]}},{"type":"Feature","properties":{"kind":"blob","cls":4,"id":5},"geometry":{"type":"Polygon","coordinates":[[[-144.0,-81.88],[-141.25,-81.38],[-140.88,-81.0],[-141.75,-80.38],[-143.0,-80.38],[-151.12,-81.25],[-146.75,-81.38],[-144.0,-81.88]]]}},{"type":"Feature","properties":{"kind":"blob","cls":4,"id":6},"geometry":{"type":"Polygon","coordinates":[[[125.5,-54.88],[127.12,-53.25],[126.0,-51.88],[125.0,-51.38],[122.75,-50.88],[119.75,-51.12],[118.38,-52.25],[118.38,-53.5],[119.75,-54.62],[125.5,-54.88]]]}},{"type":"Feature","properties":{"kind":"blob","cls":4,"id":7},"geometry":{"type":"Polygon","coordinates":[[[-153.25,-82.38],[-150.75,-82.62],[-145.88,-82.0],[-150.5,-81.88],[-152.0,-81.38],[-152.75,-81.62],[-153.25,-82.38]]]}},{"type":"Feature","properties":{"kind":"blob","cls":6,"id":8},"geometry":{"type":"Polygon","coordinates":[[[179.75,-80.38],[180.0,-77.12],[178.0,-77.12],[173.5,-75.88],[164.0,-75.88],[162.62,-77.0],[164.12,-78.0],[164.0,-78.38],[165.12,-78.5],[162.12,-78.75],[163.25,-79.62],[166.5,-80.38],[179.75,-80.38]],[[166.38,-77.5],[169.12,-77.5],[169.0,-77.62],[166.38,-77.5]]]}},{"type":"Feature","properties":{"kind":"blob","cls":6,"id":8},"geometry":{"type":"Polygon","coordinates":[[[-179.88,-77.25],[-180.0,-80.38],[-176.75,-79.62],[-175.88,-79.0],[-175.88,-78.5],[-176.75,-77.88],[-179.88,-77.25]]]}},{"type":"Feature","properties":{"kind":"blob","cls":3,"id":9},"geometry":{"type":"Polygon","coordinates":[[[119.25,-65.12],[123.25,-65.12],[124.5,-64.62],[125.38,-63.5],[124.5,-62.38],[122.0,-61.62],[118.25,-61.88],[116.38,-63.0],[116.12,-63.5],[117.0,-64.62],[119.25,-65.12]]]}},{"type":"Feature","properties":{"kind":"blob","cls":4,"id":10},"geometry":{"type":"Polygon","coordinates":[[[140.25,-66.12],[142.12,-65.0],[142.12,-64.0],[140.25,-62.88],[137.5,-62.38],[132.5,-62.62],[130.88,-63.5],[130.62,-64.5],[131.0,-65.12],[133.0,-66.12],[140.25,-66.12]]]}},{"type":"Feature","properties":{"kind":"blob","cls":4,"id":11},"geometry":{"type":"Polygon","coordinates":[[[162.62,-71.5],[162.12,-70.75],[162.75,-70.38],[163.75,-71.12],[164.5,-71.12],[164.5,-70.62],[166.25,-70.62],[169.75,-71.62],[171.5,-71.62],[173.5,-70.88],[174.12,-70.0],[173.5,-69.12],[172.5,-68.62],[169.75,-67.88],[166.75,-67.62],[167.62,-66.5],[167.38,-66.0],[165.25,-64.88],[162.25,-64.38],[157.25,-64.38],[155.25,-64.88],[153.88,-65.75],[153.88,-66.75],[154.25,-67.12],[159.5,-68.62],[159.25,-69.12],[158.62,-69.25],[158.75,-69.62],[161.0,-70.38],[162.62,-71.5]]]}},{"type":"Feature","properties":{"kind":"blob","cls":1,"id":12},"geometry":{"type":"Polygon","coordinates":[[[104.0,-65.12],[106.0,-64.62],[107.38,-63.5],[107.38,-62.0],[106.25,-60.88],[103.75,-60.12],[102.25,-60.12],[99.5,-60.88],[96.88,-62.75],[96.88,-63.75],[98.0,-64.62],[104.0,-65.12]]]}},{"type":"Feature","properties":{"kind":"blob","cls":0,"id":13},"geometry":{"type":"Polygon","coordinates":[[[179.88,22.75],[180.0,25.88],[179.12,25.0],[179.12,23.5],[179.88,22.75]]]}},{"type":"Feature","properties":{"kind":"blob","cls":0,"id":13},"geometry":{"type":"Polygon","coordinates":[[[-179.75,25.88],[-180.0,22.62],[-177.75,22.62],[-176.88,23.5],[-176.88,25.0],[-178.5,26.12],[-179.75,25.88]]]}},{"type":"Feature","properties":{"kind":"blob","cls":1,"id":14},"geometry":{"type":"Polygon","coordinates":[[[71.25,-60.12],[74.0,-59.12],[74.62,-58.5],[74.38,-56.5],[72.0,-55.38],[69.25,-55.38],[67.25,-56.12],[66.12,-57.5],[66.12,-58.5],[67.75,-59.62],[71.25,-60.12]]]}},{"type":"Feature","properties":{"kind":"blob","cls":1,"id":15},"geometry":{"type":"Polygon","coordinates":[[[-167.75,53.62],[-166.0,54.12],[-165.12,55.0],[-165.12,56.0],[-166.75,57.12],[-171.0,56.88],[-171.88,56.0],[-171.88,55.0],[-171.0,54.12],[-167.75,53.62]]]}},{"type":"Feature","properties":{"kind":"blob","cls":0,"id":16},"geometry":{"type":"Polygon","coordinates":[[[-114.25,18.62],[-112.75,18.62],[-111.88,19.75],[-112.12,21.25],[-113.5,22.12],[-115.0,21.88],[-115.88,20.75],[-115.5,19.12],[-114.75,20.12],[-114.0,20.12],[-113.38,19.5],[-114.25,18.62]]]}},{"type":"Feature","properties":{"kind":"blob","cls":4,"id":17},"geometry":{"type":"MultiPolygon","coordinates":[[[[79.88,-68.0],[83.5,-67.88],[84.38,-67.5],[82.75,-67.38],[79.88,-68.0]]],[[[84.5,-67.12],[84.38,-67.25],[84.75,-67.38],[84.5,-67.12]]]]}},{"type":"Feature","properties":{"kind":"blob","cls":5,"id":18},"geometry":{"type":"Polygon","coordinates":[[[-0.5,66.38],[3.75,67.12],[5.25,67.88],[5.88,69.0],[5.0,70.12],[4.0,70.62],[1.5,71.12],[-0.5,71.12],[-2.5,70.12],[-5.5,70.12],[-6.5,70.62],[-8.12,69.5],[-8.12,68.5],[-7.0,67.38],[-4.75,66.62],[-0.5,66.38]]]}},{"type":"Feature","properties":{"kind":"blob","cls":4,"id":19},"geometry":{"type":"Polygon","coordinates":[[[77.75,-68.62],[78.5,-68.88],[79.62,-68.25],[79.0,-68.12],[77.75,-68.62]]]}},{"type":"Feature","properties":{"kind":"blob","cls":4,"id":20},"geometry":{"type":"Polygon","coordinates":[[[77.5,-52.62],[79.0,-52.12],[79.88,-51.0],[79.62,-49.75],[78.5,-48.88],[76.75,-48.38],[74.25,-48.88],[73.38,-49.75],[73.12,-50.75],[74.25,-52.12],[77.5,-52.62]]]}},{"type":"Feature","properties":{"kind":"blob","cls":4,"id":21},"geometry":{"type":"Polygon","coordinates":[[[32.75,75.38],[36.75,75.88],[39.5,76.62],[42.12,78.5],[40.75,79.62],[38.25,80.38],[33.5,80.88],[28.25,80.88],[21.75,80.12],[19.25,79.38],[18.12,78.5],[19.25,77.38],[22.0,76.38],[25.5,75.62],[32.75,75.38]]]}},{"type":"Feature","properties":{"kind":"blob","cls":4,"id":22},"geometry":{"type":"Polygon","coordinates":[[[-24.5,57.88],[-22.75,58.38],[-20.88,59.5],[-20.62,60.5],[-21.25,61.38],[-23.5,62.12],[-25.75,62.12],[-28.25,61.38],[-29.12,60.75],[-29.38,59.5],[-28.25,58.38],[-24.5,57.88]]]}},{"type":"Feature","properties":{"kind":"blob","cls":1,"id":23},"geometry":{"type":"Polygon","coordinates":[[[-34.75,59.12],[-32.88,60.5],[-32.88,61.5],[-35.0,62.88],[-36.25,63.12],[-40.5,62.88],[-42.38,61.5],[-42.38,60.5],[-40.5,59.12],[-34.75,59.12]]]}},{"type":"Feature","properties":{"kind":"blob","cls":5,"id":24},"geometry":{"type":"Polygon","coordinates":[[[-154.5,62.62],[-153.5,62.38],[-150.75,63.62],[-147.38,64.25],[-150.0,65.12],[-152.75,64.88],[-154.62,63.75],[-154.5,62.62]]]}},{"type":"Feature","properties":{"kind":"blob","cls":5,"id":25},"geometry":{"type":"Polygon","coordinates":[[[-151.75,61.62],[-149.25,61.62],[-149.62,62.0],[-149.38,63.0],[-152.0,62.62],[-152.38,62.0],[-151.75,61.62]]]}},{"type":"Feature","properties":{"kind":"blob","cls":5,"id":26},"geometry":{"type":"Polygon","coordinates":[[[122.75,65.88],[125.75,67.12],[126.38,68.0],[124.12,68.5],[125.0,69.38],[122.0,70.12],[118.25,69.88],[115.12,68.25],[115.12,67.25],[115.75,66.62],[117.5,65.88],[122.75,65.88]]]}},{"type":"Feature","properties":{"kind":"blob","cls":4,"id":27},"geometry":{"type":"Polygon","coordinates":[[[61.75,56.12],[65.0,56.12],[66.38,57.0],[66.62,58.0],[66.0,58.88],[64.0,59.62],[61.0,59.38],[59.62,58.5],[59.38,57.5],[60.0,56.62],[61.75,56.12]]]}},{"type":"Feature","properties":{"kind":"blob","cls":4,"id":28},"geometry":{"type":"Polygon","coordinates":[[[137.0,60.38],[137.88,60.75],[136.62,61.25],[137.88,62.25],[136.38,63.75],[136.25,64.38],[135.38,64.0],[135.5,63.62],[133.25,63.88],[131.88,62.5],[132.12,61.5],[133.0,60.88],[137.0,60.38]]]}},{"type":"Feature","properties":{"kind":"blob","cls":3,"id":29},"geometry":{"type":"Polygon","coordinates":[[[-56.5,66.62],[-54.0,67.12],[-52.62,68.25],[-52.62,69.25],[-54.0,69.88],[-54.25,70.38],[-56.75,70.88],[-61.75,70.62],[-61.75,69.88],[-62.75,70.38],[-64.12,69.5],[-64.38,69.0],[-63.75,67.88],[-62.25,67.12],[-56.5,66.62]]]}},{"type":"Feature","properties":{"kind":"blob","cls":5,"id":30},"geometry":{"type":"Polygon","coordinates":[[[-149.12,62.75],[-149.0,62.62],[-148.88,62.75],[-149.12,62.75]]]}},{"type":"Feature","properties":{"kind":"blob","cls":3,"id":31},"geometry":{"type":"Polygon","coordinates":[[[-61.75,-54.38],[-59.75,-54.62],[-57.75,-53.88],[-56.62,-52.75],[-56.62,-51.5],[-57.75,-50.38],[-60.5,-49.38],[-64.5,-50.38],[-65.12,-51.0],[-63.0,-51.38],[-62.38,-52.0],[-61.75,-54.38]]]}},{"type":"Feature","properties":{"kind":"blob","cls":3,"id":32},"geometry":{"type":"Polygon","coordinates":[[[-48.25,-38.62],[-46.5,-38.88],[-45.5,-38.38],[-44.62,-37.5],[-44.62,-36.0],[-46.5,-34.62],[-48.5,-35.12],[-49.62,-36.25],[-49.62,-37.75],[-48.25,-38.62]]]}},{"type":"Feature","properties":{"kind":"blob","cls":4,"id":33},"geometry":{"type":"Polygon","coordinates":[[[-126.25,63.88],[-125.62,64.5],[-125.62,65.75],[-126.75,66.62],[-129.0,67.12],[-134.5,66.88],[-136.38,65.75],[-135.5,65.12],[-134.5,65.12],[-134.0,65.62],[-131.75,65.62],[-127.75,65.12],[-126.25,63.88]]]}},{"type":"Feature","properties":{"kind":"blob","cls":4,"id":34},"geometry":{"type":"Polygon","coordinates":[[[-63.75,-19.12],[-63.5,-19.38],[-63.12,-19.0],[-63.12,-18.0],[-64.25,-16.38],[-65.12,-16.0],[-65.12,-14.0],[-67.5,-12.62],[-68.75,-12.88],[-69.38,-13.5],[-68.12,-14.25],[-67.5,-15.62],[-67.0,-15.62],[-65.5,-17.12],[-64.0,-17.62],[-63.38,-18.25],[-63.75,-19.12]]]}},{"type":"Feature","properties":{"kind":"blob","cls":4,"id":35},"geometry":{"type":"Polygon","coordinates":[[[-54.62,73.0],[-58.0,74.38],[-60.25,76.38],[-64.62,76.5],[-62.5,74.62],[-60.25,73.62],[-58.5,73.12],[-54.62,73.0]]]}},{"type":"Feature","properties":{"kind":"blob","cls":4,"id":36},"geometry":{"type":"Polygon","coordinates":[[[-93.75,-42.12],[-92.62,-41.0],[-92.62,-39.75],[-92.12,-39.0],[-92.38,-38.0],[-89.75,-38.38],[-88.75,-37.88],[-88.12,-37.25],[-88.12,-35.75],[-90.25,-34.38],[-91.5,-34.38],[-93.12,-35.5],[-93.25,-36.88],[-95.75,-36.88],[-97.12,-38.25],[-97.12,-39.5],[-97.62,-40.0],[-97.62,-41.0],[-96.5,-42.12],[-93.75,-42.12]]]}},{"type":"Feature","properties":{"kind":"blob","cls":4,"id":37},"geometry":{"type":"MultiPolygon","coordinates":[[[[-64.25,-22.62],[-64.38,-22.75],[-64.25,-22.88],[-64.25,-22.62]]],[[[-64.0,-22.62],[-63.38,-22.0],[-63.5,-20.88],[-64.12,-21.0],[-63.62,-21.5],[-64.0,-22.62]]]]}},{"type":"Feature","properties":{"kind":"blob","cls":4,"id":38},"geometry":{"type":"Polygon","coordinates":[[[-79.5,49.62],[-78.0,50.12],[-76.88,51.25],[-76.88,52.25],[-78.25,53.62],[-80.0,54.62],[-83.0,54.88],[-84.5,54.38],[-85.38,53.5],[-85.38,52.5],[-82.75,50.12],[-79.5,49.62]]]}},{"type":"Feature","properties":{"kind":"blob","cls":4,"id":39},"geometry":{"type":"Polygon","coordinates":[[[76.0,54.88],[79.25,54.88],[80.88,56.5],[79.5,58.12],[78.5,58.62],[74.5,58.62],[72.88,57.25],[72.88,56.75],[74.0,55.38],[76.0,54.88]]]}},{"type":"Feature","properties":{"kind":"blob","cls":3,"id":40},"geometry":{"type":"Polygon","coordinates":[[[-66.5,-28.12],[-66.38,-27.75],[-66.5,-27.62],[-66.5,-28.12]]]}},{"type":"Feature","properties":{"kind":"blob","cls":4,"id":41},"geometry":{"type":"MultiPolygon","coordinates":[[[[-65.62,-27.25],[-65.75,-27.12],[-65.88,-27.25],[-65.62,-27.25]]],[[[-65.62,-27.0],[-65.25,-27.12],[-64.88,-26.75],[-65.25,-26.12],[-65.62,-27.0]]],[[[-64.75,-26.62],[-64.38,-26.25],[-64.5,-24.62],[-65.12,-25.75],[-64.75,-26.62]]],[[[-64.62,-24.5],[-64.75,-24.38],[-64.88,-24.5],[-64.62,-24.5]]]]}},{"type":"Feature","properties":{"kind":"blob","cls":3,"id":42},"geometry":{"type":"Polygon","coordinates":[[[-66.0,-34.88],[-64.88,-33.75],[-65.12,-32.25],[-67.0,-31.12],[-68.62,-31.75],[-69.12,-33.5],[-68.5,-33.38],[-68.62,-34.5],[-66.0,-34.88]],[[-66.38,-32.75],[-65.75,-32.38],[-65.62,-33.0],[-66.38,-32.75]]]}},{"type":"Feature","properties":{"kind":"blob","cls":4,"id":43},"geometry":{"type":"Polygon","coordinates":[[[-121.75,57.12],[-120.62,58.0],[-120.62,59.0],[-122.75,60.38],[-124.75,60.38],[-124.62,59.0],[-123.38,58.25],[-123.25,57.62],[-121.75,57.12]]]}},{"type":"Feature","properties":{"kind":"blob","cls":4,"id":44},"geometry":{"type":"Polygon","coordinates":[[[-63.5,-81.62],[-47.38,-81.5],[-52.25,-81.12],[-63.5,-81.62]]]}},{"type":"Feature","properties":{"kind":"blob","cls":3,"id":45},"geometry":{"type":"MultiPolygon","coordinates":[[[[68.75,26.62],[70.0,28.38],[71.75,28.38],[73.62,30.0],[74.12,30.75],[74.12,31.75],[73.5,32.38],[71.25,32.12],[70.12,31.5],[70.12,30.0],[69.75,29.62],[68.75,29.62],[67.75,30.12],[66.62,26.75],[68.75,26.62]]],[[[68.75,30.12],[68.62,30.0],[68.75,29.88],[68.75,30.12]]]]}},{"type":"Feature","properties":{"kind":"blob","cls":1,"id":46},"geometry":{"type":"Polygon","coordinates":[[[-74.0,-12.38],[-74.0,-11.62],[-74.12,-11.75],[-74.0,-12.38]]]}},{"type":"Feature","properties":{"kind":"blob","cls":1,"id":47},"geometry":{"type":"Polygon","coordinates":[[[-72.75,-12.38],[-72.12,-11.25],[-73.0,-10.12],[-74.25,-9.88],[-74.12,-10.75],[-72.75,-12.38]]]}},{"type":"Feature","properties":{"kind":"blob","cls":4,"id":48},"geometry":{"type":"Polygon","coordinates":[[[132.25,39.62],[133.38,40.75],[133.38,41.75],[131.5,43.12],[129.5,42.88],[128.88,42.0],[129.62,42.0],[128.62,40.5],[129.5,39.62],[132.25,39.62]]]}},{"type":"Feature","properties":{"kind":"blob","cls":4,"id":49},"geometry":{"type":"MultiPolygon","coordinates":[[[[82.25,44.38],[83.5,44.62],[84.0,45.38],[83.0,45.12],[82.38,45.75],[82.75,46.12],[83.75,46.12],[84.12,46.75],[81.25,47.12],[80.25,47.62],[79.12,46.75],[78.88,45.75],[79.25,45.38],[81.75,45.88],[82.38,45.25],[81.38,45.0],[82.25,44.38]]],[[[81.0,47.88],[80.88,47.75],[81.0,47.62],[81.0,47.88]]]]}},{"type":"Feature","properties":{"kind":"blob","cls":1,"id":50},"geometry":{"type":"Polygon","coordinates":[[[-75.12,-10.25],[-75.0,-10.62],[-74.62,-10.5],[-74.75,-10.12],[-75.12,-10.25]]]}},{"type":"Feature","properties":{"kind":"blob","cls":1,"id":51},"geometry":{"type":"Polygon","coordinates":[[[-74.5,-11.38],[-74.12,-11.25],[-74.25,-11.12],[-74.5,-11.38]]]}},{"type":"Feature","properties":{"kind":"blob","cls":4,"id":52},"geometry":{"type":"Polygon","coordinates":[[[-147.75,75.38],[-144.75,76.12],[-144.12,76.75],[-144.12,77.5],[-145.5,78.38],[-148.0,78.88],[-156.75,79.12],[-161.75,78.38],[-163.12,77.5],[-163.12,77.0],[-162.25,76.12],[-159.25,75.38],[-147.75,75.38]],[[-157.75,76.12],[-161.75,76.88],[-161.88,77.5],[-160.0,78.38],[-153.25,78.38],[-151.5,78.12],[-149.62,77.25],[-150.25,76.62],[-152.75,76.12],[-157.75,76.12]]]}},{"type":"Feature","properties":{"kind":"blob","cls":0,"id":53},"geometry":{"type":"Polygon","coordinates":[[[42.75,12.12],[43.12,12.5],[42.62,14.5],[41.25,15.38],[40.0,15.12],[40.12,13.0],[41.5,12.88],[42.75,12.12]]]}},{"type":"Feature","properties":{"kind":"blob","cls":4,"id":54},"geometry":{"type":"Polygon","coordinates":[[[39.0,22.38],[39.88,23.25],[39.62,25.25],[38.25,26.12],[37.0,25.88],[36.12,25.0],[36.12,23.25],[36.5,22.88],[38.5,23.12],[39.0,22.38]],[[39.0,24.38],[38.88,24.5],[39.0,24.62],[39.0,24.38]],[[39.5,23.62],[39.38,23.75],[39.5,23.88],[39.5,23.62]]]}},{"type":"Feature","properties":{"kind":"blob","cls":1,"id":55},"geometry":{"type":"Polygon","coordinates":[[[65.5,28.12],[65.5,28.88],[65.38,28.75],[65.5,28.12]]]}},{"type":"Feature","properties":{"kind":"blob","cls":1,"id":56},"geometry":{"type":"Polygon","coordinates":[[[83.5,25.38],[84.38,26.25],[84.38,27.75],[82.25,28.12],[81.5,28.88],[80.25,29.12],[79.38,28.25],[79.12,27.25],[80.25,25.88],[83.5,25.38]]]}},{"type":"Feature","properties":{"kind":"blob","cls":1,"id":57},"geometry":{"type":"Polygon","coordinates":[[[-96.75,24.62],[-95.88,25.5],[-95.62,26.25],[-96.5,27.62],[-98.0,26.62],[-99.5,26.62],[-99.88,26.25],[-98.75,24.62],[-96.75,24.62]]]}},{"type":"Feature","properties":{"kind":"blob","cls":3,"id":58},"geometry":{"type":"Polygon","coordinates":[[[58.5,28.88],[59.0,28.62],[59.88,29.0],[59.88,31.0],[59.5,31.38],[58.5,31.12],[57.88,30.5],[57.88,29.75],[58.38,29.5],[58.5,28.88]]]}},{"type":"Feature","properties":{"kind":"blob","cls":1,"id":59},"geometry":{"type":"Polygon","coordinates":[[[65.62,29.25],[65.75,29.12],[65.88,29.5],[65.62,29.25]]]}},{"type":"Feature","properties":{"kind":"blob","cls":4,"id":60},"geometry":{"type":"Polygon","coordinates":[[[82.88,47.5],[83.0,47.38],[83.12,47.5],[82.88,47.5]]]}},{"type":"Feature","properties":{"kind":"blob","cls":4,"id":61},"geometry":{"type":"Polygon","coordinates":[[[82.12,47.75],[82.25,47.62],[82.38,47.75],[82.12,47.75]]]}},{"type":"Feature","properties":{"kind":"blob","cls":3,"id":62},"geometry":{"type":"Polygon","coordinates":[[[60.75,30.12],[60.88,31.0],[60.5,31.38],[60.38,31.0],[60.75,30.12]]]}},{"type":"Feature","properties":{"kind":"blob","cls":3,"id":63},"geometry":{"type":"Polygon","coordinates":[[[66.0,36.62],[67.0,37.12],[68.38,38.5],[66.38,37.75],[66.62,38.75],[67.12,39.0],[66.88,39.25],[67.5,39.88],[66.25,39.62],[65.38,38.75],[65.12,37.75],[66.0,36.62]]]}},{"type":"Feature","properties":{"kind":"blob","cls":3,"id":64},"geometry":{"type":"MultiPolygon","coordinates":[[[[55.5,35.12],[55.38,35.0],[55.5,34.88],[55.5,35.12]]],[[[54.75,35.12],[55.38,35.25],[55.25,35.62],[54.75,35.12]]]]}},{"type":"Feature","properties":{"kind":"blob","cls":4,"id":65},"geometry":{"type":"Polygon","coordinates":[[[72.75,43.12],[75.0,42.88],[74.75,43.62],[75.75,43.12],[76.12,43.5],[74.25,43.88],[72.75,43.12]]]}},{"type":"Feature","properties":{"kind":"blob","cls":3,"id":66},"geometry":{"type":"Polygon","coordinates":[[[54.38,36.0],[54.5,35.88],[54.62,36.0],[54.38,36.0]]]}},{"type":"Feature","properties":{"kind":"blob","cls":4,"id":67},"geometry":{"type":"Polygon","coordinates":[[[52.75,36.12],[53.38,36.25],[53.25,36.38],[52.75,36.12]]]}},{"type":"Feature","properties":{"kind":"center","id":1,"lat":-68.5,"lon":-122.25,"mslp":937.8,"hvtl":-54.6,"hvtu":-51.9,"hb":19.2,"idx":-1.5,"cls":4,"psfc":937.8,"terrain":false,"radius_km":200,"name":"asym cold","track":"T03"},"geometry":{"type":"Point","coordinates":[-122.25,-68.5]}},{"type":"Feature","properties":{"kind":"center","id":2,"lat":-60.25,"lon":1.0,"mslp":939.1,"hvtl":340.1,"hvtu":-151.3,"hb":94.1,"idx":1.1,"cls":3,"psfc":939.1,"terrain":false,"radius_km":200,"name":"asym shallow warm","track":"T05"},"geometry":{"type":"Point","coordinates":[1.0,-60.25]}},{"type":"Feature","properties":{"kind":"center","id":3,"lat":23.75,"lon":146.25,"mslp":940.7,"hvtl":147.9,"hvtu":231.2,"hb":-2.5,"idx":2.8,"cls":0,"psfc":940.7,"terrain":false,"radius_km":200,"name":"sym deep warm","track":"T02"},"geometry":{"type":"Point","coordinates":[146.25,23.75]}},{"type":"Feature","properties":{"kind":"center","id":4,"lat":-61.0,"lon":-140.25,"mslp":950.7,"hvtl":10.9,"hvtu":12.4,"hb":64.0,"idx":0.3,"cls":2,"psfc":950.7,"terrain":false,"radius_km":200,"name":"asym deep warm","track":"T10"},"geometry":{"type":"Point","coordinates":[-140.25,-61.0]}},{"type":"Feature","properties":{"kind":"center","id":5,"lat":-81.25,"lon":-142.0,"mslp":959.2,"hvtl":-309.9,"hvtu":-74.8,"hb":30.4,"idx":-2.6,"cls":4,"psfc":919.2,"terrain":false,"radius_km":200,"name":"asym cold"},"geometry":{"type":"Point","coordinates":[-142.0,-81.25]}},{"type":"Feature","properties":{"kind":"center","id":6,"lat":-53.0,"lon":122.25,"mslp":960.0,"hvtl":-113.8,"hvtu":-186.3,"hb":44.0,"idx":-2.6,"cls":4,"psfc":960.0,"terrain":false,"radius_km":200,"name":"asym cold","track":"T04"},"geometry":{"type":"Point","coordinates":[122.25,-53.0]}},{"type":"Feature","properties":{"kind":"center","id":7,"lat":-82.0,"lon":-146.0,"mslp":960.8,"hvtl":-339.2,"hvtu":-64.7,"hb":31.7,"idx":-2.6,"cls":4,"psfc":910.2,"terrain":false,"radius_km":200,"name":"asym cold"},"geometry":{"type":"Point","coordinates":[-146.0,-82.0]}},{"type":"Feature","properties":{"kind":"center","id":8,"lat":-78.75,"lon":173.5,"mslp":961.1,"hvtl":-241.6,"hvtu":22.3,"hb":62.2,"idx":-1.7,"cls":6,"psfc":954.5,"terrain":false,"radius_km":200,"name":"shallow cold","track":"T17"},"geometry":{"type":"Point","coordinates":[173.5,-78.75]}},{"type":"Feature","properties":{"kind":"center","id":9,"lat":-63.5,"lon":120.75,"mslp":962.9,"hvtl":90.5,"hvtu":-328.4,"hb":22.3,"idx":0.4,"cls":3,"psfc":962.9,"terrain":false,"radius_km":200,"name":"asym shallow warm"},"geometry":{"type":"Point","coordinates":[120.75,-63.5]}},{"type":"Feature","properties":{"kind":"center","id":10,"lat":-64.5,"lon":136.25,"mslp":964.9,"hvtl":-150.9,"hvtu":-318.3,"hb":68.7,"idx":-2.8,"cls":4,"psfc":964.9,"terrain":false,"radius_km":200,"name":"asym cold","track":"T27"},"geometry":{"type":"Point","coordinates":[136.25,-64.5]}},{"type":"Feature","properties":{"kind":"center","id":11,"lat":-71.25,"lon":172.5,"mslp":965.9,"hvtl":-328.1,"hvtu":-223.8,"hb":86.0,"idx":-3.0,"cls":4,"psfc":965.9,"terrain":false,"radius_km":200,"name":"asym cold","track":"T35"},"geometry":{"type":"Point","coordinates":[172.5,-71.25]}},{"type":"Feature","properties":{"kind":"center","id":12,"lat":-62.75,"lon":102.5,"mslp":968.0,"hvtl":53.0,"hvtu":-178.8,"hb":-9.1,"idx":0.0,"cls":1,"psfc":968.0,"terrain":false,"radius_km":200,"name":"sym shallow warm","track":"T16"},"geometry":{"type":"Point","coordinates":[102.5,-62.75]}},{"type":"Feature","properties":{"kind":"center","id":13,"lat":24.25,"lon":-179.0,"mslp":969.8,"hvtl":82.8,"hvtu":335.4,"hb":-1.8,"idx":2.4,"cls":0,"psfc":969.8,"terrain":false,"radius_km":200,"name":"sym deep warm","track":"T44"},"geometry":{"type":"Point","coordinates":[-179.0,24.25]}},{"type":"Feature","properties":{"kind":"center","id":14,"lat":-57.75,"lon":70.5,"mslp":973.2,"hvtl":131.6,"hvtu":-131.3,"hb":1.8,"idx":0.9,"cls":1,"psfc":973.2,"terrain":false,"radius_km":200,"name":"sym shallow warm","track":"T08"},"geometry":{"type":"Point","coordinates":[70.5,-57.75]}},{"type":"Feature","properties":{"kind":"center","id":15,"lat":55.5,"lon":-168.5,"mslp":973.7,"hvtl":16.5,"hvtu":-112.2,"hb":3.1,"idx":-0.5,"cls":1,"psfc":973.7,"terrain":false,"radius_km":200,"name":"sym shallow warm","track":"T40"},"geometry":{"type":"Point","coordinates":[-168.5,55.5]}},{"type":"Feature","properties":{"kind":"center","id":16,"lat":20.25,"lon":-114.0,"mslp":974.8,"hvtl":52.8,"hvtu":229.7,"hb":5.9,"idx":1.9,"cls":0,"psfc":974.8,"terrain":false,"radius_km":200,"name":"sym deep warm","track":"T42"},"geometry":{"type":"Point","coordinates":[-114.0,20.25]}},{"type":"Feature","properties":{"kind":"center","id":17,"lat":-67.5,"lon":84.0,"mslp":979.2,"hvtl":-125.7,"hvtu":-34.5,"hb":11.0,"idx":-2.0,"cls":4,"psfc":924.8,"terrain":false,"radius_km":200,"name":"asym cold"},"geometry":{"type":"Point","coordinates":[84.0,-67.5]}},{"type":"Feature","properties":{"kind":"center","id":18,"lat":69.0,"lon":-0.25,"mslp":979.2,"hvtl":-14.4,"hvtu":-85.4,"hb":7.7,"idx":-1.0,"cls":5,"psfc":979.2,"terrain":false,"radius_km":200,"name":"sym cold","track":"T50"},"geometry":{"type":"Point","coordinates":[-0.25,69.0]}},{"type":"Feature","properties":{"kind":"center","id":19,"lat":-68.25,"lon":79.5,"mslp":979.4,"hvtl":-106.5,"hvtu":-44.6,"hb":17.5,"idx":-2.0,"cls":4,"psfc":912.6,"terrain":false,"radius_km":200,"name":"asym cold","track":"T38"},"geometry":{"type":"Point","coordinates":[79.5,-68.25]}},{"type":"Feature","properties":{"kind":"center","id":20,"lat":-50.5,"lon":76.25,"mslp":983.3,"hvtl":-313.7,"hvtu":-524.8,"hb":77.7,"idx":-3.0,"cls":4,"psfc":983.3,"terrain":false,"radius_km":200,"name":"asym cold","track":"T14"},"geometry":{"type":"Point","coordinates":[76.25,-50.5]}},{"type":"Feature","properties":{"kind":"center","id":21,"lat":78.25,"lon":29.5,"mslp":986.6,"hvtl":-18.7,"hvtu":-190.7,"hb":33.4,"idx":-1.3,"cls":4,"psfc":986.6,"terrain":false,"radius_km":200,"name":"asym cold","track":"T63"},"geometry":{"type":"Point","coordinates":[29.5,78.25]}},{"type":"Feature","properties":{"kind":"center","id":22,"lat":60.0,"lon":-25.5,"mslp":987.1,"hvtl":-192.2,"hvtu":-439.1,"hb":72.7,"idx":-2.9,"cls":4,"psfc":987.1,"terrain":false,"radius_km":200,"name":"asym cold","track":"T59"},"geometry":{"type":"Point","coordinates":[-25.5,60.0]}},{"type":"Feature","properties":{"kind":"center","id":23,"lat":61.0,"lon":-37.75,"mslp":991.7,"hvtl":73.2,"hvtu":-257.4,"hb":-7.7,"idx":0.3,"cls":1,"psfc":991.7,"terrain":false,"radius_km":200,"name":"sym shallow warm","track":"T62"},"geometry":{"type":"Point","coordinates":[-37.75,61.0]}},{"type":"Feature","properties":{"kind":"center","id":24,"lat":62.5,"lon":-153.5,"mslp":991.8,"hvtl":-21.6,"hvtu":-83.9,"hb":-2.9,"idx":-1.1,"cls":5,"psfc":913.1,"terrain":false,"radius_km":200,"name":"sym cold","track":"T76"},"geometry":{"type":"Point","coordinates":[-153.5,62.5]}},{"type":"Feature","properties":{"kind":"center","id":25,"lat":61.75,"lon":-149.5,"mslp":992.1,"hvtl":-74.5,"hvtu":-79.7,"hb":7.3,"idx":-1.9,"cls":5,"psfc":921.5,"terrain":false,"radius_km":200,"name":"sym cold","track":"T82"},"geometry":{"type":"Point","coordinates":[-149.5,61.75]}},{"type":"Feature","properties":{"kind":"center","id":26,"lat":67.75,"lon":120.0,"mslp":992.6,"hvtl":-106.9,"hvtu":-46.1,"hb":-0.8,"idx":-2.0,"cls":5,"psfc":962.0,"terrain":false,"radius_km":200,"name":"sym cold","track":"T60"},"geometry":{"type":"Point","coordinates":[120.0,67.75]}},{"type":"Feature","properties":{"kind":"center","id":27,"lat":57.75,"lon":63.25,"mslp":992.8,"hvtl":-13.9,"hvtu":-197.2,"hb":54.2,"idx":-1.2,"cls":4,"psfc":982.8,"terrain":false,"radius_km":200,"name":"asym cold","track":"T84"},"geometry":{"type":"Point","coordinates":[63.25,57.75]}},{"type":"Feature","properties":{"kind":"center","id":28,"lat":62.25,"lon":136.0,"mslp":993.7,"hvtl":-268.9,"hvtu":-238.8,"hb":61.8,"idx":-3.0,"cls":4,"psfc":969.5,"terrain":false,"radius_km":200,"name":"asym cold"},"geometry":{"type":"Point","coordinates":[136.0,62.25]}},{"type":"Feature","properties":{"kind":"center","id":29,"lat":68.75,"lon":-58.25,"mslp":994.1,"hvtl":14.4,"hvtu":-18.4,"hb":25.4,"idx":0.1,"cls":3,"psfc":994.0,"terrain":false,"radius_km":200,"name":"asym shallow warm","track":"T69"},"geometry":{"type":"Point","coordinates":[-58.25,68.75]}},{"type":"Feature","properties":{"kind":"center","id":30,"lat":62.75,"lon":-149.0,"mslp":996.1,"hvtl":-41.5,"hvtu":-80.0,"hb":-0.7,"idx":-1.5,"cls":5,"psfc":900.2,"terrain":true,"radius_km":200,"name":"sym cold"},"geometry":{"type":"Point","coordinates":[-149.0,62.75]}},{"type":"Feature","properties":{"kind":"center","id":31,"lat":-52.25,"lon":-60.25,"mslp":997.6,"hvtl":69.0,"hvtu":-7.9,"hb":16.3,"idx":1.1,"cls":3,"psfc":997.2,"terrain":false,"radius_km":200,"name":"asym shallow warm","track":"T86"},"geometry":{"type":"Point","coordinates":[-60.25,-52.25]}},{"type":"Feature","properties":{"kind":"center","id":32,"lat":-36.75,"lon":-47.0,"mslp":999.4,"hvtl":24.6,"hvtu":-257.8,"hb":39.9,"idx":-0.5,"cls":3,"psfc":999.4,"terrain":false,"radius_km":200,"name":"asym shallow warm","track":"T20"},"geometry":{"type":"Point","coordinates":[-47.0,-36.75]}},{"type":"Feature","properties":{"kind":"center","id":33,"lat":65.0,"lon":-127.5,"mslp":999.8,"hvtl":-11.8,"hvtu":-273.1,"hb":50.9,"idx":-1.2,"cls":4,"psfc":916.6,"terrain":false,"radius_km":200,"name":"asym cold"},"geometry":{"type":"Point","coordinates":[-127.5,65.0]}},{"type":"Feature","properties":{"kind":"center","id":34,"lat":-18.5,"lon":-63.25,"mslp":999.9,"hvtl":-66.3,"hvtu":-21.8,"hb":16.5,"idx":-1.4,"cls":4,"psfc":937.1,"terrain":false,"radius_km":200,"name":"asym cold","track":"T99"},"geometry":{"type":"Point","coordinates":[-63.25,-18.5]}},{"type":"Feature","properties":{"kind":"center","id":35,"lat":73.0,"lon":-56.25,"mslp":1000.1,"hvtl":-65.3,"hvtu":-56.2,"hb":39.3,"idx":-1.7,"cls":4,"psfc":999.8,"terrain":false,"radius_km":200,"name":"asym cold","track":"T80"},"geometry":{"type":"Point","coordinates":[-56.25,73.0]}},{"type":"Feature","properties":{"kind":"center","id":36,"lat":-42.25,"lon":-95.25,"mslp":1001.2,"hvtl":-40.1,"hvtu":-100.9,"hb":22.8,"idx":-1.5,"cls":4,"psfc":1001.2,"terrain":false,"radius_km":200,"name":"asym cold"},"geometry":{"type":"Point","coordinates":[-95.25,-42.25]}},{"type":"Feature","properties":{"kind":"center","id":37,"lat":-21.0,"lon":-64.0,"mslp":1001.5,"hvtl":-134.6,"hvtu":-11.9,"hb":47.2,"idx":-1.9,"cls":4,"psfc":912.9,"terrain":false,"radius_km":200,"name":"asym cold","track":"T89"},"geometry":{"type":"Point","coordinates":[-64.0,-21.0]}},{"type":"Feature","properties":{"kind":"center","id":38,"lat":52.75,"lon":-82.0,"mslp":1001.6,"hvtl":-8.7,"hvtu":-271.2,"hb":35.7,"idx":-1.2,"cls":4,"psfc":1001.2,"terrain":false,"radius_km":200,"name":"asym cold","track":"T61"},"geometry":{"type":"Point","coordinates":[-82.0,52.75]}},{"type":"Feature","properties":{"kind":"center","id":39,"lat":57.75,"lon":74.75,"mslp":1001.9,"hvtl":-239.1,"hvtu":-304.6,"hb":64.7,"idx":-3.0,"cls":4,"psfc":986.5,"terrain":false,"radius_km":200,"name":"asym cold","track":"T92"},"geometry":{"type":"Point","coordinates":[74.75,57.75]}},{"type":"Feature","properties":{"kind":"center","id":40,"lat":-27.75,"lon":-66.5,"mslp":1002.4,"hvtl":12.6,"hvtu":-171.2,"hb":32.1,"idx":-0.7,"cls":3,"psfc":910.4,"terrain":true,"radius_km":200,"name":"asym shallow warm"},"geometry":{"type":"Point","coordinates":[-66.5,-27.75]}},{"type":"Feature","properties":{"kind":"center","id":41,"lat":-24.5,"lon":-64.75,"mslp":1003.5,"hvtl":-138.3,"hvtu":-139.0,"hb":48.8,"idx":-2.6,"cls":4,"psfc":919.0,"terrain":false,"radius_km":200,"name":"asym cold","track":"T98"},"geometry":{"type":"Point","coordinates":[-64.75,-24.5]}},{"type":"Feature","properties":{"kind":"center","id":42,"lat":-33.25,"lon":-67.0,"mslp":1004.4,"hvtl":23.4,"hvtu":-270.8,"hb":23.5,"idx":-0.5,"cls":3,"psfc":938.7,"terrain":false,"radius_km":200,"name":"asym shallow warm"},"geometry":{"type":"Point","coordinates":[-67.0,-33.25]}},{"type":"Feature","properties":{"kind":"center","id":43,"lat":58.75,"lon":-124.25,"mslp":1004.6,"hvtl":-208.8,"hvtu":-251.5,"hb":48.8,"idx":-2.9,"cls":4,"psfc":905.9,"terrain":true,"radius_km":200,"name":"asym cold"},"geometry":{"type":"Point","coordinates":[-124.25,58.75]}},{"type":"Feature","properties":{"kind":"center","id":44,"lat":-81.5,"lon":-47.5,"mslp":1005.0,"hvtl":-256.8,"hvtu":-256.9,"hb":47.6,"idx":-3.0,"cls":4,"psfc":988.3,"terrain":false,"radius_km":200,"name":"asym cold","track":"T67"},"geometry":{"type":"Point","coordinates":[-47.5,-81.5]}},{"type":"Feature","properties":{"kind":"center","id":45,"lat":30.75,"lon":70.75,"mslp":1005.2,"hvtl":3.4,"hvtu":-59.1,"hb":14.6,"idx":-0.5,"cls":3,"psfc":988.3,"terrain":false,"radius_km":200,"name":"asym shallow warm","track":"T103"},"geometry":{"type":"Point","coordinates":[70.75,30.75]}},{"type":"Feature","properties":{"kind":"center","id":46,"lat":-11.75,"lon":-74.0,"mslp":1005.9,"hvtl":66.4,"hvtu":-81.3,"hb":-1.4,"idx":0.5,"cls":1,"psfc":933.2,"terrain":false,"radius_km":200,"name":"sym shallow warm"},"geometry":{"type":"Point","coordinates":[-74.0,-11.75]}},{"type":"Feature","properties":{"kind":"center","id":47,"lat":-10.75,"lon":-73.5,"mslp":1006.0,"hvtl":54.9,"hvtu":-78.4,"hb":0.8,"idx":0.3,"cls":1,"psfc":973.3,"terrain":false,"radius_km":200,"name":"sym shallow warm"},"geometry":{"type":"Point","coordinates":[-73.5,-10.75]}},{"type":"Feature","properties":{"kind":"center","id":48,"lat":41.25,"lon":130.75,"mslp":1006.2,"hvtl":-53.0,"hvtu":-440.3,"hb":51.9,"idx":-2.0,"cls":4,"psfc":1006.2,"terrain":false,"radius_km":200,"name":"asym cold","track":"T94"},"geometry":{"type":"Point","coordinates":[130.75,41.25]}},{"type":"Feature","properties":{"kind":"center","id":49,"lat":46.0,"lon":81.75,"mslp":1007.6,"hvtl":-213.3,"hvtu":-91.9,"hb":30.9,"idx":-2.7,"cls":4,"psfc":967.1,"terrain":false,"radius_km":200,"name":"asym cold"},"geometry":{"type":"Point","coordinates":[81.75,46.0]}},{"type":"Feature","properties":{"kind":"center","id":50,"lat":-10.25,"lon":-74.75,"mslp":1007.7,"hvtl":54.9,"hvtu":-54.5,"hb":-5.7,"idx":0.5,"cls":1,"psfc":960.4,"terrain":false,"radius_km":200,"name":"sym shallow warm"},"geometry":{"type":"Point","coordinates":[-74.75,-10.25]}},{"type":"Feature","properties":{"kind":"center","id":51,"lat":-11.25,"lon":-74.5,"mslp":1007.9,"hvtl":54.9,"hvtu":-67.2,"hb":-5.5,"idx":0.4,"cls":1,"psfc":900.6,"terrain":true,"radius_km":200,"name":"sym shallow warm"},"geometry":{"type":"Point","coordinates":[-74.5,-11.25]}},{"type":"Feature","properties":{"kind":"center","id":52,"lat":76.25,"lon":-152.5,"mslp":1008.3,"hvtl":-64.8,"hvtu":-52.3,"hb":18.3,"idx":-1.6,"cls":4,"psfc":1008.3,"terrain":false,"radius_km":200,"name":"asym cold","track":"T123"},"geometry":{"type":"Point","coordinates":[-152.5,76.25]}},{"type":"Feature","properties":{"kind":"center","id":53,"lat":13.25,"lon":40.75,"mslp":1008.7,"hvtl":113.2,"hvtu":14.8,"hb":6.8,"idx":1.8,"cls":0,"psfc":1011.4,"terrain":false,"radius_km":200,"name":"sym deep warm"},"geometry":{"type":"Point","coordinates":[40.75,13.25]}},{"type":"Feature","properties":{"kind":"center","id":54,"lat":24.25,"lon":38.0,"mslp":1009.1,"hvtl":-4.1,"hvtu":-87.7,"hb":19.5,"idx":-0.8,"cls":4,"psfc":1004.7,"terrain":false,"radius_km":200,"name":"asym cold"},"geometry":{"type":"Point","coordinates":[38.0,24.25]}},{"type":"Feature","properties":{"kind":"center","id":55,"lat":28.5,"lon":65.5,"mslp":1009.3,"hvtl":17.7,"hvtu":-48.8,"hb":9.2,"idx":-0.1,"cls":1,"psfc":929.6,"terrain":false,"radius_km":200,"name":"sym shallow warm"},"geometry":{"type":"Point","coordinates":[65.5,28.5]}},{"type":"Feature","properties":{"kind":"center","id":56,"lat":26.75,"lon":79.5,"mslp":1009.4,"hvtl":12.3,"hvtu":-116.4,"hb":-0.0,"idx":-0.6,"cls":1,"psfc":992.7,"terrain":false,"radius_km":200,"name":"sym shallow warm"},"geometry":{"type":"Point","coordinates":[79.5,26.75]}},{"type":"Feature","properties":{"kind":"center","id":57,"lat":26.25,"lon":-97.75,"mslp":1009.9,"hvtl":62.5,"hvtu":-40.3,"hb":-8.0,"idx":0.7,"cls":1,"psfc":1008.1,"terrain":false,"radius_km":200,"name":"sym shallow warm"},"geometry":{"type":"Point","coordinates":[-97.75,26.25]}},{"type":"Feature","properties":{"kind":"center","id":58,"lat":30.0,"lon":59.0,"mslp":1010.3,"hvtl":292.8,"hvtu":-90.9,"hb":32.0,"idx":1.3,"cls":3,"psfc":972.8,"terrain":false,"radius_km":200,"name":"asym shallow warm"},"geometry":{"type":"Point","coordinates":[59.0,30.0]}},{"type":"Feature","properties":{"kind":"center","id":59,"lat":29.25,"lon":65.75,"mslp":1010.8,"hvtl":26.4,"hvtu":-54.5,"hb":7.9,"idx":0.0,"cls":1,"psfc":902.0,"terrain":true,"radius_km":200,"name":"sym shallow warm"},"geometry":{"type":"Point","coordinates":[65.75,29.25]}},{"type":"Feature","properties":{"kind":"center","id":60,"lat":47.5,"lon":83.0,"mslp":1011.9,"hvtl":-191.1,"hvtu":-99.8,"hb":39.7,"idx":-2.7,"cls":4,"psfc":911.1,"terrain":true,"radius_km":200,"name":"asym cold"},"geometry":{"type":"Point","coordinates":[83.0,47.5]}},{"type":"Feature","properties":{"kind":"center","id":61,"lat":47.75,"lon":82.25,"mslp":1012.2,"hvtl":-186.6,"hvtu":-127.0,"hb":50.8,"idx":-2.8,"cls":4,"psfc":906.1,"terrain":true,"radius_km":200,"name":"asym cold"},"geometry":{"type":"Point","coordinates":[82.25,47.75]}},{"type":"Feature","properties":{"kind":"center","id":62,"lat":31.0,"lon":60.75,"mslp":1013.9,"hvtl":327.6,"hvtu":-89.0,"hb":48.6,"idx":1.3,"cls":3,"psfc":938.0,"terrain":false,"radius_km":200,"name":"asym shallow warm","track":"T130"},"geometry":{"type":"Point","coordinates":[60.75,31.0]}},{"type":"Feature","properties":{"kind":"center","id":63,"lat":38.0,"lon":67.75,"mslp":1016.7,"hvtl":103.4,"hvtu":-220.7,"hb":72.4,"idx":0.6,"cls":3,"psfc":961.3,"terrain":false,"radius_km":200,"name":"asym shallow warm","track":"T131"},"geometry":{"type":"Point","coordinates":[67.75,38.0]}},{"type":"Feature","properties":{"kind":"center","id":64,"lat":35.25,"lon":55.0,"mslp":1019.2,"hvtl":104.6,"hvtu":-236.0,"hb":128.8,"idx":0.6,"cls":3,"psfc":933.5,"terrain":false,"radius_km":200,"name":"asym shallow warm","track":"T125"},"geometry":{"type":"Point","coordinates":[55.0,35.25]}},{"type":"Feature","properties":{"kind":"center","id":65,"lat":43.5,"lon":76.0,"mslp":1019.4,"hvtl":-209.5,"hvtu":-175.0,"hb":75.3,"idx":-2.9,"cls":4,"psfc":942.5,"terrain":false,"radius_km":200,"name":"asym cold"},"geometry":{"type":"Point","coordinates":[76.0,43.5]}},{"type":"Feature","properties":{"kind":"center","id":66,"lat":36.0,"lon":54.5,"mslp":1022.4,"hvtl":17.4,"hvtu":-233.1,"hb":135.7,"idx":-0.6,"cls":3,"psfc":902.8,"terrain":true,"radius_km":200,"name":"asym shallow warm"},"geometry":{"type":"Point","coordinates":[54.5,36.0]}},{"type":"Feature","properties":{"kind":"center","id":67,"lat":36.25,"lon":53.25,"mslp":1026.0,"hvtl":-13.3,"hvtu":-240.1,"hb":136.3,"idx":-1.2,"cls":4,"psfc":924.4,"terrain":true,"radius_km":200,"name":"asym cold"},"geometry":{"type":"Point","coordinates":[53.25,36.25]}}]}