{"type":"FeatureCollection","features":[{"type":"Feature","properties":{"kind":"blob","cls":0,"id":1},"geometry":{"type":"Polygon","coordinates":[[[62.75,-63.38],[64.62,-62.0],[64.62,-61.5],[62.5,-59.88],[58.0,-59.88],[56.38,-61.0],[56.12,-62.0],[58.0,-63.38],[62.75,-63.38]]]}},{"type":"Feature","properties":{"kind":"blob","cls":4,"id":2},"geometry":{"type":"Polygon","coordinates":[[[164.0,-67.12],[165.25,-66.62],[166.12,-65.75],[166.12,-65.25],[165.25,-64.38],[162.5,-63.38],[159.75,-62.88],[156.0,-63.12],[155.88,-61.5],[154.0,-60.38],[150.75,-60.12],[149.5,-60.38],[147.62,-61.5],[147.38,-62.75],[148.5,-63.88],[150.5,-64.38],[153.0,-64.38],[153.12,-65.25],[154.0,-66.12],[156.75,-67.12],[164.0,-67.12]]]}},{"type":"Feature","properties":{"kind":"blob","cls":0,"id":3},"geometry":{"type":"Polygon","coordinates":[[[143.5,16.88],[143.88,17.5],[143.62,19.25],[142.25,20.12],[141.0,19.88],[140.12,18.75],[140.12,17.5],[141.25,17.62],[143.5,16.88]]]}},{"type":"Feature","properties":{"kind":"blob","cls":1,"id":4},"geometry":{"type":"Polygon","coordinates":[[[-124.75,-62.38],[-123.25,-62.12],[-121.12,-60.75],[-120.88,-59.25],[-122.5,-57.62],[-124.25,-57.12],[-126.5,-57.12],[-128.25,-57.62],[-129.88,-59.25],[-129.88,-60.0],[-129.0,-61.38],[-127.0,-62.12],[-126.5,-61.12],[-125.5,-61.12],[-124.75,-62.38]]]}},{"type":"Feature","properties":{"kind":"blob","cls":4,"id":5},"geometry":{"type":"Polygon","coordinates":[[[179.75,-68.12],[180.0,-63.88],[173.5,-64.12],[172.25,-64.62],[171.38,-65.5],[171.75,-66.88],[173.5,-67.62],[176.5,-68.12],[179.75,-68.12]]]}},{"type":"Feature","properties":{"kind":"blob","cls":4,"id":5},"geometry":{"type":"Polygon","coordinates":[[[-179.75,-63.88],[-180.0,-68.12],[-176.25,-67.62],[-174.5,-66.88],[-174.12,-66.25],[-174.38,-65.25],[-175.5,-64.62],[-179.75,-63.88]]]}},{"type":"Feature","properties":{"kind":"blob","cls":0,"id":6},"geometry":{"type":"Polygon","coordinates":[[[161.0,13.88],[162.38,14.75],[162.62,16.25],[161.75,17.38],[160.25,17.62],[158.88,16.75],[158.75,15.88],[159.75,16.12],[160.12,15.75],[158.88,14.75],[161.0,13.88]]]}},{"type":"Feature","properties":{"kind":"blob","cls":3,"id":7},"geometry":{"type":"Polygon","coordinates":[[[-23.75,-65.12],[-21.75,-64.62],[-20.12,-63.25],[-20.12,-62.25],[-22.0,-61.12],[-25.25,-60.88],[-28.0,-61.62],[-29.62,-62.75],[-29.62,-63.75],[-29.0,-64.38],[-23.75,-65.12]]]}},{"type":"Feature","properties":{"kind":"blob","cls":3,"id":8},"geometry":{"type":"Polygon","coordinates":[[[-115.0,-74.38],[-112.0,-73.88],[-110.25,-73.12],[-109.62,-72.5],[-109.62,-71.75],[-111.0,-70.62],[-115.5,-69.62],[-122.5,-69.88],[-124.5,-70.62],[-125.12,-71.25],[-125.12,-72.25],[-124.0,-73.12],[-120.5,-74.12],[-115.0,-74.38]]]}},{"type":"Feature","properties":{"kind":"blob","cls":1,"id":9},"geometry":{"type":"Polygon","coordinates":[[[-172.5,59.62],[-170.88,60.75],[-170.62,61.5],[-171.5,62.62],[-173.75,63.38],[-176.0,63.38],[-176.12,62.75],[-176.75,62.38],[-178.25,62.62],[-179.12,61.5],[-178.88,61.0],[-177.0,59.62],[-172.5,59.62]]]}},{"type":"Feature","properties":{"kind":"blob","cls":1,"id":10},"geometry":{"type":"Polygon","coordinates":[[[136.75,-61.12],[137.25,-61.12],[139.0,-60.62],[140.12,-59.25],[139.88,-58.75],[139.0,-57.88],[136.75,-57.12],[133.75,-57.38],[133.25,-56.62],[131.25,-55.88],[127.0,-56.38],[124.12,-58.0],[124.12,-59.25],[124.5,-59.62],[126.25,-59.12],[131.5,-59.12],[135.25,-59.88],[136.75,-61.12]]]}},{"type":"Feature","properties":{"kind":"blob","cls":4,"id":11},"geometry":{"type":"Polygon","coordinates":[[[-158.0,-77.62],[-155.0,-76.62],[-154.62,-75.75],[-156.5,-74.62],[-161.0,-73.88],[-167.0,-74.12],[-169.62,-75.0],[-167.38,-75.75],[-169.25,-76.62],[-169.0,-77.12],[-167.0,-77.62],[-158.0,-77.62]]]}},{"type":"Feature","properties":{"kind":"blob","cls":4,"id":12},"geometry":{"type":"Polygon","coordinates":[[[-48.25,52.12],[-46.25,52.88],[-45.38,54.0],[-45.62,55.0],[-46.25,55.62],[-48.25,56.38],[-50.75,56.12],[-52.25,55.38],[-52.88,54.5],[-52.62,53.5],[-51.0,52.38],[-48.25,52.12]]]}},{"type":"Feature","properties":{"kind":"blob","cls":1,"id":13},"geometry":{"type":"Polygon","coordinates":[[[4.0,63.88],[6.25,64.38],[7.62,65.25],[7.88,66.25],[7.25,67.12],[5.5,67.88],[4.5,67.88],[3.75,67.12],[2.0,67.12],[0.75,67.88],[-1.62,66.75],[-1.88,65.75],[-1.5,65.12],[0.5,64.12],[4.0,63.88]]]}},{"type":"Feature","properties":{"kind":"blob","cls":4,"id":14},"geometry":{"type":"Polygon","coordinates":[[[20.0,-70.62],[25.25,-70.62],[32.12,-70.0],[30.75,-68.62],[29.25,-68.12],[24.75,-67.88],[21.25,-68.62],[19.88,-69.5],[20.0,-70.62]]]}},{"type":"Feature","properties":{"kind":"blob","cls":4,"id":15},"geometry":{"type":"Polygon","coordinates":[[[-101.75,50.88],[-100.25,51.38],[-99.38,52.25],[-99.38,53.25],[-100.5,54.38],[-102.5,55.12],[-104.25,55.12],[-105.75,54.62],[-106.88,53.25],[-106.62,52.5],[-105.25,51.38],[-101.75,50.88]]]}},{"type":"Feature","properties":{"kind":"blob","cls":3,"id":16},"geometry":{"type":"Polygon","coordinates":[[[17.5,60.12],[21.0,60.12],[22.88,61.5],[22.88,62.0],[21.0,63.38],[17.75,63.62],[15.5,62.88],[14.62,62.0],[14.62,61.5],[15.5,60.62],[17.5,60.12]]]}},{"type":"Feature","properties":{"kind":"blob","cls":4,"id":17},"geometry":{"type":"Polygon","coordinates":[[[-79.25,-79.62],[-78.25,-79.62],[-76.38,-78.5],[-77.5,-77.62],[-79.25,-77.38],[-79.12,-78.5],[-79.62,-79.0],[-79.25,-79.62]]]}},{"type":"Feature","properties":{"kind":"blob","cls":6,"id":18},"geometry":{"type":"Polygon","coordinates":[[[62.0,79.62],[67.25,80.62],[68.38,81.25],[68.38,81.75],[66.5,82.62],[64.5,82.88],[61.75,83.88],[55.5,84.62],[41.0,84.88],[33.75,84.38],[30.5,85.12],[22.25,85.62],[0.75,85.38],[-8.25,84.12],[-9.88,83.25],[-9.75,82.62],[-8.0,81.88],[-2.0,80.88],[13.0,80.62],[19.88,81.25],[4.75,81.12],[2.88,81.5],[3.5,81.88],[7.75,82.38],[20.75,82.38],[23.25,82.12],[23.75,81.62],[29.75,82.38],[31.5,81.62],[37.0,80.62],[44.25,79.62],[62.0,79.62]]]}},{"type":"Feature","properties":{"kind":"blob","cls":1,"id":19},"geometry":{"type":"Polygon","coordinates":[[[-86.75,-46.88],[-85.5,-46.38],[-84.38,-45.0],[-84.62,-44.0],[-86.5,-42.88],[-88.0,-42.88],[-89.25,-43.38],[-90.12,-44.5],[-90.12,-45.25],[-89.25,-46.38],[-86.75,-46.88]]]}},{"type":"Feature","properties":{"kind":"blob","cls":4,"id":20},"geometry":{"type":"Polygon","coordinates":[[[-6.5,-44.38],[-5.25,-43.88],[-4.62,-43.0],[-4.88,-41.25],[-6.5,-40.38],[-8.0,-40.38],[-9.5,-41.12],[-9.88,-41.75],[-9.62,-43.25],[-9.0,-43.88],[-6.5,-44.38]]]}},{"type":"Feature","properties":{"kind":"blob","cls":5,"id":21},"geometry":{"type":"Polygon","coordinates":[[[21.0,81.38],[21.88,81.5],[21.75,81.62],[21.0,81.38]]]}},{"type":"Feature","properties":{"kind":"blob","cls":4,"id":22},"geometry":{"type":"Polygon","coordinates":[[[49.25,60.62],[51.25,61.12],[52.12,61.75],[52.38,62.75],[49.5,65.12],[47.0,65.88],[43.5,65.62],[41.5,64.88],[40.62,64.0],[40.88,63.0],[42.0,62.12],[49.25,60.62]]]}},{"type":"Feature","properties":{"kind":"blob","cls":4,"id":23},"geometry":{"type":"Polygon","coordinates":[[[-11.25,-38.38],[-9.75,-38.62],[-8.12,-37.5],[-8.12,-35.75],[-8.75,-35.12],[-9.75,-34.62],[-11.0,-34.62],[-12.62,-35.75],[-12.62,-37.5],[-11.25,-38.38]]]}},{"type":"Feature","properties":{"kind":"blob","cls":3,"id":24},"geometry":{"type":"Polygon","coordinates":[[[-124.75,23.62],[-123.12,24.75],[-123.12,26.75],[-125.0,28.12],[-126.5,27.88],[-127.62,26.75],[-127.62,25.0],[-126.5,23.88],[-124.75,23.62]]]}},{"type":"Feature","properties":{"kind":"blob","cls":1,"id":25},"geometry":{"type":"Polygon","coordinates":[[[179.88,30.25],[180.0,31.12],[178.25,32.38],[176.75,32.12],[175.62,31.0],[175.88,29.5],[177.75,28.12],[179.12,28.5],[179.12,30.25],[179.75,30.62],[179.88,30.25]]]}},{"type":"Feature","properties":{"kind":"blob","cls":1,"id":25},"geometry":{"type":"Polygon","coordinates":[[[-179.88,31.0],[-180.0,30.12],[-179.75,29.88],[-179.62,30.5],[-179.88,31.0]]]}},{"type":"Feature","properties":{"kind":"blob","cls":4,"id":26},"geometry":{"type":"Polygon","coordinates":[[[120.25,49.12],[121.75,49.62],[121.38,50.25],[121.75,50.38],[122.0,49.88],[122.38,50.5],[121.88,50.75],[122.5,50.62],[122.62,51.0],[120.62,51.0],[121.0,51.38],[122.0,51.38],[122.38,52.0],[121.75,52.62],[120.25,53.12],[117.25,52.62],[116.38,51.75],[116.12,50.75],[117.0,49.62],[120.25,49.12]],[[116.88,50.75],[116.75,51.38],[118.25,51.12],[118.88,51.5],[118.5,50.88],[116.88,50.75]]]}},{"type":"Feature","properties":{"kind":"blob","cls":0,"id":27},"geometry":{"type":"Polygon","coordinates":[[[-105.0,12.88],[-104.0,13.62],[-101.0,13.88],[-100.88,14.25],[-101.75,15.38],[-103.25,15.62],[-104.88,14.5],[-105.0,12.88]]]}},{"type":"Feature","properties":{"kind":"blob","cls":4,"id":28},"geometry":{"type":"Polygon","coordinates":[[[69.75,67.88],[73.75,67.88],[75.25,68.38],[76.62,70.0],[76.0,70.88],[75.0,71.38],[70.25,71.88],[67.5,71.38],[65.62,70.0],[65.62,69.5],[66.75,68.38],[69.75,67.88]]]}},{"type":"Feature","properties":{"kind":"blob","cls":4,"id":29},"geometry":{"type":"Polygon","coordinates":[[[-74.5,75.38],[-67.75,75.38],[-64.38,76.5],[-66.88,76.75],[-65.0,77.12],[-64.75,77.62],[-69.5,77.88],[-69.0,78.38],[-67.62,78.5],[-70.25,78.88],[-74.25,78.88],[-78.25,77.38],[-80.38,77.0],[-79.75,76.12],[-79.0,75.88],[-74.5,75.38]],[[-71.62,78.25],[-70.12,78.25],[-70.25,78.12],[-71.62,78.25]],[[-68.12,77.0],[-67.38,77.0],[-67.5,76.88],[-68.12,77.0]]]}},{"type":"Feature","properties":{"kind":"blob","cls":1,"id":30},"geometry":{"type":"MultiPolygon","coordinates":[[[[66.75,25.12],[68.0,24.88],[69.62,26.0],[70.12,27.25],[70.12,29.25],[69.75,29.62],[68.75,29.62],[67.75,30.12],[67.38,29.75],[66.88,27.0],[65.38,26.75],[65.62,26.0],[66.75,25.12]]],[[[68.88,30.0],[68.75,30.12],[68.62,30.0],[68.88,30.0]]],[[[71.5,28.88],[73.5,28.88],[74.62,30.0],[74.62,31.0],[73.75,32.38],[72.25,32.38],[70.12,31.5],[69.88,29.75],[71.5,28.88]]]]}},{"type":"Feature","properties":{"kind":"blob","cls":4,"id":31},"geometry":{"type":"Polygon","coordinates":[[[-52.75,63.88],[-50.0,64.38],[-49.62,64.75],[-50.12,65.0],[-49.88,65.5],[-50.25,65.88],[-52.25,65.62],[-52.88,66.25],[-49.75,66.38],[-50.12,67.75],[-52.0,68.38],[-55.0,68.38],[-57.0,67.88],[-58.62,66.75],[-58.62,65.5],[-57.75,64.62],[-52.75,63.88]]]}},{"type":"Feature","properties":{"kind":"blob","cls":3,"id":32},"geometry":{"type":"Polygon","coordinates":[[[59.75,28.12],[60.12,28.5],[59.5,30.62],[58.12,29.75],[58.38,29.0],[59.75,28.12]]]}},{"type":"Feature","properties":{"kind":"blob","cls":3,"id":33},"geometry":{"type":"Polygon","coordinates":[[[-72.0,59.88],[-69.75,60.62],[-68.38,62.25],[-68.38,63.5],[-69.75,64.62],[-71.75,65.12],[-74.5,65.12],[-77.0,64.38],[-78.12,63.25],[-77.88,61.75],[-76.75,60.62],[-72.0,59.88]]]}},{"type":"Feature","properties":{"kind":"blob","cls":4,"id":34},"geometry":{"type":"MultiPolygon","coordinates":[[[[-112.12,50.5],[-112.38,51.5],[-113.25,52.12],[-113.62,51.5],[-112.12,50.5]]],[[[-113.75,52.38],[-113.88,52.25],[-113.5,52.12],[-113.75,52.38]]]]}},{"type":"Feature","properties":{"kind":"blob","cls":1,"id":35},"geometry":{"type":"Polygon","coordinates":[[[41.25,13.12],[43.0,12.88],[43.12,13.75],[41.75,15.38],[39.75,15.38],[40.12,13.75],[41.25,13.12]]]}},{"type":"Feature","properties":{"kind":"blob","cls":3,"id":36},"geometry":{"type":"Polygon","coordinates":[[[37.75,0.38],[38.38,2.25],[38.12,3.5],[37.62,3.5],[37.62,4.5],[37.25,4.38],[37.0,4.88],[36.25,4.62],[36.0,5.12],[35.0,4.62],[34.75,3.38],[35.5,3.38],[36.25,4.38],[36.62,4.25],[36.62,2.5],[37.38,1.75],[37.75,0.38]]]}},{"type":"Feature","properties":{"kind":"blob","cls":2,"id":37},"geometry":{"type":"Polygon","coordinates":[[[-95.0,15.12],[-92.12,15.0],[-93.25,15.88],[-94.5,15.62],[-95.0,15.12]]]}},{"type":"Feature","properties":{"kind":"blob","cls":1,"id":38},"geometry":{"type":"MultiPolygon","coordinates":[[[[13.5,-18.88],[13.38,-19.0],[13.5,-19.12],[13.5,-18.88]]],[[[12.25,-18.62],[13.38,-18.75],[13.25,-18.12],[12.62,-18.0],[12.75,-16.88],[13.88,-17.25],[13.12,-16.5],[13.62,-15.5],[13.0,-15.12],[12.25,-15.38],[11.38,-16.5],[11.38,-17.5],[12.25,-18.62]]]]}},{"type":"Feature","properties":{"kind":"blob","cls":0,"id":39},"geometry":{"type":"Polygon","coordinates":[[[-93.0,11.62],[-91.62,12.5],[-94.62,12.25],[-93.0,11.62]]]}},{"type":"Feature","properties":{"kind":"blob","cls":1,"id":40},"geometry":{"type":"Polygon","coordinates":[[[58.0,28.12],[58.38,28.25],[57.75,28.88],[58.0,28.12]]]}},{"type":"Feature","properties":{"kind":"blob","cls":4,"id":41},"geometry":{"type":"Polygon","coordinates":[[[-7.0,27.88],[-6.12,28.75],[-5.88,29.75],[-6.75,30.38],[-9.25,29.12],[-9.12,30.0],[-8.12,30.75],[-9.5,30.62],[-10.12,29.25],[-9.0,27.88],[-7.0,27.88]]]}},{"type":"Feature","properties":{"kind":"blob","cls":5,"id":42},"geometry":{"type":"Polygon","coordinates":[[[65.5,28.12],[65.5,28.88],[65.38,28.75],[65.5,28.12]]]}},{"type":"Feature","properties":{"kind":"blob","cls":1,"id":43},"geometry":{"type":"Polygon","coordinates":[[[58.75,27.88],[59.12,28.0],[59.0,28.12],[58.75,27.88]]]}},{"type":"Feature","properties":{"kind":"blob","cls":3,"id":44},"geometry":{"type":"Polygon","coordinates":[[[61.12,30.0],[60.75,30.62],[60.62,30.25],[61.12,30.0]]]}},{"type":"Feature","properties":{"kind":"blob","cls":4,"id":45},"geometry":{"type":"Polygon","coordinates":[[[-57.75,71.88],[-55.5,72.12],[-53.88,72.75],[-57.75,74.38],[-60.0,76.38],[-63.25,76.38],[-66.38,75.0],[-65.62,73.5],[-64.25,72.62],[-62.5,72.12],[-57.75,71.88]]]}},{"type":"Feature","properties":{"kind":"blob","cls":3,"id":46},"geometry":{"type":"Polygon","coordinates":[[[162.0,29.38],[163.38,30.0],[163.88,30.75],[163.88,32.25],[163.25,33.12],[161.0,33.62],[159.12,32.5],[158.88,30.75],[159.5,29.88],[162.0,29.38]]]}},{"type":"Feature","properties":{"kind":"blob","cls":3,"id":47},"geometry":{"type":"Polygon","coordinates":[[[97.0,23.38],[97.38,24.0],[95.25,25.62],[95.38,24.5],[96.25,23.62],[97.0,23.38]]]}},{"type":"Feature","properties":{"kind":"blob","cls":4,"id":48},"geometry":{"type":"Polygon","coordinates":[[[-64.5,-17.38],[-64.38,-17.0],[-65.25,-15.88],[-66.5,-15.62],[-66.62,-16.0],[-64.5,-17.38]]]}},{"type":"Feature","properties":{"kind":"blob","cls":4,"id":49},"geometry":{"type":"Polygon","coordinates":[[[0.0,34.62],[1.75,35.38],[2.25,34.62],[2.88,35.25],[2.88,36.75],[0.5,38.12],[-1.5,37.62],[-2.12,37.0],[-2.12,35.5],[-1.5,34.88],[0.0,34.62]]]}},{"type":"Feature","properties":{"kind":"blob","cls":4,"id":50},"geometry":{"type":"Polygon","coordinates":[[[-50.25,34.38],[-49.0,34.12],[-47.12,35.5],[-47.12,37.5],[-48.75,38.62],[-50.0,38.62],[-51.88,37.25],[-51.88,35.5],[-50.25,34.38]]]}},{"type":"Feature","properties":{"kind":"blob","cls":5,"id":51},"geometry":{"type":"Polygon","coordinates":[[[93.5,25.38],[94.38,26.25],[92.5,26.88],[92.38,26.25],[93.5,25.38]]]}},{"type":"Feature","properties":{"kind":"blob","cls":5,"id":52},"geometry":{"type":"Polygon","coordinates":[[[65.62,29.25],[65.75,29.12],[65.88,29.25],[65.62,29.25]]]}},{"type":"Feature","properties":{"kind":"blob","cls":5,"id":53},"geometry":{"type":"Polygon","coordinates":[[[168.0,-38.88],[170.0,-39.12],[171.88,-37.75],[171.88,-35.75],[171.0,-34.88],[170.0,-34.38],[168.25,-34.38],[166.38,-35.75],[166.38,-37.75],[168.0,-38.88]],[[168.75,-38.62],[168.12,-38.0],[168.75,-37.12],[169.25,-37.12],[169.62,-38.0],[168.75,-38.62]]]}},{"type":"Feature","properties":{"kind":"blob","cls":4,"id":54},"geometry":{"type":"Polygon","coordinates":[[[-68.75,-33.12],[-68.0,-32.88],[-67.38,-32.0],[-67.5,-31.38],[-68.12,-31.5],[-67.62,-31.0],[-68.25,-29.88],[-68.62,-30.5],[-68.75,-33.12]]]}},{"type":"Feature","properties":{"kind":"blob","cls":4,"id":55},"geometry":{"type":"MultiPolygon","coordinates":[[[[0.0,34.12],[-0.12,34.0],[0.0,33.88],[0.0,34.12]]],[[[0.12,34.25],[1.38,34.5],[0.75,34.62],[0.12,34.25]]]]}},{"type":"Feature","properties":{"kind":"blob","cls":4,"id":56},"geometry":{"type":"Polygon","coordinates":[[[-64.38,-22.5],[-64.25,-22.88],[-63.38,-22.0],[-63.38,-21.0],[-64.0,-20.62],[-64.12,-21.25],[-63.62,-21.5],[-64.38,-22.5]]]}},{"type":"Feature","properties":{"kind":"blob","cls":4,"id":57},"geometry":{"type":"Polygon","coordinates":[[[-71.25,-32.62],[-70.62,-32.75],[-71.12,-32.0],[-71.0,-29.62],[-71.62,-30.5],[-71.62,-32.0],[-71.25,-32.62]]]}},{"type":"Feature","properties":{"kind":"blob","cls":3,"id":58},"geometry":{"type":"Polygon","coordinates":[[[110.25,61.38],[112.0,62.12],[113.12,63.5],[112.25,64.62],[111.25,64.88],[108.0,62.62],[105.5,62.38],[103.75,64.38],[103.12,63.75],[103.12,62.5],[104.25,61.62],[110.25,61.38]]]}},{"type":"Feature","properties":{"kind":"blob","cls":4,"id":59},"geometry":{"type":"Polygon","coordinates":[[[-67.62,-30.5],[-67.5,-30.62],[-67.38,-30.5],[-67.62,-30.5]]]}},{"type":"Feature","properties":{"kind":"center","id":1,"lat":-61.5,"lon":60.25,"mslp":946.2,"hvtl":139.8,"hvtu":49.7,"hb":-28.8,"idx":2.2,"cls":0,"psfc":946.2,"terrain":false,"radius_km":200,"name":"sym deep warm","track":"T07"},"geometry":{"type":"Point","coordinates":[60.25,-61.5]}},{"type":"Feature","properties":{"kind":"center","id":2,"lat":-62.25,"lon":151.75,"mslp":953.1,"hvtl":-24.0,"hvtu":-175.5,"hb":18.1,"idx":-1.4,"cls":4,"psfc":953.1,"terrain":false,"radius_km":200,"name":"asym cold","track":"T15"},"geometry":{"type":"Point","coordinates":[151.75,-62.25]}},{"type":"Feature","properties":{"kind":"center","id":3,"lat":18.0,"lon":142.0,"mslp":954.3,"hvtl":52.7,"hvtu":216.3,"hb":3.4,"idx":1.9,"cls":0,"psfc":954.3,"terrain":false,"radius_km":200,"name":"sym deep warm","track":"T06"},"geometry":{"type":"Point","coordinates":[142.0,18.0]}},{"type":"Feature","properties":{"kind":"center","id":4,"lat":-59.5,"lon":-125.5,"mslp":954.7,"hvtl":36.1,"hvtu":-62.4,"hb":4.0,"idx":0.1,"cls":1,"psfc":954.7,"terrain":false,"radius_km":200,"name":"sym shallow warm","track":"T11"},"geometry":{"type":"Point","coordinates":[-125.5,-59.5]}},{"type":"Feature","properties":{"kind":"center","id":5,"lat":-66.0,"lon":177.75,"mslp":955.7,"hvtl":-146.0,"hvtu":-376.2,"hb":93.9,"idx":-2.8,"cls":4,"psfc":955.7,"terrain":false,"radius_km":200,"name":"asym cold","track":"T09"},"geometry":{"type":"Point","coordinates":[177.75,-66.0]}},{"type":"Feature","properties":{"kind":"center","id":6,"lat":15.75,"lon":160.75,"mslp":960.5,"hvtl":105.8,"hvtu":209.3,"hb":4.2,"idx":2.5,"cls":0,"psfc":960.5,"terrain":false,"radius_km":200,"name":"sym deep warm","track":"T12"},"geometry":{"type":"Point","coordinates":[160.75,15.75]}},{"type":"Feature","properties":{"kind":"center","id":7,"lat":-63.0,"lon":-24.5,"mslp":961.7,"hvtl":30.7,"hvtu":-32.7,"hb":25.7,"idx":0.3,"cls":3,"psfc":961.7,"terrain":false,"radius_km":200,"name":"asym shallow warm","track":"T28"},"geometry":{"type":"Point","coordinates":[-24.5,-63.0]}},{"type":"Feature","properties":{"kind":"center","id":8,"lat":-72.0,"lon":-117.75,"mslp":963.0,"hvtl":20.7,"hvtu":-125.8,"hb":25.8,"idx":-0.4,"cls":3,"psfc":963.0,"terrain":false,"radius_km":200,"name":"asym shallow warm","track":"T29"},"geometry":{"type":"Point","coordinates":[-117.75,-72.0]}},{"type":"Feature","properties":{"kind":"center","id":9,"lat":61.5,"lon":-174.75,"mslp":963.7,"hvtl":46.3,"hvtu":-17.8,"hb":4.4,"idx":0.7,"cls":1,"psfc":963.7,"terrain":false,"radius_km":200,"name":"sym shallow warm","track":"T02"},"geometry":{"type":"Point","coordinates":[-174.75,61.5]}},{"type":"Feature","properties":{"kind":"center","id":10,"lat":-59.25,"lon":136.0,"mslp":965.3,"hvtl":81.6,"hvtu":-30.8,"hb":2.4,"idx":1.0,"cls":1,"psfc":965.3,"terrain":false,"radius_km":200,"name":"sym shallow warm","track":"T22"},"geometry":{"type":"Point","coordinates":[136.0,-59.25]}},{"type":"Feature","properties":{"kind":"center","id":11,"lat":-75.75,"lon":-162.5,"mslp":972.3,"hvtl":-55.7,"hvtu":-75.8,"hb":28.9,"idx":-1.7,"cls":4,"psfc":972.3,"terrain":false,"radius_km":200,"name":"asym cold"},"geometry":{"type":"Point","coordinates":[-162.5,-75.75]}},{"type":"Feature","properties":{"kind":"center","id":12,"lat":54.25,"lon":-49.0,"mslp":979.0,"hvtl":-20.8,"hvtu":-191.2,"hb":37.8,"idx":-1.4,"cls":4,"psfc":979.0,"terrain":false,"radius_km":200,"name":"asym cold","track":"T49"},"geometry":{"type":"Point","coordinates":[-49.0,54.25]}},{"type":"Feature","properties":{"kind":"center","id":13,"lat":66.0,"lon":3.0,"mslp":982.5,"hvtl":100.0,"hvtu":-45.7,"hb":-5.4,"idx":1.1,"cls":1,"psfc":982.5,"terrain":false,"radius_km":200,"name":"sym shallow warm","track":"T57"},"geometry":{"type":"Point","coordinates":[3.0,66.0]}},{"type":"Feature","properties":{"kind":"center","id":14,"lat":-69.5,"lon":29.0,"mslp":983.5,"hvtl":-53.1,"hvtu":-97.3,"hb":15.9,"idx":-1.7,"cls":4,"psfc":983.2,"terrain":false,"radius_km":200,"name":"asym cold","track":"T52"},"geometry":{"type":"Point","coordinates":[29.0,-69.5]}},{"type":"Feature","properties":{"kind":"center","id":15,"lat":53.25,"lon":-103.5,"mslp":989.4,"hvtl":-143.2,"hvtu":-228.7,"hb":120.0,"idx":-2.8,"cls":4,"psfc":949.2,"terrain":false,"radius_km":200,"name":"asym cold","track":"T72"},"geometry":{"type":"Point","coordinates":[-103.5,53.25]}},{"type":"Feature","properties":{"kind":"center","id":16,"lat":61.75,"lon":18.75,"mslp":990.1,"hvtl":34.5,"hvtu":-165.1,"hb":32.8,"idx":-0.3,"cls":3,"psfc":990.1,"terrain":false,"radius_km":200,"name":"asym shallow warm","track":"T77"},"geometry":{"type":"Point","coordinates":[18.75,61.75]}},{"type":"Feature","properties":{"kind":"center","id":17,"lat":-77.5,"lon":-79.25,"mslp":990.3,"hvtl":-306.3,"hvtu":-228.5,"hb":74.0,"idx":-3.0,"cls":4,"psfc":907.4,"terrain":false,"radius_km":200,"name":"asym cold","track":"T58"},"geometry":{"type":"Point","coordinates":[-79.25,-77.5]}},{"type":"Feature","properties":{"kind":"center","id":18,"lat":81.5,"lon":52.5,"mslp":991.5,"hvtl":-49.4,"hvtu":2.3,"hb":19.9,"idx":-0.9,"cls":6,"psfc":991.5,"terrain":false,"radius_km":200,"name":"shallow cold","track":"T50"},"geometry":{"type":"Point","coordinates":[52.5,81.5]}},{"type":"Feature","properties":{"kind":"center","id":19,"lat":-44.75,"lon":-87.25,"mslp":991.9,"hvtl":6.5,"hvtu":-29.2,"hb":-3.8,"idx":-0.2,"cls":1,"psfc":991.9,"terrain":false,"radius_km":200,"name":"sym shallow warm","track":"T74"},"geometry":{"type":"Point","coordinates":[-87.25,-44.75]}},{"type":"Feature","properties":{"kind":"center","id":20,"lat":-42.25,"lon":-7.25,"mslp":994.9,"hvtl":-189.9,"hvtu":-459.4,"hb":44.3,"idx":-2.9,"cls":4,"psfc":994.9,"terrain":false,"radius_km":200,"name":"asym cold"},"geometry":{"type":"Point","coordinates":[-7.25,-42.25]}},{"type":"Feature","properties":{"kind":"center","id":21,"lat":81.5,"lon":21.75,"mslp":996.7,"hvtl":-13.2,"hvtu":-138.8,"hb":-16.2,"idx":-1.1,"cls":5,"psfc":996.7,"terrain":false,"radius_km":200,"name":"sym cold"},"geometry":{"type":"Point","coordinates":[21.75,81.5]}},{"type":"Feature","properties":{"kind":"center","id":22,"lat":62.0,"lon":43.0,"mslp":997.4,"hvtl":-205.9,"hvtu":-21.0,"hb":33.0,"idx":-2.1,"cls":4,"psfc":989.1,"terrain":false,"radius_km":200,"name":"asym cold","track":"T81"},"geometry":{"type":"Point","coordinates":[43.0,62.0]}},{"type":"Feature","properties":{"kind":"center","id":23,"lat":-36.5,"lon":-10.5,"mslp":997.7,"hvtl":-256.1,"hvtu":-395.2,"hb":74.2,"idx":-3.0,"cls":4,"psfc":997.7,"terrain":false,"radius_km":200,"name":"asym cold","track":"T33"},"geometry":{"type":"Point","coordinates":[-10.5,-36.5]}},{"type":"Feature","properties":{"kind":"center","id":24,"lat":25.75,"lon":-125.25,"mslp":997.9,"hvtl":55.3,"hvtu":-46.7,"hb":16.7,"idx":0.6,"cls":3,"psfc":997.9,"terrain":false,"radius_km":200,"name":"asym shallow warm","track":"T42"},"geometry":{"type":"Point","coordinates":[-125.25,25.75]}},{"type":"Feature","properties":{"kind":"center","id":25,"lat":30.25,"lon":178.0,"mslp":1000.3,"hvtl":57.3,"hvtu":-101.0,"hb":9.5,"idx":0.3,"cls":1,"psfc":1000.3,"terrain":false,"radius_km":200,"name":"sym shallow warm","track":"T70"},"geometry":{"type":"Point","coordinates":[178.0,30.25]}},{"type":"Feature","properties":{"kind":"center","id":26,"lat":51.25,"lon":119.5,"mslp":1001.2,"hvtl":-47.5,"hvtu":-262.8,"hb":42.6,"idx":-1.9,"cls":4,"psfc":924.5,"terrain":false,"radius_km":200,"name":"asym cold","track":"T101"},"geometry":{"type":"Point","coordinates":[119.5,51.25]}},{"type":"Feature","properties":{"kind":"center","id":27,"lat":13.75,"lon":-103.0,"mslp":1003.2,"hvtl":69.8,"hvtu":7.8,"hb":8.8,"idx":1.3,"cls":0,"psfc":1003.2,"terrain":false,"radius_km":200,"name":"sym deep warm","track":"T104"},"geometry":{"type":"Point","coordinates":[-103.0,13.75]}},{"type":"Feature","properties":{"kind":"center","id":28,"lat":69.75,"lon":69.0,"mslp":1003.2,"hvtl":-119.4,"hvtu":-219.7,"hb":61.1,"idx":-2.6,"cls":4,"psfc":1000.0,"terrain":false,"radius_km":200,"name":"asym cold"},"geometry":{"type":"Point","coordinates":[69.0,69.75]}},{"type":"Feature","properties":{"kind":"center","id":29,"lat":77.0,"lon":-72.25,"mslp":1003.3,"hvtl":-86.9,"hvtu":-125.8,"hb":36.9,"idx":-2.3,"cls":4,"psfc":1003.3,"terrain":false,"radius_km":200,"name":"asym cold","track":"T112"},"geometry":{"type":"Point","coordinates":[-72.25,77.0]}},{"type":"Feature","properties":{"kind":"center","id":30,"lat":27.0,"lon":67.5,"mslp":1005.1,"hvtl":17.8,"hvtu":-46.7,"hb":-7.9,"idx":-0.1,"cls":1,"psfc":998.1,"terrain":false,"radius_km":200,"name":"sym shallow warm","track":"T106"},"geometry":{"type":"Point","coordinates":[67.5,27.0]}},{"type":"Feature","properties":{"kind":"center","id":31,"lat":66.25,"lon":-53.0,"mslp":1005.2,"hvtl":-34.9,"hvtu":-155.1,"hb":18.4,"idx":-1.6,"cls":4,"psfc":913.4,"terrain":true,"radius_km":200,"name":"asym cold"},"geometry":{"type":"Point","coordinates":[-53.0,66.25]}},{"type":"Feature","properties":{"kind":"center","id":32,"lat":30.0,"lon":58.75,"mslp":1005.6,"hvtl":50.4,"hvtu":-79.1,"hb":16.2,"idx":0.3,"cls":3,"psfc":970.3,"terrain":false,"radius_km":200,"name":"asym shallow warm","track":"T114"},"geometry":{"type":"Point","coordinates":[58.75,30.0]}},{"type":"Feature","properties":{"kind":"center","id":33,"lat":61.75,"lon":-72.5,"mslp":1005.6,"hvtl":44.4,"hvtu":-143.1,"hb":25.7,"idx":-0.1,"cls":3,"psfc":959.3,"terrain":false,"radius_km":200,"name":"asym shallow warm","track":"T109"},"geometry":{"type":"Point","coordinates":[-72.5,61.75]}},{"type":"Feature","properties":{"kind":"center","id":34,"lat":51.0,"lon":-112.25,"mslp":1005.6,"hvtl":-161.6,"hvtu":-238.7,"hb":77.5,"idx":-2.8,"cls":4,"psfc":914.5,"terrain":true,"radius_km":200,"name":"asym cold"},"geometry":{"type":"Point","coordinates":[-112.25,51.0]}},{"type":"Feature","properties":{"kind":"center","id":35,"lat":13.5,"lon":41.0,"mslp":1006.4,"hvtl":118.7,"hvtu":-12.8,"hb":7.6,"idx":1.5,"cls":1,"psfc":1009.9,"terrain":false,"radius_km":200,"name":"sym shallow warm"},"geometry":{"type":"Point","coordinates":[41.0,13.5]}},{"type":"Feature","properties":{"kind":"center","id":36,"lat":4.75,"lon":36.0,"mslp":1007.2,"hvtl":80.4,"hvtu":-6.4,"hb":12.6,"idx":1.3,"cls":3,"psfc":965.1,"terrain":false,"radius_km":200,"name":"asym shallow warm"},"geometry":{"type":"Point","coordinates":[36.0,4.75]}},{"type":"Feature","properties":{"kind":"center","id":37,"lat":15.0,"lon":-93.75,"mslp":1007.7,"hvtl":45.2,"hvtu":23.8,"hb":13.8,"idx":1.1,"cls":2,"psfc":1007.7,"terrain":false,"radius_km":200,"name":"asym deep warm","track":"T108"},"geometry":{"type":"Point","coordinates":[-93.75,15.0]}},{"type":"Feature","properties":{"kind":"center","id":38,"lat":-17.0,"lon":13.5,"mslp":1007.9,"hvtl":61.0,"hvtu":-91.8,"hb":-8.4,"idx":0.4,"cls":1,"psfc":916.8,"terrain":true,"radius_km":200,"name":"sym shallow warm"},"geometry":{"type":"Point","coordinates":[13.5,-17.0]}},{"type":"Feature","properties":{"kind":"center","id":39,"lat":12.25,"lon":-94.0,"mslp":1007.9,"hvtl":50.3,"hvtu":28.0,"hb":-8.7,"idx":1.2,"cls":0,"psfc":1007.9,"terrain":false,"radius_km":200,"name":"sym deep warm"},"geometry":{"type":"Point","coordinates":[-94.0,12.25]}},{"type":"Feature","properties":{"kind":"center","id":40,"lat":28.5,"lon":57.75,"mslp":1008.9,"hvtl":36.0,"hvtu":-79.6,"hb":-6.2,"idx":0.0,"cls":1,"psfc":939.5,"terrain":false,"radius_km":200,"name":"sym shallow warm","track":"T119"},"geometry":{"type":"Point","coordinates":[57.75,28.5]}},{"type":"Feature","properties":{"kind":"center","id":41,"lat":29.5,"lon":-8.0,"mslp":1008.9,"hvtl":-70.9,"hvtu":-269.8,"hb":30.6,"idx":-2.2,"cls":4,"psfc":951.3,"terrain":false,"radius_km":200,"name":"asym cold"},"geometry":{"type":"Point","coordinates":[-8.0,29.5]}},{"type":"Feature","properties":{"kind":"center","id":42,"lat":28.5,"lon":65.5,"mslp":1009.3,"hvtl":-51.3,"hvtu":-67.7,"hb":4.0,"idx":-1.5,"cls":5,"psfc":929.3,"terrain":false,"radius_km":200,"name":"sym cold","track":"T113"},"geometry":{"type":"Point","coordinates":[65.5,28.5]}},{"type":"Feature","properties":{"kind":"center","id":43,"lat":28.0,"lon":58.75,"mslp":1009.6,"hvtl":43.5,"hvtu":-73.7,"hb":-6.5,"idx":0.2,"cls":1,"psfc":929.7,"terrain":false,"radius_km":200,"name":"sym shallow warm"},"geometry":{"type":"Point","coordinates":[58.75,28.0]}},{"type":"Feature","properties":{"kind":"center","id":44,"lat":30.25,"lon":61.0,"mslp":1009.7,"hvtl":57.2,"hvtu":-88.1,"hb":18.9,"idx":0.3,"cls":3,"psfc":954.4,"terrain":false,"radius_km":200,"name":"asym shallow warm","track":"T121"},"geometry":{"type":"Point","coordinates":[61.0,30.25]}},{"type":"Feature","properties":{"kind":"center","id":45,"lat":76.0,"lon":-62.0,"mslp":1009.8,"hvtl":-231.2,"hvtu":-188.4,"hb":66.7,"idx":-2.9,"cls":4,"psfc":1009.7,"terrain":false,"radius_km":200,"name":"asym cold"},"geometry":{"type":"Point","coordinates":[-62.0,76.0]}},{"type":"Feature","properties":{"kind":"center","id":46,"lat":31.5,"lon":161.25,"mslp":1010.0,"hvtl":210.9,"hvtu":-143.5,"hb":29.0,"idx":1.0,"cls":3,"psfc":1010.0,"terrain":false,"radius_km":200,"name":"asym shallow warm","track":"T44"},"geometry":{"type":"Point","coordinates":[161.25,31.5]}},{"type":"Feature","properties":{"kind":"center","id":47,"lat":23.75,"lon":96.25,"mslp":1010.1,"hvtl":6.3,"hvtu":-102.1,"hb":10.1,"idx":-0.6,"cls":3,"psfc":992.2,"terrain":false,"radius_km":200,"name":"asym shallow warm"},"geometry":{"type":"Point","coordinates":[96.25,23.75]}},{"type":"Feature","properties":{"kind":"center","id":48,"lat":-16.0,"lon":-66.0,"mslp":1010.2,"hvtl":-136.0,"hvtu":-77.1,"hb":40.2,"idx":-2.4,"cls":4,"psfc":984.7,"terrain":false,"radius_km":200,"name":"asym cold"},"geometry":{"type":"Point","coordinates":[-66.0,-16.0]}},{"type":"Feature","properties":{"kind":"center","id":49,"lat":36.25,"lon":0.0,"mslp":1010.4,"hvtl":-54.8,"hvtu":-189.4,"hb":36.8,"idx":-2.0,"cls":4,"psfc":1010.4,"terrain":false,"radius_km":200,"name":"asym cold"},"geometry":{"type":"Point","coordinates":[0.0,36.25]}},{"type":"Feature","properties":{"kind":"center","id":50,"lat":36.5,"lon":-49.5,"mslp":1010.8,"hvtl":-49.9,"hvtu":-160.7,"hb":18.3,"idx":-1.8,"cls":4,"psfc":1010.8,"terrain":false,"radius_km":200,"name":"asym cold"},"geometry":{"type":"Point","coordinates":[-49.5,36.5]}},{"type":"Feature","properties":{"kind":"center","id":51,"lat":26.5,"lon":92.5,"mslp":1010.9,"hvtl":-14.5,"hvtu":-103.9,"hb":9.9,"idx":-1.1,"cls":5,"psfc":1003.6,"terrain":false,"radius_km":200,"name":"sym cold"},"geometry":{"type":"Point","coordinates":[92.5,26.5]}},{"type":"Feature","properties":{"kind":"center","id":52,"lat":29.25,"lon":65.75,"mslp":1011.2,"hvtl":-66.8,"hvtu":-79.4,"hb":6.0,"idx":-1.8,"cls":5,"psfc":902.0,"terrain":true,"radius_km":200,"name":"sym cold"},"geometry":{"type":"Point","coordinates":[65.75,29.25]}},{"type":"Feature","properties":{"kind":"center","id":53,"lat":-37.0,"lon":169.0,"mslp":1012.3,"hvtl":-50.0,"hvtu":-145.4,"hb":-2.1,"idx":-1.8,"cls":5,"psfc":1012.3,"terrain":false,"radius_km":200,"name":"sym cold","track":"T120"},"geometry":{"type":"Point","coordinates":[169.0,-37.0]}},{"type":"Feature","properties":{"kind":"center","id":54,"lat":-30.0,"lon":-68.25,"mslp":1012.6,"hvtl":-88.5,"hvtu":-131.0,"hb":26.6,"idx":-2.3,"cls":4,"psfc":907.0,"terrain":true,"radius_km":200,"name":"asym cold"},"geometry":{"type":"Point","coordinates":[-68.25,-30.0]}},{"type":"Feature","properties":{"kind":"center","id":55,"lat":34.5,"lon":0.75,"mslp":1013.8,"hvtl":-55.0,"hvtu":-202.2,"hb":25.3,"idx":-2.0,"cls":4,"psfc":900.3,"terrain":true,"radius_km":200,"name":"asym cold"},"geometry":{"type":"Point","coordinates":[0.75,34.5]}},{"type":"Feature","properties":{"kind":"center","id":56,"lat":-21.0,"lon":-63.75,"mslp":1013.8,"hvtl":-231.8,"hvtu":-158.7,"hb":40.5,"idx":-2.9,"cls":4,"psfc":924.9,"terrain":false,"radius_km":200,"name":"asym cold","track":"T132"},"geometry":{"type":"Point","coordinates":[-63.75,-21.0]}},{"type":"Feature","properties":{"kind":"center","id":57,"lat":-30.75,"lon":-71.0,"mslp":1014.3,"hvtl":-211.0,"hvtu":-158.2,"hb":56.2,"idx":-2.9,"cls":4,"psfc":934.0,"terrain":false,"radius_km":200,"name":"asym cold","track":"T127"},"geometry":{"type":"Point","coordinates":[-71.0,-30.75]}},{"type":"Feature","properties":{"kind":"center","id":58,"lat":63.25,"lon":109.0,"mslp":1014.9,"hvtl":11.8,"hvtu":-30.4,"hb":12.5,"idx":-0.1,"cls":3,"psfc":972.5,"terrain":false,"radius_km":200,"name":"asym shallow warm","track":"T100"},"geometry":{"type":"Point","coordinates":[109.0,63.25]}},{"type":"Feature","properties":{"kind":"center","id":59,"lat":-30.5,"lon":-67.5,"mslp":1015.6,"hvtl":-71.6,"hvtu":-127.5,"hb":19.6,"idx":-2.1,"cls":4,"psfc":902.6,"terrain":true,"radius_km":200,"name":"asym cold"},"geometry":{"type":"Point","coordinates":[-67.5,-30.5]}}]}