{"type":"FeatureCollection","features":[{"type":"Feature","properties":{"kind":"blob","cls":1,"id":1},"geometry":{"type":"Polygon","coordinates":[[[148.0,-65.12],[150.0,-64.62],[151.12,-63.75],[151.12,-62.25],[149.5,-60.62],[146.75,-59.62],[143.0,-59.88],[140.88,-61.5],[141.25,-63.12],[142.75,-63.62],[143.25,-64.38],[148.0,-65.12]]]}},{"type":"Feature","properties":{"kind":"blob","cls":1,"id":2},"geometry":{"type":"MultiPolygon","coordinates":[[[[14.5,-62.12],[14.38,-62.25],[14.5,-62.38],[14.5,-62.12]]],[[[16.75,-66.12],[18.62,-65.0],[18.62,-64.0],[15.5,-62.38],[14.75,-62.38],[14.25,-63.12],[13.75,-63.12],[11.75,-62.38],[11.25,-61.38],[10.0,-61.38],[11.62,-60.0],[11.62,-59.5],[10.5,-58.38],[8.75,-57.88],[6.5,-57.88],[4.75,-58.38],[3.62,-59.5],[3.62,-60.0],[4.75,-61.12],[7.38,-61.75],[5.62,-62.75],[5.62,-63.75],[9.75,-66.12],[16.75,-66.12]]]]}},{"type":"Feature","properties":{"kind":"blob","cls":0,"id":3},"geometry":{"type":"MultiPolygon","coordinates":[[[[141.62,27.75],[141.75,27.62],[141.88,28.0],[141.62,27.75]]],[[[143.0,26.38],[144.25,26.12],[145.88,27.25],[146.12,28.25],[145.0,29.62],[143.5,29.88],[141.88,28.75],[142.62,28.25],[142.62,27.75],[141.88,27.25],[143.0,26.38]]]]}},{"type":"Feature","properties":{"kind":"blob","cls":3,"id":4},"geometry":{"type":"Polygon","coordinates":[[[105.25,-59.88],[106.88,-58.75],[106.88,-57.75],[106.25,-57.12],[103.25,-55.88],[101.5,-55.88],[99.5,-56.62],[98.88,-57.5],[99.12,-58.5],[100.75,-59.62],[105.25,-59.88]]]}},{"type":"Feature","properties":{"kind":"blob","cls":3,"id":5},"geometry":{"type":"Polygon","coordinates":[[[100.0,-55.38],[102.12,-54.5],[102.62,-53.25],[102.38,-52.0],[101.5,-51.12],[98.5,-50.62],[97.0,-51.12],[96.12,-52.0],[95.88,-53.25],[96.62,-54.5],[100.0,-55.38]]]}},{"type":"Feature","properties":{"kind":"blob","cls":0,"id":6},"geometry":{"type":"Polygon","coordinates":[[[-131.75,-58.88],[-129.0,-58.88],[-127.62,-58.0],[-127.38,-56.75],[-129.0,-55.38],[-132.5,-55.38],[-134.12,-56.75],[-134.12,-57.5],[-133.5,-58.38],[-131.75,-58.88]]]}},{"type":"Feature","properties":{"kind":"blob","cls":3,"id":7},"geometry":{"type":"Polygon","coordinates":[[[-154.5,-83.12],[-143.75,-82.12],[-143.12,-81.75],[-143.12,-81.25],[-144.0,-80.62],[-149.0,-78.88],[-152.5,-78.62],[-153.0,-78.12],[-154.25,-77.88],[-155.75,-78.12],[-157.12,-77.75],[-155.25,-77.12],[-151.25,-77.88],[-147.25,-77.62],[-145.25,-77.12],[-144.88,-76.75],[-145.38,-76.25],[-145.0,-75.88],[-143.5,-75.88],[-143.38,-75.25],[-146.5,-74.12],[-152.0,-73.88],[-156.75,-75.88],[-158.75,-76.12],[-160.25,-75.38],[-160.88,-75.75],[-161.12,-76.25],[-160.75,-76.88],[-157.75,-77.88],[-161.5,-77.88],[-168.0,-78.62],[-172.25,-79.62],[-174.62,-80.75],[-174.0,-81.88],[-172.5,-82.38],[-154.5,-83.12]],[[-149.5,-81.88],[-150.62,-81.5],[-147.5,-81.38],[-145.62,-81.75],[-145.75,-81.88],[-149.5,-81.88]]]}},{"type":"Feature","properties":{"kind":"blob","cls":6,"id":8},"geometry":{"type":"Polygon","coordinates":[[[-121.25,-60.38],[-119.62,-59.25],[-119.62,-58.25],[-120.25,-57.62],[-122.25,-56.88],[-125.25,-57.12],[-126.88,-58.25],[-126.88,-59.25],[-125.25,-60.38],[-121.25,-60.38]]]}},{"type":"Feature","properties":{"kind":"blob","cls":4,"id":9},"geometry":{"type":"Polygon","coordinates":[[[-157.5,-69.88],[-153.0,-69.88],[-151.5,-69.38],[-150.62,-68.5],[-150.62,-68.0],[-151.5,-67.12],[-153.0,-66.62],[-157.25,-66.38],[-160.25,-67.12],[-161.12,-68.0],[-161.12,-68.5],[-160.25,-69.38],[-157.5,-69.88]]]}},{"type":"Feature","properties":{"kind":"blob","cls":4,"id":10},"geometry":{"type":"Polygon","coordinates":[[[-147.5,-63.38],[-145.25,-62.88],[-143.75,-62.12],[-142.62,-61.0],[-142.62,-60.0],[-144.25,-58.88],[-145.5,-58.62],[-149.5,-59.12],[-150.5,-59.62],[-152.12,-61.5],[-151.25,-62.62],[-147.5,-63.38]]]}},{"type":"Feature","properties":{"kind":"blob","cls":4,"id":11},"geometry":{"type":"Polygon","coordinates":[[[-124.0,-67.38],[-121.75,-66.88],[-120.12,-65.75],[-119.88,-65.0],[-121.5,-63.38],[-123.75,-62.88],[-127.5,-63.12],[-129.62,-64.5],[-129.88,-65.25],[-129.0,-66.38],[-127.25,-67.12],[-124.0,-67.38]]]}},{"type":"Feature","properties":{"kind":"blob","cls":4,"id":12},"geometry":{"type":"Polygon","coordinates":[[[-20.75,-75.38],[-19.25,-74.62],[-14.88,-73.75],[-15.5,-73.38],[-11.25,-73.12],[-9.62,-71.75],[-10.75,-70.88],[-12.5,-70.38],[-18.75,-70.12],[-23.5,-71.12],[-25.0,-71.88],[-26.12,-73.25],[-26.12,-73.75],[-25.0,-74.62],[-20.75,-75.38]]]}},{"type":"Feature","properties":{"kind":"blob","cls":4,"id":13},"geometry":{"type":"Polygon","coordinates":[[[-103.5,-73.88],[-99.75,-73.12],[-98.25,-72.38],[-97.38,-71.5],[-97.38,-71.0],[-98.5,-69.62],[-99.25,-69.38],[-102.0,-68.88],[-105.0,-68.88],[-109.25,-69.88],[-110.62,-71.0],[-110.88,-72.25],[-110.25,-72.88],[-108.0,-73.62],[-103.5,-73.88]]]}},{"type":"Feature","properties":{"kind":"blob","cls":0,"id":14},"geometry":{"type":"Polygon","coordinates":[[[-116.25,18.38],[-114.88,19.25],[-114.62,20.75],[-115.5,21.88],[-117.0,22.12],[-118.38,21.25],[-118.62,19.75],[-117.75,18.62],[-116.25,18.38]],[[-117.25,18.88],[-117.88,19.75],[-117.25,20.38],[-116.5,20.38],[-116.12,19.25],[-117.25,18.88]]]}},{"type":"Feature","properties":{"kind":"blob","cls":1,"id":15},"geometry":{"type":"Polygon","coordinates":[[[95.0,-66.62],[96.75,-65.38],[98.62,-65.25],[97.75,-64.12],[96.5,-63.62],[92.0,-63.62],[90.75,-64.12],[89.88,-65.25],[90.75,-66.38],[95.0,-66.62]]]}},{"type":"Feature","properties":{"kind":"blob","cls":4,"id":16},"geometry":{"type":"Polygon","coordinates":[[[111.25,-66.62],[111.25,-66.12],[113.5,-66.12],[114.0,-66.62],[114.75,-66.62],[115.62,-65.75],[115.62,-65.25],[114.75,-64.38],[113.5,-63.88],[108.75,-63.62],[106.5,-64.12],[104.88,-65.5],[105.25,-66.38],[111.25,-66.62]]]}},{"type":"Feature","properties":{"kind":"blob","cls":3,"id":17},"geometry":{"type":"Polygon","coordinates":[[[17.0,70.12],[22.25,70.12],[25.5,71.12],[26.12,72.25],[25.0,73.12],[23.25,73.62],[17.25,74.12],[13.75,73.38],[12.12,72.25],[12.75,71.12],[13.75,70.62],[17.0,70.12]]]}},{"type":"Feature","properties":{"kind":"blob","cls":0,"id":18},"geometry":{"type":"Polygon","coordinates":[[[174.75,24.62],[175.88,26.25],[175.62,27.25],[174.0,28.38],[172.75,28.12],[171.62,26.5],[171.88,25.5],[172.75,24.62],[174.75,24.62]]]}},{"type":"Feature","properties":{"kind":"blob","cls":1,"id":19},"geometry":{"type":"Polygon","coordinates":[[[20.5,80.12],[28.5,81.62],[35.5,83.62],[43.88,84.5],[21.0,84.12],[14.0,83.38],[10.88,82.25],[11.0,81.62],[12.25,81.12],[20.5,80.12]]]}},{"type":"Feature","properties":{"kind":"blob","cls":3,"id":20},"geometry":{"type":"Polygon","coordinates":[[[28.75,80.12],[33.0,79.88],[37.5,80.38],[57.5,80.62],[65.25,81.62],[66.75,82.38],[66.88,83.0],[66.25,83.38],[64.75,83.38],[44.75,82.12],[34.5,81.12],[28.75,80.12]]]}},{"type":"Feature","properties":{"kind":"blob","cls":4,"id":21},"geometry":{"type":"Polygon","coordinates":[[[-87.75,-64.88],[-85.75,-64.38],[-84.62,-63.5],[-84.62,-62.5],[-86.5,-61.38],[-89.5,-61.12],[-91.5,-61.62],[-92.62,-62.5],[-92.62,-63.5],[-92.0,-64.12],[-87.75,-64.88]]]}},{"type":"Feature","properties":{"kind":"blob","cls":4,"id":22},"geometry":{"type":"Polygon","coordinates":[[[-32.0,-46.88],[-30.75,-46.38],[-29.62,-45.25],[-29.62,-43.25],[-32.0,-41.88],[-33.25,-41.88],[-36.25,-42.88],[-37.12,-44.25],[-36.62,-45.5],[-35.5,-46.38],[-32.0,-46.88]]]}},{"type":"Feature","properties":{"kind":"blob","cls":1,"id":23},"geometry":{"type":"Polygon","coordinates":[[[44.25,84.62],[46.88,84.75],[46.75,84.88],[44.25,84.62]]]}},{"type":"Feature","properties":{"kind":"blob","cls":4,"id":24},"geometry":{"type":"Polygon","coordinates":[[[-98.25,-57.12],[-96.5,-56.62],[-95.38,-55.5],[-95.38,-54.25],[-96.5,-52.88],[-98.5,-52.12],[-99.75,-52.12],[-101.75,-52.88],[-102.62,-53.75],[-102.88,-54.75],[-101.75,-56.12],[-98.25,-57.12]]]}},{"type":"Feature","properties":{"kind":"blob","cls":4,"id":25},"geometry":{"type":"Polygon","coordinates":[[[-151.75,54.38],[-149.75,54.88],[-148.12,56.25],[-147.88,57.25],[-149.0,58.38],[-150.75,58.88],[-155.5,58.62],[-157.62,56.5],[-156.5,54.88],[-151.75,54.38]]]}},{"type":"Feature","properties":{"kind":"blob","cls":4,"id":26},"geometry":{"type":"Polygon","coordinates":[[[-63.25,48.12],[-61.75,48.62],[-60.88,49.75],[-61.38,51.25],[-62.5,52.38],[-64.0,52.88],[-67.0,52.38],[-67.88,51.25],[-67.62,50.25],[-66.25,48.88],[-63.25,48.12]]]}},{"type":"Feature","properties":{"kind":"blob","cls":4,"id":27},"geometry":{"type":"Polygon","coordinates":[[[141.25,45.12],[142.5,45.62],[143.38,46.5],[143.38,47.75],[142.5,48.62],[141.25,49.12],[139.0,48.88],[138.75,48.12],[138.25,48.38],[137.62,47.75],[138.12,47.5],[137.62,47.25],[137.62,46.5],[138.5,45.62],[141.25,45.12]]]}},{"type":"Feature","properties":{"kind":"blob","cls":5,"id":28},"geometry":{"type":"Polygon","coordinates":[[[72.75,52.88],[75.75,54.12],[76.62,55.0],[76.62,56.5],[75.75,57.38],[74.0,57.88],[72.75,56.88],[71.75,56.88],[71.25,57.62],[68.75,56.62],[67.88,55.75],[67.88,54.5],[70.0,53.12],[72.75,52.88]]]}},{"type":"Feature","properties":{"kind":"blob","cls":4,"id":29},"geometry":{"type":"Polygon","coordinates":[[[-33.0,63.38],[-30.25,64.62],[-29.38,65.5],[-29.38,66.0],[-30.75,67.12],[-33.0,67.62],[-40.62,64.25],[-39.0,63.38],[-33.0,63.38]]]}},{"type":"Feature","properties":{"kind":"blob","cls":1,"id":30},"geometry":{"type":"Polygon","coordinates":[[[-80.62,-40.75],[-81.62,-39.25],[-81.5,-38.38],[-80.38,-38.75],[-79.25,-40.88],[-77.75,-40.38],[-76.88,-39.5],[-76.62,-38.5],[-77.75,-37.12],[-78.5,-36.88],[-82.0,-37.12],[-83.12,-38.25],[-83.38,-39.25],[-82.25,-40.62],[-80.62,-40.75]]]}},{"type":"Feature","properties":{"kind":"blob","cls":4,"id":31},"geometry":{"type":"Polygon","coordinates":[[[-63.25,-17.88],[-62.38,-16.75],[-62.38,-15.5],[-63.12,-14.25],[-65.5,-12.62],[-67.0,-12.12],[-68.25,-12.38],[-69.12,-13.25],[-69.12,-13.75],[-68.12,-14.25],[-67.5,-15.62],[-67.0,-15.62],[-65.5,-17.12],[-63.25,-17.88]]]}},{"type":"Feature","properties":{"kind":"blob","cls":1,"id":32},"geometry":{"type":"Polygon","coordinates":[[[-56.25,-53.88],[-54.75,-53.38],[-53.88,-52.25],[-55.12,-51.5],[-54.12,-50.75],[-55.25,-49.62],[-56.75,-49.12],[-58.75,-49.12],[-60.25,-49.62],[-61.12,-50.75],[-61.12,-52.0],[-59.5,-53.38],[-56.25,-53.88]]]}},{"type":"Feature","properties":{"kind":"blob","cls":4,"id":33},"geometry":{"type":"Polygon","coordinates":[[[27.0,-36.62],[28.25,-36.12],[29.12,-34.75],[28.62,-32.75],[27.75,-32.12],[27.25,-32.62],[25.0,-32.38],[24.38,-33.25],[24.62,-35.5],[25.25,-36.12],[27.0,-36.62]]]}},{"type":"Feature","properties":{"kind":"blob","cls":4,"id":34},"geometry":{"type":"MultiPolygon","coordinates":[[[[138.0,61.12],[137.88,61.0],[138.0,60.88],[138.0,61.12]]],[[[133.25,58.88],[136.5,58.88],[138.38,60.0],[137.75,60.88],[136.88,61.0],[137.5,62.12],[138.12,62.25],[137.38,63.25],[137.5,63.88],[133.75,63.88],[132.25,63.12],[131.12,62.0],[130.62,61.25],[130.62,60.25],[131.5,59.38],[133.25,58.88]],[[137.12,59.75],[137.0,59.62],[136.88,59.75],[137.12,59.75]]]]}},{"type":"Feature","properties":{"kind":"blob","cls":5,"id":35},"geometry":{"type":"Polygon","coordinates":[[[-24.0,69.88],[-22.25,69.88],[-20.62,71.0],[-20.62,71.5],[-22.25,72.62],[-24.75,72.88],[-25.12,72.5],[-24.25,71.88],[-25.25,71.38],[-26.0,71.62],[-26.0,70.62],[-27.88,70.0],[-25.5,70.38],[-23.38,70.0],[-24.0,69.88]]]}},{"type":"Feature","properties":{"kind":"blob","cls":1,"id":36},"geometry":{"type":"Polygon","coordinates":[[[-72.75,-12.38],[-72.25,-11.88],[-71.75,-12.38],[-71.38,-12.0],[-71.12,-10.5],[-71.75,-9.62],[-73.88,-11.0],[-72.75,-12.38]]]}},{"type":"Feature","properties":{"kind":"blob","cls":3,"id":37},"geometry":{"type":"MultiPolygon","coordinates":[[[[66.75,25.12],[68.75,25.12],[69.88,26.75],[69.75,28.38],[71.0,28.12],[73.38,29.5],[73.88,30.25],[73.88,31.5],[73.25,32.38],[70.5,31.88],[69.75,29.62],[68.75,29.62],[68.5,29.12],[67.38,29.25],[66.88,27.0],[65.38,26.75],[65.62,26.0],[66.75,25.12]]],[[[68.5,29.88],[68.38,29.75],[68.5,29.62],[68.5,29.88]]]]}},{"type":"Feature","properties":{"kind":"blob","cls":4,"id":38},"geometry":{"type":"Polygon","coordinates":[[[-26.38,71.0],[-26.25,70.88],[-26.12,71.0],[-26.38,71.0]]]}},{"type":"Feature","properties":{"kind":"blob","cls":4,"id":39},"geometry":{"type":"Polygon","coordinates":[[[-25.25,69.38],[-24.88,69.5],[-25.0,69.62],[-25.25,69.38]]]}},{"type":"Feature","properties":{"kind":"blob","cls":1,"id":40},"geometry":{"type":"Polygon","coordinates":[[[-74.0,-12.38],[-74.0,-11.62],[-74.12,-11.75],[-74.0,-12.38]]]}},{"type":"Feature","properties":{"kind":"blob","cls":4,"id":41},"geometry":{"type":"Polygon","coordinates":[[[-68.5,-32.38],[-67.25,-32.12],[-66.38,-31.25],[-66.62,-30.75],[-66.25,-31.12],[-66.12,-30.25],[-64.62,-29.25],[-64.12,-27.75],[-65.25,-26.38],[-65.88,-27.25],[-65.38,-28.5],[-65.75,-28.38],[-66.25,-28.88],[-66.12,-27.75],[-66.88,-28.0],[-66.62,-29.0],[-67.38,-29.75],[-67.38,-31.25],[-68.12,-31.5],[-67.62,-31.0],[-68.25,-29.88],[-68.62,-30.5],[-68.5,-32.38]]]}},{"type":"Feature","properties":{"kind":"blob","cls":4,"id":42},"geometry":{"type":"Polygon","coordinates":[[[-53.75,68.88],[-51.75,69.62],[-51.38,70.25],[-52.75,71.88],[-54.0,72.62],[-56.75,73.12],[-62.0,72.88],[-64.0,72.12],[-64.62,71.5],[-64.62,71.0],[-63.75,70.12],[-62.75,69.62],[-60.5,68.88],[-53.75,68.88]],[[-53.25,69.62],[-53.88,70.0],[-52.62,69.75],[-53.25,69.62]],[[-52.88,70.5],[-52.12,70.5],[-52.25,70.38],[-52.88,70.5]]]}},{"type":"Feature","properties":{"kind":"blob","cls":0,"id":43},"geometry":{"type":"Polygon","coordinates":[[[-58.75,12.38],[-57.25,12.38],[-56.38,13.5],[-56.62,15.0],[-58.0,15.88],[-59.25,15.62],[-60.12,14.5],[-60.12,13.5],[-59.5,13.38],[-58.75,12.38]]]}},{"type":"Feature","properties":{"kind":"blob","cls":4,"id":44},"geometry":{"type":"Polygon","coordinates":[[[-64.0,-21.38],[-63.62,-21.0],[-64.0,-20.88],[-64.0,-21.38]]]}},{"type":"Feature","properties":{"kind":"blob","cls":3,"id":45},"geometry":{"type":"Polygon","coordinates":[[[-121.25,37.12],[-120.5,37.38],[-120.12,38.0],[-121.88,40.25],[-121.88,41.0],[-123.25,40.88],[-123.5,41.88],[-124.62,41.0],[-124.62,39.0],[-123.5,37.62],[-121.25,37.12]],[[-122.75,39.38],[-123.12,39.5],[-123.5,40.62],[-122.88,40.5],[-122.75,39.38]]]}},{"type":"Feature","properties":{"kind":"blob","cls":1,"id":46},"geometry":{"type":"Polygon","coordinates":[[[49.5,27.62],[52.0,27.38],[52.88,28.25],[51.12,30.0],[51.25,30.38],[50.75,30.38],[49.88,31.25],[49.75,32.12],[49.0,31.88],[47.62,30.25],[47.88,29.0],[49.5,27.62]]]}},{"type":"Feature","properties":{"kind":"blob","cls":1,"id":47},"geometry":{"type":"Polygon","coordinates":[[[-74.38,-11.25],[-74.25,-11.38],[-74.12,-11.25],[-74.38,-11.25]]]}},{"type":"Feature","properties":{"kind":"blob","cls":4,"id":48},"geometry":{"type":"Polygon","coordinates":[[[138.75,60.12],[139.12,60.5],[138.75,60.62],[138.75,60.12]]]}},{"type":"Feature","properties":{"kind":"blob","cls":4,"id":49},"geometry":{"type":"Polygon","coordinates":[[[25.62,-32.25],[25.75,-32.38],[25.88,-32.25],[25.62,-32.25]]]}},{"type":"Feature","properties":{"kind":"blob","cls":3,"id":50},"geometry":{"type":"Polygon","coordinates":[[[-122.62,41.75],[-122.5,41.62],[-122.38,41.75],[-122.62,41.75]]]}},{"type":"Feature","properties":{"kind":"blob","cls":3,"id":51},"geometry":{"type":"Polygon","coordinates":[[[-122.88,42.25],[-122.75,42.12],[-122.62,42.25],[-122.88,42.25]]]}},{"type":"Feature","properties":{"kind":"blob","cls":4,"id":52},"geometry":{"type":"Polygon","coordinates":[[[105.5,54.12],[107.25,54.62],[108.12,55.5],[108.12,57.0],[106.75,58.12],[103.5,58.62],[101.25,57.88],[100.38,57.0],[100.38,56.0],[101.5,54.88],[105.5,54.12]],[[106.75,55.38],[106.62,55.5],[106.75,55.62],[106.75,55.38]]]}},{"type":"Feature","properties":{"kind":"blob","cls":4,"id":53},"geometry":{"type":"Polygon","coordinates":[[[173.75,-44.38],[175.0,-43.88],[176.12,-42.5],[175.88,-41.0],[174.25,-40.12],[173.25,-40.12],[171.75,-40.88],[170.88,-42.0],[170.88,-43.0],[171.5,-42.88],[171.38,-43.75],[173.75,-44.38]],[[172.12,-42.75],[172.75,-41.88],[173.62,-42.0],[172.5,-42.38],[172.12,-42.75]]]}},{"type":"Feature","properties":{"kind":"center","id":1,"lat":-62.0,"lon":146.0,"mslp":939.7,"hvtl":113.5,"hvtu":-30.2,"hb":1.1,"idx":1.3,"cls":1,"psfc":939.7,"terrain":false,"radius_km":200,"name":"sym shallow warm","track":"T04"},"geometry":{"type":"Point","coordinates":[146.0,-62.0]}},{"type":"Feature","properties":{"kind":"center","id":2,"lat":-59.75,"lon":7.75,"mslp":942.3,"hvtl":225.5,"hvtu":-97.1,"hb":6.3,"idx":1.2,"cls":1,"psfc":942.3,"terrain":false,"radius_km":200,"name":"sym shallow warm"},"geometry":{"type":"Point","coordinates":[7.75,-59.75]}},{"type":"Feature","properties":{"kind":"center","id":3,"lat":28.0,"lon":144.0,"mslp":946.6,"hvtl":127.4,"hvtu":198.4,"hb":0.3,"idx":2.7,"cls":0,"psfc":946.6,"terrain":false,"radius_km":200,"name":"sym deep warm","track":"T02"},"geometry":{"type":"Point","coordinates":[144.0,28.0]}},{"type":"Feature","properties":{"kind":"center","id":4,"lat":-58.0,"lon":102.75,"mslp":950.5,"hvtl":120.0,"hvtu":-158.4,"hb":67.2,"idx":0.7,"cls":3,"psfc":950.5,"terrain":false,"radius_km":200,"name":"asym shallow warm","track":"T08"},"geometry":{"type":"Point","coordinates":[102.75,-58.0]}},{"type":"Feature","properties":{"kind":"center","id":5,"lat":-53.25,"lon":99.25,"mslp":953.3,"hvtl":69.8,"hvtu":-252.1,"hb":12.0,"idx":0.2,"cls":3,"psfc":953.3,"terrain":false,"radius_km":200,"name":"asym shallow warm","track":"T14"},"geometry":{"type":"Point","coordinates":[99.25,-53.25]}},{"type":"Feature","properties":{"kind":"center","id":6,"lat":-57.0,"lon":-130.75,"mslp":953.8,"hvtl":207.1,"hvtu":28.7,"hb":-38.0,"idx":2.2,"cls":0,"psfc":953.8,"terrain":false,"radius_km":200,"name":"sym deep warm","track":"T10"},"geometry":{"type":"Point","coordinates":[-130.75,-57.0]}},{"type":"Feature","properties":{"kind":"center","id":7,"lat":-75.75,"lon":-151.75,"mslp":958.9,"hvtl":52.0,"hvtu":-18.0,"hb":33.7,"idx":0.8,"cls":3,"psfc":958.9,"terrain":false,"radius_km":200,"name":"asym shallow warm","track":"T03"},"geometry":{"type":"Point","coordinates":[-151.75,-75.75]}},{"type":"Feature","properties":{"kind":"center","id":8,"lat":-58.75,"lon":-123.25,"mslp":959.2,"hvtl":-68.5,"hvtu":77.1,"hb":19.7,"idx":-0.5,"cls":6,"psfc":959.2,"terrain":false,"radius_km":200,"name":"shallow cold","track":"T19"},"geometry":{"type":"Point","coordinates":[-123.25,-58.75]}},{"type":"Feature","properties":{"kind":"center","id":9,"lat":-68.25,"lon":-156.0,"mslp":963.1,"hvtl":-98.7,"hvtu":-242.8,"hb":39.9,"idx":-2.5,"cls":4,"psfc":963.1,"terrain":false,"radius_km":200,"name":"asym cold","track":"T31"},"geometry":{"type":"Point","coordinates":[-156.0,-68.25]}},{"type":"Feature","properties":{"kind":"center","id":10,"lat":-61.0,"lon":-147.25,"mslp":966.9,"hvtl":-163.8,"hvtu":-280.1,"hb":60.2,"idx":-2.8,"cls":4,"psfc":966.9,"terrain":false,"radius_km":200,"name":"asym cold","track":"T39"},"geometry":{"type":"Point","coordinates":[-147.25,-61.0]}},{"type":"Feature","properties":{"kind":"center","id":11,"lat":-65.0,"lon":-124.75,"mslp":967.1,"hvtl":-20.1,"hvtu":-19.3,"hb":31.2,"idx":-0.6,"cls":4,"psfc":967.1,"terrain":false,"radius_km":200,"name":"asym cold","track":"T25"},"geometry":{"type":"Point","coordinates":[-124.75,-65.0]}},{"type":"Feature","properties":{"kind":"center","id":12,"lat":-73.25,"lon":-18.75,"mslp":967.1,"hvtl":-239.7,"hvtu":-91.6,"hb":60.0,"idx":-2.7,"cls":4,"psfc":961.0,"terrain":false,"radius_km":200,"name":"asym cold","track":"T24"},"geometry":{"type":"Point","coordinates":[-18.75,-73.25]}},{"type":"Feature","properties":{"kind":"center","id":13,"lat":-71.0,"lon":-104.0,"mslp":971.6,"hvtl":-68.7,"hvtu":-248.2,"hb":48.4,"idx":-2.2,"cls":4,"psfc":971.6,"terrain":false,"radius_km":200,"name":"asym cold","track":"T45"},"geometry":{"type":"Point","coordinates":[-104.0,-71.0]}},{"type":"Feature","properties":{"kind":"center","id":14,"lat":20.5,"lon":-116.75,"mslp":972.9,"hvtl":57.7,"hvtu":227.7,"hb":2.2,"idx":2.0,"cls":0,"psfc":972.9,"terrain":false,"radius_km":200,"name":"sym deep warm","track":"T42"},"geometry":{"type":"Point","coordinates":[-116.75,20.5]}},{"type":"Feature","properties":{"kind":"center","id":15,"lat":-64.25,"lon":96.0,"mslp":974.4,"hvtl":74.1,"hvtu":-71.4,"hb":2.6,"idx":0.6,"cls":1,"psfc":974.4,"terrain":false,"radius_km":200,"name":"sym shallow warm"},"geometry":{"type":"Point","coordinates":[96.0,-64.25]}},{"type":"Feature","properties":{"kind":"center","id":16,"lat":-66.0,"lon":115.0,"mslp":974.7,"hvtl":-54.6,"hvtu":-232.7,"hb":19.4,"idx":-2.0,"cls":4,"psfc":974.7,"terrain":false,"radius_km":200,"name":"asym cold"},"geometry":{"type":"Point","coordinates":[115.0,-66.0]}},{"type":"Feature","properties":{"kind":"center","id":17,"lat":72.0,"lon":20.0,"mslp":975.4,"hvtl":145.0,"hvtu":-85.8,"hb":12.7,"idx":1.1,"cls":3,"psfc":975.4,"terrain":false,"radius_km":200,"name":"asym shallow warm","track":"T50"},"geometry":{"type":"Point","coordinates":[20.0,72.0]}},{"type":"Feature","properties":{"kind":"center","id":18,"lat":26.25,"lon":173.75,"mslp":981.3,"hvtl":109.2,"hvtu":201.1,"hb":-6.4,"idx":2.6,"cls":0,"psfc":981.3,"terrain":false,"radius_km":200,"name":"sym deep warm","track":"T44"},"geometry":{"type":"Point","coordinates":[173.75,26.25]}},{"type":"Feature","properties":{"kind":"center","id":19,"lat":82.0,"lon":27.75,"mslp":983.8,"hvtl":234.5,"hvtu":-91.0,"hb":-28.2,"idx":1.2,"cls":1,"psfc":983.8,"terrain":false,"radius_km":200,"name":"sym shallow warm"},"geometry":{"type":"Point","coordinates":[27.75,82.0]}},{"type":"Feature","properties":{"kind":"center","id":20,"lat":82.25,"lon":48.25,"mslp":984.4,"hvtl":27.7,"hvtu":-132.1,"hb":14.4,"idx":-0.3,"cls":3,"psfc":984.4,"terrain":false,"radius_km":200,"name":"asym shallow warm","track":"T63"},"geometry":{"type":"Point","coordinates":[48.25,82.25]}},{"type":"Feature","properties":{"kind":"center","id":21,"lat":-63.25,"lon":-89.0,"mslp":988.7,"hvtl":-51.1,"hvtu":-93.1,"hb":16.0,"idx":-1.7,"cls":4,"psfc":988.7,"terrain":false,"radius_km":200,"name":"asym cold"},"geometry":{"type":"Point","coordinates":[-89.0,-63.25]}},{"type":"Feature","properties":{"kind":"center","id":22,"lat":-44.25,"lon":-32.5,"mslp":989.9,"hvtl":-78.0,"hvtu":-235.6,"hb":54.9,"idx":-2.3,"cls":4,"psfc":989.9,"terrain":false,"radius_km":200,"name":"asym cold","track":"T20"},"geometry":{"type":"Point","coordinates":[-32.5,-44.25]}},{"type":"Feature","properties":{"kind":"center","id":23,"lat":84.75,"lon":46.75,"mslp":990.1,"hvtl":287.6,"hvtu":-161.7,"hb":-53.1,"idx":1.1,"cls":1,"psfc":990.1,"terrain":false,"radius_km":200,"name":"sym shallow warm"},"geometry":{"type":"Point","coordinates":[46.75,84.75]}},{"type":"Feature","properties":{"kind":"center","id":24,"lat":-54.75,"lon":-99.0,"mslp":990.7,"hvtl":-135.4,"hvtu":-183.7,"hb":33.4,"idx":-2.7,"cls":4,"psfc":990.7,"terrain":false,"radius_km":200,"name":"asym cold","track":"T68"},"geometry":{"type":"Point","coordinates":[-99.0,-54.75]}},{"type":"Feature","properties":{"kind":"center","id":25,"lat":57.0,"lon":-153.75,"mslp":992.0,"hvtl":-19.0,"hvtu":-175.7,"hb":13.2,"idx":-1.3,"cls":4,"psfc":970.3,"terrain":false,"radius_km":200,"name":"asym cold","track":"T40"},"geometry":{"type":"Point","coordinates":[-153.75,57.0]}},{"type":"Feature","properties":{"kind":"center","id":26,"lat":50.5,"lon":-64.25,"mslp":994.8,"hvtl":-136.1,"hvtu":-366.4,"hb":67.6,"idx":-2.8,"cls":4,"psfc":968.6,"terrain":false,"radius_km":200,"name":"asym cold","track":"T61"},"geometry":{"type":"Point","coordinates":[-64.25,50.5]}},{"type":"Feature","properties":{"kind":"center","id":27,"lat":47.0,"lon":140.5,"mslp":999.0,"hvtl":-156.5,"hvtu":-363.2,"hb":61.8,"idx":-2.8,"cls":4,"psfc":999.0,"terrain":false,"radius_km":200,"name":"asym cold","track":"T94"},"geometry":{"type":"Point","coordinates":[140.5,47.0]}},{"type":"Feature","properties":{"kind":"center","id":28,"lat":55.5,"lon":72.25,"mslp":1000.2,"hvtl":-63.8,"hvtu":-48.7,"hb":7.9,"idx":-1.6,"cls":5,"psfc":985.9,"terrain":false,"radius_km":200,"name":"sym cold","track":"T84"},"geometry":{"type":"Point","coordinates":[72.25,55.5]}},{"type":"Feature","properties":{"kind":"center","id":29,"lat":65.25,"lon":-35.75,"mslp":1000.6,"hvtl":-51.0,"hvtu":-129.4,"hb":10.3,"idx":-1.8,"cls":4,"psfc":1000.5,"terrain":false,"radius_km":200,"name":"asym cold","track":"T62"},"geometry":{"type":"Point","coordinates":[-35.75,65.25]}},{"type":"Feature","properties":{"kind":"center","id":30,"lat":-39.0,"lon":-80.25,"mslp":1000.7,"hvtl":62.7,"hvtu":-23.3,"hb":6.1,"idx":0.9,"cls":1,"psfc":1000.7,"terrain":false,"radius_km":200,"name":"sym shallow warm","track":"T102"},"geometry":{"type":"Point","coordinates":[-80.25,-39.0]}},{"type":"Feature","properties":{"kind":"center","id":31,"lat":-16.0,"lon":-64.5,"mslp":1002.0,"hvtl":-145.3,"hvtu":-92.9,"hb":19.9,"idx":-2.5,"cls":4,"psfc":981.1,"terrain":false,"radius_km":200,"name":"asym cold","track":"T89"},"geometry":{"type":"Point","coordinates":[-64.5,-16.0]}},{"type":"Feature","properties":{"kind":"center","id":32,"lat":-51.25,"lon":-57.5,"mslp":1002.5,"hvtl":46.0,"hvtu":-20.6,"hb":-13.8,"idx":0.7,"cls":1,"psfc":1002.5,"terrain":false,"radius_km":200,"name":"sym shallow warm","track":"T86"},"geometry":{"type":"Point","coordinates":[-57.5,-51.25]}},{"type":"Feature","properties":{"kind":"center","id":33,"lat":-34.75,"lon":26.5,"mslp":1004.4,"hvtl":-193.5,"hvtu":-165.2,"hb":44.1,"idx":-2.8,"cls":4,"psfc":1004.4,"terrain":false,"radius_km":200,"name":"asym cold"},"geometry":{"type":"Point","coordinates":[26.5,-34.75]}},{"type":"Feature","properties":{"kind":"center","id":34,"lat":61.5,"lon":135.0,"mslp":1004.4,"hvtl":-121.0,"hvtu":-162.0,"hb":73.9,"idx":-2.6,"cls":4,"psfc":975.0,"terrain":false,"radius_km":200,"name":"asym cold"},"geometry":{"type":"Point","coordinates":[135.0,61.5]}},{"type":"Feature","properties":{"kind":"center","id":35,"lat":72.25,"lon":-22.0,"mslp":1004.5,"hvtl":-34.0,"hvtu":-55.3,"hb":4.6,"idx":-1.2,"cls":5,"psfc":1002.7,"terrain":false,"radius_km":200,"name":"sym cold"},"geometry":{"type":"Point","coordinates":[-22.0,72.25]}},{"type":"Feature","properties":{"kind":"center","id":36,"lat":-12.0,"lon":-71.5,"mslp":1005.0,"hvtl":111.1,"hvtu":-61.9,"hb":-3.2,"idx":1.1,"cls":1,"psfc":960.4,"terrain":false,"radius_km":200,"name":"sym shallow warm"},"geometry":{"type":"Point","coordinates":[-71.5,-12.0]}},{"type":"Feature","properties":{"kind":"center","id":37,"lat":31.0,"lon":71.0,"mslp":1005.2,"hvtl":51.7,"hvtu":-102.6,"hb":13.3,"idx":0.2,"cls":3,"psfc":988.3,"terrain":false,"radius_km":200,"name":"asym shallow warm","track":"T103"},"geometry":{"type":"Point","coordinates":[71.0,31.0]}},{"type":"Feature","properties":{"kind":"center","id":38,"lat":71.0,"lon":-26.25,"mslp":1006.1,"hvtl":-40.3,"hvtu":-65.5,"hb":14.5,"idx":-1.3,"cls":4,"psfc":900.5,"terrain":true,"radius_km":200,"name":"asym cold"},"geometry":{"type":"Point","coordinates":[-26.25,71.0]}},{"type":"Feature","properties":{"kind":"center","id":39,"lat":69.5,"lon":-25.0,"mslp":1006.3,"hvtl":-84.2,"hvtu":-25.5,"hb":20.9,"idx":-1.6,"cls":4,"psfc":919.8,"terrain":false,"radius_km":200,"name":"asym cold","track":"T80"},"geometry":{"type":"Point","coordinates":[-25.0,69.5]}},{"type":"Feature","properties":{"kind":"center","id":40,"lat":-11.75,"lon":-74.0,"mslp":1006.7,"hvtl":54.0,"hvtu":-46.4,"hb":-12.9,"idx":0.6,"cls":1,"psfc":933.2,"terrain":false,"radius_km":200,"name":"sym shallow warm"},"geometry":{"type":"Point","coordinates":[-74.0,-11.75]}},{"type":"Feature","properties":{"kind":"center","id":41,"lat":-28.25,"lon":-66.5,"mslp":1007.0,"hvtl":-93.3,"hvtu":-106.7,"hb":23.1,"idx":-2.3,"cls":4,"psfc":924.2,"terrain":false,"radius_km":200,"name":"asym cold","track":"T95"},"geometry":{"type":"Point","coordinates":[-66.5,-28.25]}},{"type":"Feature","properties":{"kind":"center","id":42,"lat":70.75,"lon":-57.25,"mslp":1007.3,"hvtl":-131.5,"hvtu":-127.5,"hb":17.7,"idx":-2.6,"cls":4,"psfc":1007.3,"terrain":false,"radius_km":200,"name":"asym cold","track":"T69"},"geometry":{"type":"Point","coordinates":[-57.25,70.75]}},{"type":"Feature","properties":{"kind":"center","id":43,"lat":14.0,"lon":-58.25,"mslp":1007.6,"hvtl":71.6,"hvtu":28.5,"hb":-13.1,"idx":1.5,"cls":0,"psfc":1007.6,"terrain":false,"radius_km":200,"name":"sym deep warm"},"geometry":{"type":"Point","coordinates":[-58.25,14.0]}},{"type":"Feature","properties":{"kind":"center","id":44,"lat":-21.0,"lon":-64.0,"mslp":1007.7,"hvtl":-149.3,"hvtu":-137.5,"hb":34.7,"idx":-2.7,"cls":4,"psfc":917.5,"terrain":true,"radius_km":200,"name":"asym cold"},"geometry":{"type":"Point","coordinates":[-64.0,-21.0]}},{"type":"Feature","properties":{"kind":"center","id":45,"lat":39.75,"lon":-122.0,"mslp":1007.9,"hvtl":112.0,"hvtu":-214.6,"hb":18.0,"idx":0.6,"cls":3,"psfc":1002.8,"terrain":false,"radius_km":200,"name":"asym shallow warm"},"geometry":{"type":"Point","coordinates":[-122.0,39.75]}},{"type":"Feature","properties":{"kind":"center","id":46,"lat":29.0,"lon":50.75,"mslp":1008.0,"hvtl":72.3,"hvtu":-88.6,"hb":-1.2,"idx":0.5,"cls":1,"psfc":1008.0,"terrain":false,"radius_km":200,"name":"sym shallow warm"},"geometry":{"type":"Point","coordinates":[50.75,29.0]}},{"type":"Feature","properties":{"kind":"center","id":47,"lat":-11.25,"lon":-74.25,"mslp":1008.9,"hvtl":48.1,"hvtu":-36.1,"hb":-13.4,"idx":0.5,"cls":1,"psfc":902.6,"terrain":true,"radius_km":200,"name":"sym shallow warm"},"geometry":{"type":"Point","coordinates":[-74.25,-11.25]}},{"type":"Feature","properties":{"kind":"center","id":48,"lat":60.5,"lon":139.0,"mslp":1009.5,"hvtl":-296.6,"hvtu":-336.9,"hb":93.6,"idx":-3.0,"cls":4,"psfc":901.1,"terrain":true,"radius_km":200,"name":"asym cold"},"geometry":{"type":"Point","coordinates":[139.0,60.5]}},{"type":"Feature","properties":{"kind":"center","id":49,"lat":-32.25,"lon":25.75,"mslp":1009.7,"hvtl":-111.4,"hvtu":-121.9,"hb":22.6,"idx":-2.5,"cls":4,"psfc":900.3,"terrain":true,"radius_km":200,"name":"asym cold"},"geometry":{"type":"Point","coordinates":[25.75,-32.25]}},{"type":"Feature","properties":{"kind":"center","id":50,"lat":41.75,"lon":-122.5,"mslp":1011.1,"hvtl":117.9,"hvtu":-113.5,"hb":40.0,"idx":0.8,"cls":3,"psfc":912.8,"terrain":true,"radius_km":200,"name":"asym shallow warm"},"geometry":{"type":"Point","coordinates":[-122.5,41.75]}},{"type":"Feature","properties":{"kind":"center","id":51,"lat":42.25,"lon":-122.75,"mslp":1013.4,"hvtl":107.9,"hvtu":-96.5,"hb":44.1,"idx":0.8,"cls":3,"psfc":914.4,"terrain":true,"radius_km":200,"name":"asym shallow warm"},"geometry":{"type":"Point","coordinates":[-122.75,42.25]}},{"type":"Feature","properties":{"kind":"center","id":52,"lat":56.5,"lon":103.75,"mslp":1013.7,"hvtl":-248.4,"hvtu":-226.5,"hb":70.7,"idx":-3.0,"cls":4,"psfc":953.2,"terrain":false,"radius_km":200,"name":"asym cold"},"geometry":{"type":"Point","coordinates":[103.75,56.5]}},{"type":"Feature","properties":{"kind":"center","id":53,"lat":-43.75,"lon":171.5,"mslp":1019.8,"hvtl":-83.7,"hvtu":-103.2,"hb":23.3,"idx":-2.1,"cls":4,"psfc":984.8,"terrain":false,"radius_km":200,"name":"asym cold"},"geometry":{"type":"Point","coordinates":[171.5,-43.75]}}]}