{"type":"FeatureCollection","features":[{"type":"Feature","properties":{"kind":"blob","cls":3,"id":1},"geometry":{"type":"Polygon","coordinates":[[[-126.75,-61.62],[-125.0,-61.12],[-123.88,-60.0],[-123.88,-59.25],[-125.0,-58.12],[-127.25,-57.38],[-129.75,-57.38],[-131.5,-57.88],[-132.38,-58.75],[-132.62,-59.75],[-131.25,-61.12],[-126.75,-61.62]]]}},{"type":"Feature","properties":{"kind":"blob","cls":4,"id":2},"geometry":{"type":"Polygon","coordinates":[[[-156.25,-82.88],[-147.62,-82.0],[-151.5,-81.88],[-152.0,-81.38],[-142.75,-81.38],[-142.12,-81.0],[-143.12,-80.25],[-143.25,-79.62],[-148.25,-79.62],[-149.25,-78.88],[-151.75,-78.88],[-153.0,-78.62],[-153.5,-78.12],[-157.38,-77.75],[-155.75,-77.12],[-150.75,-77.88],[-145.0,-77.62],[-144.88,-77.0],[-145.62,-76.5],[-145.25,-75.88],[-140.62,-75.75],[-143.5,-74.88],[-149.0,-74.62],[-153.25,-75.38],[-157.0,-75.38],[-162.0,-76.12],[-163.5,-76.62],[-164.38,-77.5],[-162.75,-78.62],[-157.62,-79.75],[-158.0,-80.12],[-162.25,-80.62],[-164.12,-81.75],[-163.5,-82.38],[-156.25,-82.88]]]}},{"type":"Feature","properties":{"kind":"blob","cls":3,"id":3},"geometry":{"type":"Polygon","coordinates":[[[-5.75,-57.88],[-4.0,-57.38],[-3.12,-56.5],[-3.12,-55.25],[-4.75,-53.88],[-7.5,-53.12],[-7.88,-52.75],[-7.88,-51.75],[-9.75,-49.88],[-10.75,-49.38],[-13.75,-49.12],[-15.25,-49.62],[-15.88,-50.25],[-16.12,-52.5],[-14.75,-53.88],[-12.0,-54.62],[-9.75,-56.88],[-8.25,-57.62],[-5.75,-57.88]]]}},{"type":"Feature","properties":{"kind":"blob","cls":4,"id":4},"geometry":{"type":"Polygon","coordinates":[[[-127.5,-70.38],[-125.0,-69.88],[-123.12,-68.5],[-123.12,-68.0],[-124.0,-67.12],[-125.75,-66.38],[-129.75,-66.12],[-133.5,-67.12],[-134.38,-68.0],[-134.38,-68.75],[-133.5,-69.62],[-127.5,-70.38]]]}},{"type":"Feature","properties":{"kind":"blob","cls":4,"id":5},"geometry":{"type":"Polygon","coordinates":[[[-166.25,-65.12],[-163.5,-64.62],[-160.5,-63.38],[-159.88,-62.0],[-161.0,-60.88],[-164.5,-60.38],[-167.75,-61.38],[-170.25,-61.62],[-172.12,-62.75],[-172.12,-63.75],[-171.5,-64.38],[-166.25,-65.12]]]}},{"type":"Feature","properties":{"kind":"blob","cls":3,"id":6},"geometry":{"type":"Polygon","coordinates":[[[110.5,-66.62],[111.25,-66.12],[113.0,-65.88],[113.88,-65.25],[113.88,-64.0],[111.25,-62.62],[108.0,-62.38],[106.38,-62.75],[109.5,-63.38],[110.38,-64.25],[104.38,-64.25],[104.38,-65.0],[106.0,-66.12],[110.5,-66.62]]]}},{"type":"Feature","properties":{"kind":"blob","cls":0,"id":7},"geometry":{"type":"Polygon","coordinates":[[[146.0,19.12],[147.5,19.12],[148.38,20.25],[148.12,22.0],[146.75,22.88],[145.5,22.62],[144.62,21.5],[144.88,19.75],[146.0,19.12]],[[145.75,21.12],[145.12,21.75],[146.0,22.12],[146.12,21.5],[145.75,21.12]]]}},{"type":"Feature","properties":{"kind":"blob","cls":4,"id":8},"geometry":{"type":"Polygon","coordinates":[[[-17.25,-71.62],[-15.25,-70.88],[-14.62,-70.0],[-15.25,-69.12],[-17.25,-68.38],[-22.25,-68.12],[-25.0,-68.62],[-26.0,-69.12],[-26.62,-70.0],[-26.0,-70.88],[-25.0,-71.38],[-17.25,-71.62]]]}},{"type":"Feature","properties":{"kind":"blob","cls":4,"id":9},"geometry":{"type":"Polygon","coordinates":[[[88.25,-56.62],[92.5,-56.88],[94.75,-56.38],[95.75,-55.88],[96.38,-55.0],[96.12,-53.5],[95.5,-52.62],[93.0,-51.62],[90.0,-52.12],[86.75,-53.62],[85.88,-54.5],[85.88,-55.5],[86.5,-56.12],[88.25,-56.62]]]}},{"type":"Feature","properties":{"kind":"blob","cls":4,"id":10},"geometry":{"type":"Polygon","coordinates":[[[127.25,-61.62],[129.0,-61.12],[130.12,-60.0],[130.12,-59.5],[127.25,-57.38],[124.5,-57.12],[122.75,-57.62],[121.88,-58.5],[121.88,-59.75],[123.25,-60.88],[127.25,-61.62]]]}},{"type":"Feature","properties":{"kind":"blob","cls":0,"id":11},"geometry":{"type":"Polygon","coordinates":[[[-111.0,18.12],[-110.12,19.25],[-110.38,20.75],[-111.75,21.62],[-113.0,21.38],[-113.88,20.25],[-113.75,19.62],[-112.5,19.88],[-112.12,19.5],[-112.12,19.0],[-113.12,18.25],[-111.0,18.12]]]}},{"type":"Feature","properties":{"kind":"blob","cls":5,"id":12},"geometry":{"type":"Polygon","coordinates":[[[175.5,50.38],[177.0,50.88],[178.12,52.0],[178.12,53.0],[177.0,54.12],[175.5,54.62],[172.75,54.12],[171.62,53.0],[171.62,52.0],[172.75,50.88],[175.5,50.38]]]}},{"type":"Feature","properties":{"kind":"blob","cls":4,"id":13},"geometry":{"type":"Polygon","coordinates":[[[72.5,-59.88],[75.5,-59.38],[76.88,-58.5],[77.12,-57.25],[76.5,-56.38],[73.5,-55.38],[69.75,-55.62],[67.38,-57.0],[67.12,-58.0],[67.75,-58.88],[72.5,-59.88]]]}},{"type":"Feature","properties":{"kind":"blob","cls":4,"id":14},"geometry":{"type":"Polygon","coordinates":[[[170.5,-73.88],[173.25,-73.38],[174.5,-72.88],[175.12,-71.75],[173.75,-70.62],[170.25,-69.88],[165.0,-70.38],[170.62,-71.75],[169.88,-72.25],[170.25,-72.62],[169.25,-73.12],[168.5,-72.88],[166.62,-73.25],[166.75,-73.62],[170.5,-73.88]],[[169.75,-73.62],[169.62,-73.5],[169.75,-73.38],[169.75,-73.62]]]}},{"type":"Feature","properties":{"kind":"blob","cls":4,"id":15},"geometry":{"type":"Polygon","coordinates":[[[46.0,-64.12],[48.0,-63.62],[48.88,-63.0],[49.12,-61.75],[48.25,-60.88],[46.0,-60.12],[43.0,-60.38],[41.12,-61.5],[40.88,-62.5],[41.25,-63.12],[42.75,-63.88],[46.0,-64.12]]]}},{"type":"Feature","properties":{"kind":"blob","cls":3,"id":16},"geometry":{"type":"Polygon","coordinates":[[[-26.75,61.62],[-24.75,62.12],[-21.88,64.0],[-21.88,65.25],[-23.25,66.38],[-25.5,66.88],[-29.75,66.38],[-31.88,65.0],[-32.12,63.5],[-30.5,62.12],[-26.75,61.62]]]}},{"type":"Feature","properties":{"kind":"blob","cls":5,"id":17},"geometry":{"type":"Polygon","coordinates":[[[14.88,-70.5],[15.0,-70.88],[23.25,-70.62],[24.25,-69.12],[27.12,-68.0],[20.25,-68.12],[15.75,-69.62],[14.88,-70.5]]]}},{"type":"Feature","properties":{"kind":"blob","cls":0,"id":18},"geometry":{"type":"Polygon","coordinates":[[[-170.75,21.38],[-169.88,22.25],[-169.88,23.75],[-171.5,24.88],[-172.75,24.62],[-173.62,23.75],[-173.62,22.25],[-172.75,21.38],[-170.75,21.38]]]}},{"type":"Feature","properties":{"kind":"blob","cls":4,"id":19},"geometry":{"type":"Polygon","coordinates":[[[61.25,-67.38],[61.88,-66.75],[61.88,-65.75],[59.75,-64.62],[55.25,-64.38],[53.25,-64.88],[51.88,-65.75],[52.0,-66.38],[55.25,-66.12],[55.88,-66.5],[56.0,-67.12],[61.25,-67.38]]]}},{"type":"Feature","properties":{"kind":"blob","cls":6,"id":20},"geometry":{"type":"Polygon","coordinates":[[[116.0,71.12],[121.75,71.12],[124.75,72.12],[125.38,73.25],[123.75,74.38],[122.0,74.88],[116.75,75.12],[113.0,74.38],[111.38,73.25],[111.62,72.25],[112.5,71.62],[116.0,71.12]],[[119.75,72.62],[119.62,73.0],[122.25,73.12],[122.88,72.75],[122.75,72.38],[119.75,72.62]]]}},{"type":"Feature","properties":{"kind":"blob","cls":4,"id":21},"geometry":{"type":"Polygon","coordinates":[[[162.5,-71.38],[162.25,-70.62],[163.25,-70.62],[164.5,-71.12],[164.62,-69.5],[163.75,-68.62],[160.5,-67.88],[156.75,-68.12],[154.88,-69.0],[155.5,-69.38],[156.25,-69.12],[159.5,-69.62],[162.5,-71.38]]]}},{"type":"Feature","properties":{"kind":"blob","cls":2,"id":22},"geometry":{"type":"MultiPolygon","coordinates":[[[[-60.75,64.62],[-56.25,64.62],[-54.5,65.38],[-53.88,66.5],[-54.5,67.38],[-57.5,68.38],[-61.75,68.12],[-63.88,67.0],[-63.12,66.5],[-63.62,66.0],[-63.25,65.38],[-60.75,64.62]]],[[[-64.0,66.62],[-64.12,66.5],[-64.0,66.38],[-64.0,66.62]]]]}},{"type":"Feature","properties":{"kind":"blob","cls":4,"id":23},"geometry":{"type":"Polygon","coordinates":[[[-104.75,-48.88],[-103.5,-48.38],[-102.62,-47.5],[-102.62,-46.25],[-103.5,-45.38],[-104.75,-44.88],[-107.25,-45.38],[-108.12,-46.25],[-108.12,-47.5],[-107.25,-48.38],[-104.75,-48.88]]]}},{"type":"Feature","properties":{"kind":"blob","cls":4,"id":24},"geometry":{"type":"Polygon","coordinates":[[[-51.25,68.88],[-51.12,69.25],[-52.0,70.38],[-53.38,70.5],[-51.88,70.75],[-53.0,71.88],[-54.25,71.88],[-54.0,72.62],[-57.25,74.12],[-59.12,72.25],[-59.12,71.25],[-58.25,70.62],[-55.5,69.38],[-51.25,68.88]],[[-54.12,70.0],[-53.0,70.12],[-52.62,69.75],[-54.12,70.0]]]}},{"type":"Feature","properties":{"kind":"blob","cls":3,"id":25},"geometry":{"type":"Polygon","coordinates":[[[-152.0,53.12],[-149.0,54.12],[-147.62,55.5],[-147.62,56.75],[-148.75,57.88],[-150.5,58.38],[-152.0,58.38],[-154.75,57.62],[-155.12,56.75],[-155.75,56.62],[-156.12,56.0],[-156.12,54.5],[-154.5,53.38],[-152.0,53.12]]]}},{"type":"Feature","properties":{"kind":"blob","cls":5,"id":26},"geometry":{"type":"Polygon","coordinates":[[[-69.0,73.12],[-68.38,75.0],[-66.12,76.5],[-68.75,77.12],[-72.25,76.88],[-75.5,76.12],[-76.62,75.25],[-76.62,74.75],[-75.5,73.88],[-69.0,73.12]]]}},{"type":"Feature","properties":{"kind":"blob","cls":4,"id":27},"geometry":{"type":"MultiPolygon","coordinates":[[[[-65.25,73.62],[-65.38,73.5],[-65.25,73.38],[-65.25,73.62]]],[[[-65.12,73.75],[-62.0,73.88],[-60.25,74.62],[-59.88,75.25],[-60.25,75.88],[-62.0,76.38],[-65.12,73.75]]]]}},{"type":"Feature","properties":{"kind":"blob","cls":4,"id":28},"geometry":{"type":"Polygon","coordinates":[[[149.75,72.62],[153.0,73.12],[154.25,73.62],[155.12,74.5],[155.12,75.0],[154.25,75.88],[152.0,76.88],[147.5,77.62],[140.75,77.38],[138.75,76.88],[137.38,75.75],[137.75,75.12],[139.75,74.12],[142.75,73.12],[149.75,72.62]]]}},{"type":"Feature","properties":{"kind":"blob","cls":3,"id":29},"geometry":{"type":"MultiPolygon","coordinates":[[[[-25.75,71.62],[-25.88,71.5],[-25.75,71.38],[-25.75,71.62]]],[[[-19.25,70.38],[-16.5,70.88],[-14.5,71.88],[-13.62,72.75],[-13.62,73.25],[-15.25,74.38],[-17.0,74.88],[-21.5,75.12],[-21.38,74.75],[-22.0,74.38],[-24.0,74.12],[-24.88,72.5],[-24.12,72.0],[-25.62,71.25],[-24.25,70.62],[-19.25,70.38]],[[-23.5,73.62],[-23.62,73.75],[-23.0,73.88],[-23.5,73.62]]]]}},{"type":"Feature","properties":{"kind":"blob","cls":4,"id":30},"geometry":{"type":"MultiPolygon","coordinates":[[[[147.75,64.88],[147.62,64.75],[147.75,64.62],[147.75,64.88]]],[[[149.12,63.25],[149.75,62.88],[152.0,63.38],[153.12,64.25],[153.12,65.25],[150.75,66.62],[146.25,66.62],[149.38,65.25],[149.0,64.62],[147.88,64.5],[149.62,63.75],[149.12,63.25]]]]}},{"type":"Feature","properties":{"kind":"blob","cls":3,"id":31},"geometry":{"type":"Polygon","coordinates":[[[148.62,65.0],[148.75,64.88],[148.88,65.0],[148.62,65.0]]]}},{"type":"Feature","properties":{"kind":"blob","cls":1,"id":32},"geometry":{"type":"Polygon","coordinates":[[[-62.25,-23.88],[-61.38,-23.0],[-61.38,-21.5],[-62.88,-20.5],[-61.62,-19.75],[-61.38,-18.0],[-62.25,-16.88],[-63.0,-16.62],[-64.62,-17.25],[-63.38,-18.25],[-63.88,-19.0],[-63.12,-19.5],[-63.38,-20.75],[-64.12,-21.0],[-63.62,-21.75],[-64.62,-23.75],[-62.25,-23.88]]]}},{"type":"Feature","properties":{"kind":"blob","cls":3,"id":33},"geometry":{"type":"MultiPolygon","coordinates":[[[[147.38,65.0],[147.0,65.62],[146.38,65.5],[147.38,65.0]]],[[[144.88,66.0],[144.75,65.62],[146.38,65.75],[145.75,66.12],[144.88,66.0]]]]}},{"type":"Feature","properties":{"kind":"blob","cls":4,"id":34},"geometry":{"type":"Polygon","coordinates":[[[143.75,57.12],[147.25,57.12],[148.88,58.25],[149.12,59.75],[148.25,60.88],[146.5,60.62],[146.0,61.12],[144.5,60.62],[144.5,60.12],[143.25,60.88],[141.5,60.38],[140.75,61.12],[139.62,60.25],[139.88,59.25],[141.5,57.62],[143.75,57.12]]]}},{"type":"Feature","properties":{"kind":"blob","cls":4,"id":35},"geometry":{"type":"Polygon","coordinates":[[[-66.5,76.88],[-66.12,77.0],[-66.25,77.12],[-66.5,76.88]]]}},{"type":"Feature","properties":{"kind":"blob","cls":4,"id":36},"geometry":{"type":"Polygon","coordinates":[[[6.75,68.12],[11.0,68.12],[12.5,68.62],[13.88,70.0],[13.25,70.88],[12.25,71.38],[6.75,71.88],[4.0,71.38],[3.0,70.88],[2.38,70.0],[3.75,68.62],[6.75,68.12]]]}},{"type":"Feature","properties":{"kind":"blob","cls":4,"id":37},"geometry":{"type":"Polygon","coordinates":[[[71.75,77.62],[75.25,78.38],[76.12,79.0],[76.12,79.75],[71.25,81.38],[64.0,82.12],[55.25,81.88],[52.25,81.38],[50.38,80.5],[50.5,79.88],[52.5,78.88],[59.75,77.62],[71.75,77.62]]]}},{"type":"Feature","properties":{"kind":"blob","cls":3,"id":38},"geometry":{"type":"Polygon","coordinates":[[[-67.0,-30.12],[-65.5,-30.12],[-64.62,-29.25],[-64.38,-28.0],[-65.25,-26.88],[-65.88,-27.25],[-65.38,-28.25],[-65.5,-28.88],[-65.75,-28.38],[-66.38,-28.75],[-66.5,-27.62],[-66.88,-28.0],[-66.62,-29.0],[-67.0,-30.12]]]}},{"type":"Feature","properties":{"kind":"blob","cls":5,"id":39},"geometry":{"type":"Polygon","coordinates":[[[-59.5,-66.38],[-55.5,-65.88],[-53.88,-65.0],[-53.62,-64.0],[-54.0,-63.38],[-55.75,-62.38],[-59.75,-62.12],[-62.5,-62.88],[-64.38,-64.0],[-64.38,-65.0],[-63.25,-65.38],[-60.0,-63.88],[-58.88,-64.0],[-62.0,-64.88],[-62.88,-65.75],[-62.5,-66.12],[-59.5,-66.38]]]}},{"type":"Feature","properties":{"kind":"blob","cls":1,"id":40},"geometry":{"type":"Polygon","coordinates":[[[-72.75,-12.38],[-72.12,-11.25],[-73.0,-10.12],[-74.25,-9.88],[-74.12,-10.75],[-72.75,-12.38]]]}},{"type":"Feature","properties":{"kind":"blob","cls":3,"id":41},"geometry":{"type":"Polygon","coordinates":[[[-74.0,-12.38],[-74.0,-11.62],[-74.12,-11.75],[-74.0,-12.38]]]}},{"type":"Feature","properties":{"kind":"blob","cls":4,"id":42},"geometry":{"type":"Polygon","coordinates":[[[62.0,55.38],[64.25,55.88],[65.62,56.75],[65.88,57.75],[65.25,58.62],[63.25,59.38],[59.0,59.12],[57.62,58.25],[57.38,57.0],[58.0,56.12],[62.0,55.38]]]}},{"type":"Feature","properties":{"kind":"blob","cls":1,"id":43},"geometry":{"type":"Polygon","coordinates":[[[-74.38,-11.25],[-74.25,-11.38],[-74.12,-11.25],[-74.38,-11.25]]]}},{"type":"Feature","properties":{"kind":"blob","cls":4,"id":44},"geometry":{"type":"MultiPolygon","coordinates":[[[[66.75,25.38],[68.5,25.38],[69.62,26.5],[70.0,28.88],[71.0,28.62],[73.12,29.5],[73.62,30.25],[73.62,31.25],[72.75,32.38],[70.5,31.88],[69.75,29.62],[68.75,29.62],[68.0,30.12],[67.38,29.75],[66.88,27.0],[65.62,26.75],[65.62,26.25],[66.75,25.38]]],[[[68.75,30.12],[68.62,30.0],[68.75,29.88],[68.75,30.12]]]]}},{"type":"Feature","properties":{"kind":"blob","cls":1,"id":45},"geometry":{"type":"Polygon","coordinates":[[[-75.12,-10.25],[-75.0,-10.62],[-74.62,-10.5],[-74.75,-10.12],[-75.12,-10.25]]]}},{"type":"Feature","properties":{"kind":"blob","cls":1,"id":46},"geometry":{"type":"MultiPolygon","coordinates":[[[[57.75,28.12],[58.38,28.25],[57.75,28.88],[57.75,28.12]]],[[[58.75,28.12],[58.38,28.0],[59.25,27.88],[60.12,28.5],[59.62,30.5],[59.88,31.0],[59.5,31.38],[58.5,31.12],[57.88,30.5],[57.88,29.75],[58.38,29.5],[58.75,28.12]]]]}},{"type":"Feature","properties":{"kind":"blob","cls":5,"id":47},"geometry":{"type":"Polygon","coordinates":[[[-148.5,72.88],[-144.0,73.88],[-142.62,75.25],[-143.0,75.88],[-144.75,76.62],[-148.25,77.12],[-158.75,77.12],[-162.25,76.62],[-164.12,75.75],[-157.25,75.62],[-155.5,75.12],[-155.75,74.38],[-156.75,74.12],[-162.62,73.75],[-160.75,73.12],[-148.5,72.88]]]}},{"type":"Feature","properties":{"kind":"blob","cls":4,"id":48},"geometry":{"type":"Polygon","coordinates":[[[39.25,22.38],[39.88,23.0],[40.12,24.0],[40.12,25.0],[39.75,24.88],[39.25,25.88],[38.5,26.12],[37.0,25.88],[36.12,25.0],[36.12,23.5],[37.25,22.38],[39.25,22.38]],[[39.0,24.38],[38.88,24.5],[39.0,24.62],[39.0,24.38]],[[39.5,23.62],[39.38,23.75],[39.5,23.88],[39.5,23.62]]]}},{"type":"Feature","properties":{"kind":"blob","cls":5,"id":49},"geometry":{"type":"Polygon","coordinates":[[[83.75,25.12],[85.0,25.62],[86.12,27.25],[84.5,27.88],[83.0,27.88],[81.5,28.88],[79.25,29.38],[78.62,27.0],[79.75,25.38],[83.75,25.12]]]}},{"type":"Feature","properties":{"kind":"blob","cls":0,"id":50},"geometry":{"type":"Polygon","coordinates":[[[41.38,11.5],[41.5,11.12],[42.0,11.12],[42.88,12.0],[43.12,13.5],[42.25,14.62],[40.5,15.12],[39.88,14.75],[39.88,12.0],[41.38,11.5]]]}},{"type":"Feature","properties":{"kind":"blob","cls":4,"id":51},"geometry":{"type":"Polygon","coordinates":[[[68.25,40.62],[69.88,41.5],[69.62,41.75],[70.12,42.25],[70.12,43.0],[69.5,43.88],[67.25,44.38],[65.62,43.5],[65.62,41.5],[68.25,40.62]],[[68.5,43.62],[68.38,43.75],[68.75,43.88],[68.5,43.62]]]}},{"type":"Feature","properties":{"kind":"blob","cls":5,"id":52},"geometry":{"type":"Polygon","coordinates":[[[65.5,28.12],[65.5,28.88],[65.38,28.75],[65.5,28.12]]]}},{"type":"Feature","properties":{"kind":"blob","cls":5,"id":53},"geometry":{"type":"MultiPolygon","coordinates":[[[[61.75,30.88],[61.62,30.75],[61.75,30.62],[61.75,30.88]]],[[[61.38,31.0],[61.5,30.88],[61.62,31.25],[61.38,31.0]]]]}},{"type":"Feature","properties":{"kind":"blob","cls":4,"id":54},"geometry":{"type":"Polygon","coordinates":[[[122.25,38.62],[123.62,40.0],[123.62,41.25],[122.5,42.38],[119.75,42.38],[118.38,41.0],[118.38,40.0],[119.75,38.62],[122.25,38.62]]]}},{"type":"Feature","properties":{"kind":"blob","cls":5,"id":55},"geometry":{"type":"Polygon","coordinates":[[[93.0,25.88],[94.0,25.62],[94.38,26.25],[92.5,26.88],[92.38,26.5],[93.0,25.88]]]}},{"type":"Feature","properties":{"kind":"blob","cls":5,"id":56},"geometry":{"type":"Polygon","coordinates":[[[63.0,29.62],[63.38,30.0],[62.5,30.38],[62.38,30.0],[63.0,29.62]]]}},{"type":"Feature","properties":{"kind":"blob","cls":4,"id":57},"geometry":{"type":"Polygon","coordinates":[[[56.75,34.38],[57.12,35.0],[56.62,35.5],[56.88,36.25],[56.5,36.62],[55.12,35.25],[56.75,34.38]]]}},{"type":"Feature","properties":{"kind":"blob","cls":4,"id":58},"geometry":{"type":"MultiPolygon","coordinates":[[[[63.5,35.38],[65.0,35.88],[67.88,38.0],[67.75,38.38],[66.75,37.62],[66.38,37.75],[66.62,38.75],[67.12,39.0],[66.5,40.12],[64.75,40.38],[63.25,39.88],[61.62,38.5],[61.62,36.5],[63.5,35.38]]],[[[67.0,39.62],[66.88,39.5],[67.0,39.38],[67.0,39.62]]]]}},{"type":"Feature","properties":{"kind":"blob","cls":1,"id":59},"geometry":{"type":"MultiPolygon","coordinates":[[[[61.0,30.12],[60.88,30.0],[61.0,29.88],[61.0,30.12]]],[[[60.75,30.12],[60.88,31.0],[60.5,31.38],[60.38,31.0],[60.75,30.12]]]]}},{"type":"Feature","properties":{"kind":"blob","cls":4,"id":60},"geometry":{"type":"Polygon","coordinates":[[[95.12,25.5],[95.25,25.38],[95.38,25.5],[95.12,25.5]]]}},{"type":"Feature","properties":{"kind":"blob","cls":1,"id":61},"geometry":{"type":"MultiPolygon","coordinates":[[[[17.5,-30.62],[18.5,-30.88],[19.88,-30.0],[19.88,-29.0],[20.38,-28.75],[19.5,-27.62],[18.0,-27.88],[17.75,-27.38],[17.25,-27.38],[16.38,-28.25],[16.12,-29.25],[17.5,-30.62]],[[18.38,-30.25],[18.25,-30.38],[18.12,-30.25],[18.38,-30.25]],[[19.62,-29.5],[19.5,-29.62],[19.38,-29.5],[19.62,-29.5]]],[[[18.0,-27.12],[17.88,-27.25],[18.0,-27.38],[18.0,-27.12]]]]}},{"type":"Feature","properties":{"kind":"blob","cls":4,"id":62},"geometry":{"type":"Polygon","coordinates":[[[49.0,29.62],[50.12,30.75],[49.88,32.0],[47.75,33.38],[47.25,32.88],[46.5,32.88],[45.88,32.0],[45.88,30.75],[46.38,30.0],[49.0,29.62]]]}},{"type":"Feature","properties":{"kind":"blob","cls":5,"id":63},"geometry":{"type":"Polygon","coordinates":[[[65.62,29.25],[65.75,29.12],[65.88,29.5],[65.62,29.25]]]}},{"type":"Feature","properties":{"kind":"blob","cls":4,"id":64},"geometry":{"type":"MultiPolygon","coordinates":[[[[61.25,32.88],[61.12,32.75],[61.25,32.62],[61.25,32.88]]],[[[61.88,32.75],[61.75,32.88],[61.62,32.75],[61.88,32.75]]],[[[61.38,33.25],[61.5,32.88],[61.62,33.0],[61.38,33.25]]]]}},{"type":"Feature","properties":{"kind":"blob","cls":3,"id":65},"geometry":{"type":"Polygon","coordinates":[[[150.0,-41.12],[151.62,-40.0],[151.88,-38.5],[150.75,-37.12],[148.25,-36.88],[146.62,-38.0],[146.62,-39.5],[148.0,-38.88],[147.88,-40.75],[150.0,-41.12]]]}},{"type":"Feature","properties":{"kind":"blob","cls":3,"id":66},"geometry":{"type":"Polygon","coordinates":[[[68.75,-30.88],[69.88,-29.5],[69.62,-28.25],[68.75,-27.38],[66.5,-27.38],[65.38,-28.75],[65.5,-29.62],[66.0,-29.12],[67.62,-29.5],[67.5,-30.12],[65.62,-30.0],[66.5,-30.88],[68.75,-30.88]]]}},{"type":"Feature","properties":{"kind":"blob","cls":1,"id":67},"geometry":{"type":"Polygon","coordinates":[[[106.25,29.88],[106.75,30.12],[107.38,31.0],[107.38,32.0],[107.0,32.38],[106.38,31.75],[106.25,29.88]]]}},{"type":"Feature","properties":{"kind":"blob","cls":4,"id":68},"geometry":{"type":"Polygon","coordinates":[[[54.75,36.88],[55.38,37.0],[55.25,37.12],[54.75,36.88]]]}},{"type":"Feature","properties":{"kind":"blob","cls":4,"id":69},"geometry":{"type":"MultiPolygon","coordinates":[[[[53.25,36.38],[53.12,36.25],[53.25,36.12],[53.25,36.38]]],[[[53.5,36.62],[53.38,36.5],[53.5,36.38],[53.5,36.62]]]]}},{"type":"Feature","properties":{"kind":"blob","cls":4,"id":70},"geometry":{"type":"Polygon","coordinates":[[[54.0,36.62],[54.38,36.75],[54.25,36.88],[54.0,36.62]]]}},{"type":"Feature","properties":{"kind":"blob","cls":4,"id":71},"geometry":{"type":"Polygon","coordinates":[[[47.62,39.25],[47.38,40.0],[45.75,41.62],[44.75,41.88],[44.38,41.5],[46.25,40.62],[47.62,39.25]]]}},{"type":"Feature","properties":{"kind":"center","id":1,"lat":-59.5,"lon":-128.75,"mslp":943.1,"hvtl":16.7,"hvtu":-151.1,"hb":71.9,"idx":-0.6,"cls":3,"psfc":943.1,"terrain":false,"radius_km":200,"name":"asym shallow warm","track":"T03"},"geometry":{"type":"Point","coordinates":[-128.75,-59.5]}},{"type":"Feature","properties":{"kind":"center","id":2,"lat":-76.5,"lon":-147.5,"mslp":950.0,"hvtl":-99.0,"hvtu":-39.2,"hb":53.9,"idx":-1.9,"cls":4,"psfc":933.6,"terrain":false,"radius_km":200,"name":"asym cold"},"geometry":{"type":"Point","coordinates":[-147.5,-76.5]}},{"type":"Feature","properties":{"kind":"center","id":3,"lat":-52.0,"lon":-12.5,"mslp":950.3,"hvtl":179.0,"hvtu":-32.9,"hb":41.3,"idx":1.6,"cls":3,"psfc":950.3,"terrain":false,"radius_km":200,"name":"asym shallow warm","track":"T05"},"geometry":{"type":"Point","coordinates":[-12.5,-52.0]}},{"type":"Feature","properties":{"kind":"center","id":4,"lat":-68.25,"lon":-129.0,"mslp":950.8,"hvtl":-115.1,"hvtu":-107.0,"hb":45.6,"idx":-2.4,"cls":4,"psfc":950.8,"terrain":false,"radius_km":200,"name":"asym cold"},"geometry":{"type":"Point","coordinates":[-129.0,-68.25]}},{"type":"Feature","properties":{"kind":"center","id":5,"lat":-63.25,"lon":-167.75,"mslp":955.9,"hvtl":-106.0,"hvtu":-143.5,"hb":56.6,"idx":-2.5,"cls":4,"psfc":955.9,"terrain":false,"radius_km":200,"name":"asym cold","track":"T10"},"geometry":{"type":"Point","coordinates":[-167.75,-63.25]}},{"type":"Feature","properties":{"kind":"center","id":6,"lat":-64.5,"lon":109.25,"mslp":956.8,"hvtl":2.8,"hvtu":-85.1,"hb":13.0,"idx":-0.6,"cls":3,"psfc":956.8,"terrain":false,"radius_km":200,"name":"asym shallow warm","track":"T16"},"geometry":{"type":"Point","coordinates":[109.25,-64.5]}},{"type":"Feature","properties":{"kind":"center","id":7,"lat":21.0,"lon":146.5,"mslp":959.5,"hvtl":112.4,"hvtu":191.3,"hb":1.6,"idx":2.6,"cls":0,"psfc":959.5,"terrain":false,"radius_km":200,"name":"sym deep warm","track":"T02"},"geometry":{"type":"Point","coordinates":[146.5,21.0]}},{"type":"Feature","properties":{"kind":"center","id":8,"lat":-70.0,"lon":-20.75,"mslp":965.2,"hvtl":-308.2,"hvtu":-45.0,"hb":45.9,"idx":-2.4,"cls":4,"psfc":965.2,"terrain":false,"radius_km":200,"name":"asym cold","track":"T36"},"geometry":{"type":"Point","coordinates":[-20.75,-70.0]}},{"type":"Feature","properties":{"kind":"center","id":9,"lat":-56.5,"lon":93.5,"mslp":965.5,"hvtl":-331.3,"hvtu":-312.8,"hb":86.5,"idx":-3.0,"cls":4,"psfc":965.5,"terrain":false,"radius_km":200,"name":"asym cold","track":"T38"},"geometry":{"type":"Point","coordinates":[93.5,-56.5]}},{"type":"Feature","properties":{"kind":"center","id":10,"lat":-59.25,"lon":125.5,"mslp":966.2,"hvtl":-310.9,"hvtu":-290.7,"hb":66.0,"idx":-3.0,"cls":4,"psfc":966.2,"terrain":false,"radius_km":200,"name":"asym cold","track":"T27"},"geometry":{"type":"Point","coordinates":[125.5,-59.25]}},{"type":"Feature","properties":{"kind":"center","id":11,"lat":19.75,"lon":-112.0,"mslp":969.1,"hvtl":74.8,"hvtu":249.6,"hb":8.9,"idx":2.3,"cls":0,"psfc":969.2,"terrain":false,"radius_km":200,"name":"sym deep warm","track":"T42"},"geometry":{"type":"Point","coordinates":[-112.0,19.75]}},{"type":"Feature","properties":{"kind":"center","id":12,"lat":52.5,"lon":174.75,"mslp":969.5,"hvtl":-6.6,"hvtu":-305.0,"hb":3.2,"idx":-1.1,"cls":5,"psfc":969.5,"terrain":false,"radius_km":200,"name":"sym cold","track":"T40"},"geometry":{"type":"Point","coordinates":[174.75,52.5]}},{"type":"Feature","properties":{"kind":"center","id":13,"lat":-57.25,"lon":77.0,"mslp":972.8,"hvtl":-281.5,"hvtu":-284.8,"hb":70.5,"idx":-3.0,"cls":4,"psfc":972.8,"terrain":false,"radius_km":200,"name":"asym cold"},"geometry":{"type":"Point","coordinates":[77.0,-57.25]}},{"type":"Feature","properties":{"kind":"center","id":14,"lat":-73.5,"lon":167.5,"mslp":974.8,"hvtl":-137.3,"hvtu":-32.3,"hb":11.5,"idx":-2.1,"cls":4,"psfc":960.2,"terrain":false,"radius_km":200,"name":"asym cold","track":"T35"},"geometry":{"type":"Point","coordinates":[167.5,-73.5]}},{"type":"Feature","properties":{"kind":"center","id":15,"lat":-62.75,"lon":45.5,"mslp":976.2,"hvtl":-169.9,"hvtu":-70.9,"hb":34.0,"idx":-2.5,"cls":4,"psfc":976.2,"terrain":false,"radius_km":200,"name":"asym cold"},"geometry":{"type":"Point","coordinates":[45.5,-62.75]}},{"type":"Feature","properties":{"kind":"center","id":16,"lat":64.25,"lon":-27.5,"mslp":976.7,"hvtl":23.8,"hvtu":-194.7,"hb":24.8,"idx":-0.5,"cls":3,"psfc":976.8,"terrain":false,"radius_km":200,"name":"asym shallow warm"},"geometry":{"type":"Point","coordinates":[-27.5,64.25]}},{"type":"Feature","properties":{"kind":"center","id":17,"lat":-68.25,"lon":26.25,"mslp":978.4,"hvtl":-3.5,"hvtu":-62.6,"hb":0.9,"idx":-0.6,"cls":5,"psfc":978.4,"terrain":false,"radius_km":200,"name":"sym cold","track":"T47"},"geometry":{"type":"Point","coordinates":[26.25,-68.25]}},{"type":"Feature","properties":{"kind":"center","id":18,"lat":23.0,"lon":-171.75,"mslp":978.7,"hvtl":87.0,"hvtu":215.3,"hb":-5.2,"idx":2.4,"cls":0,"psfc":978.7,"terrain":false,"radius_km":200,"name":"sym deep warm","track":"T44"},"geometry":{"type":"Point","coordinates":[-171.75,23.0]}},{"type":"Feature","properties":{"kind":"center","id":19,"lat":-66.75,"lon":61.75,"mslp":978.7,"hvtl":-102.9,"hvtu":-192.0,"hb":29.1,"idx":-2.5,"cls":4,"psfc":978.7,"terrain":false,"radius_km":200,"name":"asym cold","track":"T48"},"geometry":{"type":"Point","coordinates":[61.75,-66.75]}},{"type":"Feature","properties":{"kind":"center","id":20,"lat":73.0,"lon":118.0,"mslp":979.4,"hvtl":-42.7,"hvtu":46.5,"hb":-12.3,"idx":-0.4,"cls":6,"psfc":970.5,"terrain":false,"radius_km":200,"name":"shallow cold","track":"T60"},"geometry":{"type":"Point","coordinates":[118.0,73.0]}},{"type":"Feature","properties":{"kind":"center","id":21,"lat":-69.75,"lon":159.75,"mslp":981.2,"hvtl":-271.1,"hvtu":-47.6,"hb":57.5,"idx":-2.4,"cls":4,"psfc":915.9,"terrain":false,"radius_km":200,"name":"asym cold"},"geometry":{"type":"Point","coordinates":[159.75,-69.75]}},{"type":"Feature","properties":{"kind":"center","id":22,"lat":66.5,"lon":-59.0,"mslp":987.5,"hvtl":17.8,"hvtu":1.0,"hb":21.6,"idx":0.4,"cls":2,"psfc":987.5,"terrain":false,"radius_km":200,"name":"asym deep warm","track":"T69"},"geometry":{"type":"Point","coordinates":[-59.0,66.5]}},{"type":"Feature","properties":{"kind":"center","id":23,"lat":-46.75,"lon":-105.5,"mslp":988.5,"hvtl":-18.9,"hvtu":-106.0,"hb":35.8,"idx":-1.2,"cls":4,"psfc":988.5,"terrain":false,"radius_km":200,"name":"asym cold","track":"T73"},"geometry":{"type":"Point","coordinates":[-105.5,-46.75]}},{"type":"Feature","properties":{"kind":"center","id":24,"lat":69.5,"lon":-55.5,"mslp":992.9,"hvtl":-117.6,"hvtu":-62.7,"hb":40.5,"idx":-2.2,"cls":4,"psfc":992.9,"terrain":false,"radius_km":200,"name":"asym cold","track":"T80"},"geometry":{"type":"Point","coordinates":[-55.5,69.5]}},{"type":"Feature","properties":{"kind":"center","id":25,"lat":55.75,"lon":-152.0,"mslp":993.1,"hvtl":15.0,"hvtu":-123.0,"hb":31.1,"idx":-0.5,"cls":3,"psfc":993.1,"terrain":false,"radius_km":200,"name":"asym shallow warm","track":"T78"},"geometry":{"type":"Point","coordinates":[-152.0,55.75]}},{"type":"Feature","properties":{"kind":"center","id":26,"lat":74.75,"lon":-69.25,"mslp":994.0,"hvtl":-126.4,"hvtu":-77.0,"hb":0.6,"idx":-2.4,"cls":5,"psfc":994.0,"terrain":false,"radius_km":200,"name":"sym cold"},"geometry":{"type":"Point","coordinates":[-69.25,74.75]}},{"type":"Feature","properties":{"kind":"center","id":27,"lat":74.0,"lon":-64.0,"mslp":994.1,"hvtl":-165.6,"hvtu":-59.7,"hb":36.5,"idx":-2.4,"cls":4,"psfc":994.1,"terrain":false,"radius_km":200,"name":"asym cold","track":"T83"},"geometry":{"type":"Point","coordinates":[-64.0,74.0]}},{"type":"Feature","properties":{"kind":"center","id":28,"lat":75.25,"lon":146.25,"mslp":994.3,"hvtl":-106.6,"hvtu":-76.7,"hb":36.0,"idx":-2.2,"cls":4,"psfc":992.2,"terrain":false,"radius_km":200,"name":"asym cold","track":"T75"},"geometry":{"type":"Point","coordinates":[146.25,75.25]}},{"type":"Feature","properties":{"kind":"center","id":29,"lat":70.75,"lon":-20.75,"mslp":994.3,"hvtl":89.1,"hvtu":-205.1,"hb":10.9,"idx":0.5,"cls":3,"psfc":994.3,"terrain":false,"radius_km":200,"name":"asym shallow warm","track":"T50"},"geometry":{"type":"Point","coordinates":[-20.75,70.75]}},{"type":"Feature","properties":{"kind":"center","id":30,"lat":66.5,"lon":150.75,"mslp":994.9,"hvtl":-7.9,"hvtu":-160.5,"hb":51.8,"idx":-1.1,"cls":4,"psfc":988.2,"terrain":false,"radius_km":200,"name":"asym cold"},"geometry":{"type":"Point","coordinates":[150.75,66.5]}},{"type":"Feature","properties":{"kind":"center","id":31,"lat":65.0,"lon":148.75,"mslp":995.2,"hvtl":46.0,"hvtu":-177.0,"hb":51.6,"idx":-0.1,"cls":3,"psfc":903.8,"terrain":true,"radius_km":200,"name":"asym shallow warm"},"geometry":{"type":"Point","coordinates":[148.75,65.0]}},{"type":"Feature","properties":{"kind":"center","id":32,"lat":-18.75,"lon":-63.25,"mslp":995.2,"hvtl":89.9,"hvtu":-189.7,"hb":-18.6,"idx":0.5,"cls":1,"psfc":941.7,"terrain":false,"radius_km":200,"name":"sym shallow warm","track":"T89"},"geometry":{"type":"Point","coordinates":[-63.25,-18.75]}},{"type":"Feature","properties":{"kind":"center","id":33,"lat":65.0,"lon":147.25,"mslp":995.8,"hvtl":103.1,"hvtu":-175.7,"hb":65.4,"idx":0.6,"cls":3,"psfc":908.0,"terrain":false,"radius_km":200,"name":"asym shallow warm"},"geometry":{"type":"Point","coordinates":[147.25,65.0]}},{"type":"Feature","properties":{"kind":"center","id":34,"lat":59.5,"lon":144.75,"mslp":997.1,"hvtl":-28.0,"hvtu":-165.4,"hb":19.7,"idx":-1.5,"cls":4,"psfc":976.5,"terrain":false,"radius_km":200,"name":"asym cold"},"geometry":{"type":"Point","coordinates":[144.75,59.5]}},{"type":"Feature","properties":{"kind":"center","id":35,"lat":77.0,"lon":-66.5,"mslp":997.8,"hvtl":-83.9,"hvtu":-55.4,"hb":12.5,"idx":-1.9,"cls":4,"psfc":901.4,"terrain":true,"radius_km":200,"name":"asym cold"},"geometry":{"type":"Point","coordinates":[-66.5,77.0]}},{"type":"Feature","properties":{"kind":"center","id":36,"lat":70.75,"lon":8.0,"mslp":998.9,"hvtl":-130.6,"hvtu":-167.3,"hb":35.9,"idx":-2.7,"cls":4,"psfc":998.9,"terrain":false,"radius_km":200,"name":"asym cold","track":"T63"},"geometry":{"type":"Point","coordinates":[8.0,70.75]}},{"type":"Feature","properties":{"kind":"center","id":37,"lat":79.75,"lon":63.75,"mslp":998.9,"hvtl":-159.7,"hvtu":-172.3,"hb":73.9,"idx":-2.8,"cls":4,"psfc":998.9,"terrain":false,"radius_km":200,"name":"asym cold"},"geometry":{"type":"Point","coordinates":[63.75,79.75]}},{"type":"Feature","properties":{"kind":"center","id":38,"lat":-28.5,"lon":-66.5,"mslp":999.3,"hvtl":180.1,"hvtu":-192.3,"hb":41.7,"idx":0.9,"cls":3,"psfc":918.6,"terrain":false,"radius_km":200,"name":"asym shallow warm","track":"T98"},"geometry":{"type":"Point","coordinates":[-66.5,-28.5]}},{"type":"Feature","properties":{"kind":"center","id":39,"lat":-64.25,"lon":-57.75,"mslp":999.4,"hvtl":-5.4,"hvtu":-119.9,"hb":-4.4,"idx":-0.9,"cls":5,"psfc":908.4,"terrain":true,"radius_km":200,"name":"sym cold"},"geometry":{"type":"Point","coordinates":[-57.75,-64.25]}},{"type":"Feature","properties":{"kind":"center","id":40,"lat":-10.75,"lon":-73.25,"mslp":1005.1,"hvtl":34.9,"hvtu":-35.8,"hb":-5.0,"idx":0.3,"cls":1,"psfc":972.0,"terrain":false,"radius_km":200,"name":"sym shallow warm","track":"T99"},"geometry":{"type":"Point","coordinates":[-73.25,-10.75]}},{"type":"Feature","properties":{"kind":"center","id":41,"lat":-11.75,"lon":-74.0,"mslp":1005.1,"hvtl":34.9,"hvtu":-59.9,"hb":10.5,"idx":0.1,"cls":3,"psfc":932.4,"terrain":false,"radius_km":200,"name":"asym shallow warm"},"geometry":{"type":"Point","coordinates":[-74.0,-11.75]}},{"type":"Feature","properties":{"kind":"center","id":42,"lat":57.25,"lon":61.0,"mslp":1005.3,"hvtl":-12.1,"hvtu":-146.3,"hb":38.8,"idx":-1.1,"cls":4,"psfc":976.5,"terrain":false,"radius_km":200,"name":"asym cold","track":"T118"},"geometry":{"type":"Point","coordinates":[61.0,57.25]}},{"type":"Feature","properties":{"kind":"center","id":43,"lat":-11.25,"lon":-74.25,"mslp":1006.7,"hvtl":27.6,"hvtu":-42.6,"hb":6.4,"idx":0.1,"cls":1,"psfc":901.6,"terrain":true,"radius_km":200,"name":"sym shallow warm"},"geometry":{"type":"Point","coordinates":[-74.25,-11.25]}},{"type":"Feature","properties":{"kind":"center","id":44,"lat":30.75,"lon":70.75,"mslp":1007.3,"hvtl":-11.8,"hvtu":-84.2,"hb":13.4,"idx":-0.9,"cls":4,"psfc":990.5,"terrain":false,"radius_km":200,"name":"asym cold","track":"T103"},"geometry":{"type":"Point","coordinates":[70.75,30.75]}},{"type":"Feature","properties":{"kind":"center","id":45,"lat":-10.25,"lon":-74.75,"mslp":1007.6,"hvtl":27.6,"hvtu":-17.5,"hb":0.4,"idx":0.4,"cls":1,"psfc":960.2,"terrain":false,"radius_km":200,"name":"sym shallow warm"},"geometry":{"type":"Point","coordinates":[-74.75,-10.25]}},{"type":"Feature","properties":{"kind":"center","id":46,"lat":30.75,"lon":58.25,"mslp":1009.8,"hvtl":33.7,"hvtu":-92.7,"hb":-0.8,"idx":-0.1,"cls":1,"psfc":980.4,"terrain":false,"radius_km":200,"name":"sym shallow warm"},"geometry":{"type":"Point","coordinates":[58.25,30.75]}},{"type":"Feature","properties":{"kind":"center","id":47,"lat":74.75,"lon":-155.25,"mslp":1009.8,"hvtl":-69.0,"hvtu":-46.1,"hb":-5.1,"idx":-1.6,"cls":5,"psfc":1009.8,"terrain":false,"radius_km":200,"name":"sym cold","track":"T123"},"geometry":{"type":"Point","coordinates":[-155.25,74.75]}},{"type":"Feature","properties":{"kind":"center","id":48,"lat":24.0,"lon":38.25,"mslp":1010.0,"hvtl":-5.2,"hvtu":-98.5,"hb":27.8,"idx":-0.9,"cls":4,"psfc":1008.0,"terrain":false,"radius_km":200,"name":"asym cold"},"geometry":{"type":"Point","coordinates":[38.25,24.0]}},{"type":"Feature","properties":{"kind":"center","id":49,"lat":27.5,"lon":78.75,"mslp":1010.4,"hvtl":-19.6,"hvtu":-129.7,"hb":-2.8,"idx":-1.2,"cls":5,"psfc":991.2,"terrain":false,"radius_km":200,"name":"sym cold"},"geometry":{"type":"Point","coordinates":[78.75,27.5]}},{"type":"Feature","properties":{"kind":"center","id":50,"lat":13.0,"lon":41.0,"mslp":1010.5,"hvtl":67.3,"hvtu":38.0,"hb":5.0,"idx":1.5,"cls":0,"psfc":1004.5,"terrain":false,"radius_km":200,"name":"sym deep warm"},"geometry":{"type":"Point","coordinates":[41.0,13.0]}},{"type":"Feature","properties":{"kind":"center","id":51,"lat":42.5,"lon":67.75,"mslp":1011.3,"hvtl":-389.3,"hvtu":-189.3,"hb":71.4,"idx":-3.0,"cls":4,"psfc":987.8,"terrain":false,"radius_km":200,"name":"asym cold"},"geometry":{"type":"Point","coordinates":[67.75,42.5]}},{"type":"Feature","properties":{"kind":"center","id":52,"lat":28.5,"lon":65.5,"mslp":1011.8,"hvtl":-14.6,"hvtu":-65.4,"hb":-1.2,"idx":-0.9,"cls":5,"psfc":931.8,"terrain":false,"radius_km":200,"name":"sym cold"},"geometry":{"type":"Point","coordinates":[65.5,28.5]}},{"type":"Feature","properties":{"kind":"center","id":53,"lat":31.25,"lon":61.5,"mslp":1011.8,"hvtl":-14.3,"hvtu":-86.3,"hb":5.8,"idx":-1.0,"cls":5,"psfc":957.9,"terrain":false,"radius_km":200,"name":"sym cold"},"geometry":{"type":"Point","coordinates":[61.5,31.25]}},{"type":"Feature","properties":{"kind":"center","id":54,"lat":40.5,"lon":121.0,"mslp":1011.8,"hvtl":-166.9,"hvtu":-320.3,"hb":55.1,"idx":-2.9,"cls":4,"psfc":1011.8,"terrain":false,"radius_km":200,"name":"asym cold","track":"T94"},"geometry":{"type":"Point","coordinates":[121.0,40.5]}},{"type":"Feature","properties":{"kind":"center","id":55,"lat":26.5,"lon":92.5,"mslp":1011.9,"hvtl":-30.1,"hvtu":-90.0,"hb":7.7,"idx":-1.3,"cls":5,"psfc":1004.6,"terrain":false,"radius_km":200,"name":"sym cold"},"geometry":{"type":"Point","coordinates":[92.5,26.5]}},{"type":"Feature","properties":{"kind":"center","id":56,"lat":30.0,"lon":62.5,"mslp":1012.0,"hvtl":-23.1,"hvtu":-61.9,"hb":0.7,"idx":-1.0,"cls":5,"psfc":953.6,"terrain":false,"radius_km":200,"name":"sym cold"},"geometry":{"type":"Point","coordinates":[62.5,30.0]}},{"type":"Feature","properties":{"kind":"center","id":57,"lat":35.5,"lon":55.75,"mslp":1012.0,"hvtl":-224.2,"hvtu":-174.4,"hb":128.9,"idx":-2.9,"cls":4,"psfc":928.5,"terrain":false,"radius_km":200,"name":"asym cold","track":"T125"},"geometry":{"type":"Point","coordinates":[55.75,35.5]}},{"type":"Feature","properties":{"kind":"center","id":58,"lat":36.0,"lon":62.75,"mslp":1012.2,"hvtl":-142.6,"hvtu":-79.6,"hb":66.7,"idx":-2.4,"cls":4,"psfc":963.8,"terrain":false,"radius_km":200,"name":"asym cold","track":"T131"},"geometry":{"type":"Point","coordinates":[62.75,36.0]}},{"type":"Feature","properties":{"kind":"center","id":59,"lat":30.0,"lon":61.0,"mslp":1012.6,"hvtl":14.6,"hvtu":-68.7,"hb":-1.7,"idx":-0.3,"cls":1,"psfc":947.5,"terrain":false,"radius_km":200,"name":"sym shallow warm"},"geometry":{"type":"Point","coordinates":[61.0,30.0]}},{"type":"Feature","properties":{"kind":"center","id":60,"lat":25.5,"lon":95.25,"mslp":1012.6,"hvtl":-51.1,"hvtu":-23.6,"hb":14.8,"idx":-1.2,"cls":4,"psfc":970.5,"terrain":false,"radius_km":200,"name":"asym cold"},"geometry":{"type":"Point","coordinates":[95.25,25.5]}},{"type":"Feature","properties":{"kind":"center","id":61,"lat":-28.75,"lon":18.5,"mslp":1012.8,"hvtl":186.8,"hvtu":-275.7,"hb":-0.8,"idx":0.9,"cls":1,"psfc":948.0,"terrain":false,"radius_km":200,"name":"sym shallow warm"},"geometry":{"type":"Point","coordinates":[18.5,-28.75]}},{"type":"Feature","properties":{"kind":"center","id":62,"lat":31.5,"lon":48.0,"mslp":1013.1,"hvtl":-112.6,"hvtu":-129.6,"hb":54.4,"idx":-2.5,"cls":4,"psfc":1012.0,"terrain":false,"radius_km":200,"name":"asym cold"},"geometry":{"type":"Point","coordinates":[48.0,31.5]}},{"type":"Feature","properties":{"kind":"center","id":63,"lat":29.5,"lon":65.75,"mslp":1013.2,"hvtl":-11.7,"hvtu":-51.0,"hb":-0.3,"idx":-0.7,"cls":5,"psfc":913.3,"terrain":true,"radius_km":200,"name":"sym cold"},"geometry":{"type":"Point","coordinates":[65.75,29.5]}},{"type":"Feature","properties":{"kind":"center","id":64,"lat":32.75,"lon":61.25,"mslp":1013.6,"hvtl":-30.6,"hvtu":-79.8,"hb":28.3,"idx":-1.3,"cls":4,"psfc":920.0,"terrain":true,"radius_km":200,"name":"asym cold"},"geometry":{"type":"Point","coordinates":[61.25,32.75]}},{"type":"Feature","properties":{"kind":"center","id":65,"lat":-38.75,"lon":149.0,"mslp":1013.8,"hvtl":23.4,"hvtu":-56.0,"hb":25.7,"idx":-0.0,"cls":3,"psfc":1013.8,"terrain":false,"radius_km":200,"name":"asym shallow warm"},"geometry":{"type":"Point","coordinates":[149.0,-38.75]}},{"type":"Feature","properties":{"kind":"center","id":66,"lat":-29.25,"lon":67.5,"mslp":1017.2,"hvtl":40.9,"hvtu":-150.4,"hb":28.2,"idx":-0.1,"cls":3,"psfc":1017.2,"terrain":false,"radius_km":200,"name":"asym shallow warm","track":"T134"},"geometry":{"type":"Point","coordinates":[67.5,-29.25]}},{"type":"Feature","properties":{"kind":"center","id":67,"lat":30.5,"lon":106.25,"mslp":1017.7,"hvtl":135.2,"hvtu":-266.2,"hb":4.2,"idx":0.8,"cls":1,"psfc":978.8,"terrain":false,"radius_km":200,"name":"sym shallow warm"},"geometry":{"type":"Point","coordinates":[106.25,30.5]}},{"type":"Feature","properties":{"kind":"center","id":68,"lat":37.0,"lon":54.75,"mslp":1018.1,"hvtl":-317.7,"hvtu":-244.8,"hb":143.5,"idx":-3.0,"cls":4,"psfc":1010.9,"terrain":false,"radius_km":200,"name":"asym cold","track":"T128"},"geometry":{"type":"Point","coordinates":[54.75,37.0]}},{"type":"Feature","properties":{"kind":"center","id":69,"lat":36.25,"lon":53.25,"mslp":1018.9,"hvtl":-265.3,"hvtu":-227.3,"hb":164.2,"idx":-3.0,"cls":4,"psfc":918.7,"terrain":true,"radius_km":200,"name":"asym cold"},"geometry":{"type":"Point","coordinates":[53.25,36.25]}},{"type":"Feature","properties":{"kind":"center","id":70,"lat":36.75,"lon":54.25,"mslp":1019.2,"hvtl":-308.2,"hvtu":-235.3,"hb":153.8,"idx":-3.0,"cls":4,"psfc":933.3,"terrain":false,"radius_km":200,"name":"asym cold"},"geometry":{"type":"Point","coordinates":[54.25,36.75]}},{"type":"Feature","properties":{"kind":"center","id":71,"lat":40.75,"lon":46.5,"mslp":1021.6,"hvtl":-295.9,"hvtu":-409.8,"hb":87.2,"idx":-3.0,"cls":4,"psfc":992.7,"terrain":false,"radius_km":200,"name":"asym cold"},"geometry":{"type":"Point","coordinates":[46.5,40.75]}}]}