{"type":"FeatureCollection","features":[{"type":"Feature","properties":{"kind":"blob","cls":0,"id":1},"geometry":{"type":"Polygon","coordinates":[[[141.0,17.12],[141.88,18.25],[141.62,19.75],[140.25,20.62],[139.0,20.38],[138.12,19.25],[138.12,18.25],[141.0,17.12]]]}},{"type":"Feature","properties":{"kind":"blob","cls":4,"id":2},"geometry":{"type":"Polygon","coordinates":[[[-160.0,-68.38],[-157.25,-67.88],[-155.12,-66.75],[-155.12,-65.75],[-156.5,-64.88],[-158.5,-64.38],[-166.0,-64.38],[-168.0,-64.88],[-169.38,-65.75],[-169.38,-66.75],[-168.0,-67.62],[-160.0,-68.38]]]}},{"type":"Feature","properties":{"kind":"blob","cls":0,"id":3},"geometry":{"type":"Polygon","coordinates":[[[159.5,15.62],[161.0,15.62],[161.88,16.75],[161.62,18.25],[160.25,19.12],[159.0,18.88],[158.12,17.75],[158.88,17.0],[158.38,16.25],[159.5,15.62]]]}},{"type":"Feature","properties":{"kind":"blob","cls":1,"id":4},"geometry":{"type":"Polygon","coordinates":[[[90.25,-64.88],[92.25,-64.38],[93.62,-63.25],[93.75,-62.62],[96.25,-63.62],[100.75,-63.38],[102.5,-62.62],[103.38,-61.5],[102.5,-60.38],[101.5,-59.88],[97.0,-59.62],[94.0,-60.62],[93.0,-61.62],[90.5,-60.88],[88.0,-60.88],[85.5,-61.62],[88.38,-62.25],[84.88,-62.5],[84.88,-63.25],[85.5,-63.88],[87.25,-64.62],[90.25,-64.88]]]}},{"type":"Feature","properties":{"kind":"blob","cls":5,"id":5},"geometry":{"type":"Polygon","coordinates":[[[76.5,-64.12],[78.5,-63.62],[79.88,-62.5],[78.12,-62.0],[78.75,-61.62],[80.25,-61.62],[80.38,-60.25],[78.75,-59.12],[75.25,-58.88],[73.25,-59.62],[71.0,-59.88],[68.88,-61.5],[68.88,-62.0],[69.75,-62.88],[72.25,-63.88],[76.5,-64.12]]]}},{"type":"Feature","properties":{"kind":"blob","cls":5,"id":6},"geometry":{"type":"Polygon","coordinates":[[[-123.25,-62.38],[-118.5,-62.38],[-116.62,-61.0],[-116.62,-60.0],[-118.0,-58.62],[-120.25,-57.88],[-122.75,-57.88],[-124.5,-58.38],[-126.12,-59.5],[-126.38,-60.5],[-125.25,-61.88],[-123.25,-62.38]]]}},{"type":"Feature","properties":{"kind":"blob","cls":3,"id":7},"geometry":{"type":"Polygon","coordinates":[[[160.25,-67.38],[165.75,-67.38],[167.0,-66.88],[167.88,-66.0],[167.88,-65.5],[166.25,-64.12],[163.0,-63.38],[159.25,-63.62],[157.5,-64.38],[156.62,-65.25],[156.62,-65.75],[157.75,-66.88],[160.25,-67.38]]]}},{"type":"Feature","properties":{"kind":"blob","cls":4,"id":8},"geometry":{"type":"Polygon","coordinates":[[[-135.0,-74.88],[-133.75,-75.12],[-128.75,-74.62],[-117.88,-74.5],[-118.75,-73.62],[-122.0,-72.12],[-127.75,-71.62],[-131.75,-72.38],[-133.25,-73.62],[-134.75,-74.12],[-135.0,-74.88]],[[-127.12,-73.5],[-125.88,-73.5],[-126.0,-73.62],[-127.12,-73.5]]]}},{"type":"Feature","properties":{"kind":"blob","cls":1,"id":9},"geometry":{"type":"MultiPolygon","coordinates":[[[[-13.75,-59.88],[-13.88,-60.0],[-13.75,-60.12],[-13.75,-59.88]]],[[[-16.75,-60.38],[-16.88,-59.25],[-16.0,-58.62],[-14.25,-58.62],[-13.38,-59.25],[-13.5,-59.88],[-13.0,-59.88],[-10.62,-58.5],[-10.38,-57.25],[-11.0,-56.38],[-13.0,-55.62],[-15.5,-55.62],[-17.5,-56.12],[-19.0,-56.88],[-20.12,-58.0],[-20.12,-59.0],[-19.5,-59.62],[-16.75,-60.38]]]]}},{"type":"Feature","properties":{"kind":"blob","cls":3,"id":10},"geometry":{"type":"Polygon","coordinates":[[[-161.0,-77.38],[-158.0,-76.38],[-157.62,-75.25],[-158.5,-74.88],[-161.25,-75.88],[-167.0,-76.38],[-168.12,-75.75],[-167.25,-74.88],[-163.88,-73.5],[-167.5,-73.38],[-171.0,-73.88],[-173.0,-74.62],[-173.62,-75.25],[-173.0,-76.38],[-171.75,-76.88],[-169.75,-77.38],[-161.0,-77.38]]]}},{"type":"Feature","properties":{"kind":"blob","cls":4,"id":11},"geometry":{"type":"Polygon","coordinates":[[[120.75,-66.12],[122.75,-65.12],[123.12,-64.5],[122.88,-62.5],[121.0,-61.38],[118.0,-61.12],[115.5,-61.88],[113.12,-63.75],[113.5,-65.12],[115.5,-66.12],[120.75,-66.12]]]}},{"type":"Feature","properties":{"kind":"blob","cls":0,"id":12},"geometry":{"type":"Polygon","coordinates":[[[136.75,-61.62],[138.5,-61.12],[139.62,-60.0],[139.62,-59.25],[138.5,-58.12],[136.75,-57.62],[134.5,-57.62],[132.75,-58.12],[131.38,-59.5],[131.38,-60.0],[132.5,-61.12],[136.75,-61.62]]]}},{"type":"Feature","properties":{"kind":"blob","cls":1,"id":13},"geometry":{"type":"Polygon","coordinates":[[[-172.0,61.38],[-170.0,61.88],[-168.88,62.75],[-168.88,63.75],[-170.25,64.88],[-172.25,65.38],[-174.0,65.38],[-176.5,64.62],[-174.75,64.12],[-174.12,63.5],[-174.75,63.12],[-177.25,63.38],[-177.38,62.75],[-176.25,61.88],[-172.0,61.38]]]}},{"type":"Feature","properties":{"kind":"blob","cls":4,"id":14},"geometry":{"type":"Polygon","coordinates":[[[-41.5,54.62],[-39.62,56.5],[-41.5,58.38],[-46.0,58.38],[-46.62,58.0],[-45.62,57.5],[-45.75,57.12],[-47.5,56.88],[-47.88,56.5],[-46.5,54.88],[-41.5,54.62]]]}},{"type":"Feature","properties":{"kind":"blob","cls":4,"id":15},"geometry":{"type":"Polygon","coordinates":[[[-2.25,-43.38],[-0.25,-43.38],[1.12,-42.0],[1.12,-40.5],[0.0,-39.38],[-2.5,-39.38],[-3.88,-40.75],[-3.62,-42.75],[-2.25,-43.38]]]}},{"type":"Feature","properties":{"kind":"blob","cls":1,"id":16},"geometry":{"type":"Polygon","coordinates":[[[162.0,-79.12],[163.25,-79.38],[167.25,-78.88],[169.0,-78.38],[169.88,-77.5],[168.25,-76.38],[163.75,-75.88],[162.38,-77.0],[164.62,-78.5],[162.0,-78.62],[162.0,-79.12]],[[166.62,-77.5],[169.12,-77.5],[169.0,-77.62],[166.62,-77.5]]]}},{"type":"Feature","properties":{"kind":"blob","cls":1,"id":17},"geometry":{"type":"Polygon","coordinates":[[[164.5,-75.12],[166.0,-75.38],[167.75,-74.88],[168.88,-74.0],[168.88,-73.5],[168.25,-72.88],[166.75,-73.12],[165.75,-73.88],[165.0,-73.62],[164.5,-75.12]]]}},{"type":"Feature","properties":{"kind":"blob","cls":4,"id":18},"geometry":{"type":"Polygon","coordinates":[[[-132.75,-45.88],[-130.5,-46.12],[-129.25,-45.62],[-128.38,-44.25],[-128.62,-43.25],[-129.5,-42.38],[-130.75,-41.88],[-133.5,-41.88],[-134.75,-42.38],[-135.38,-43.0],[-135.38,-44.5],[-134.75,-45.12],[-132.75,-45.88]]]}},{"type":"Feature","properties":{"kind":"blob","cls":5,"id":19},"geometry":{"type":"MultiPolygon","coordinates":[[[[42.75,-68.12],[42.62,-68.25],[43.0,-68.38],[42.75,-68.12]]],[[[43.12,-68.0],[44.75,-68.12],[47.88,-67.5],[45.75,-67.38],[43.12,-68.0]]]]}},{"type":"Feature","properties":{"kind":"blob","cls":1,"id":20},"geometry":{"type":"Polygon","coordinates":[[[8.75,64.38],[10.88,65.5],[6.0,68.38],[3.5,67.88],[1.62,66.75],[2.0,65.12],[3.75,64.38],[8.75,64.38]]]}},{"type":"Feature","properties":{"kind":"blob","cls":4,"id":21},"geometry":{"type":"Polygon","coordinates":[[[22.0,-70.38],[26.25,-70.62],[26.62,-70.25],[23.75,-70.12],[22.0,-70.38]]]}},{"type":"Feature","properties":{"kind":"blob","cls":4,"id":22},"geometry":{"type":"Polygon","coordinates":[[[27.75,60.12],[29.62,61.5],[29.62,62.0],[28.75,62.88],[26.5,63.88],[22.25,63.88],[19.88,62.25],[19.88,61.5],[21.75,60.12],[27.75,60.12]]]}},{"type":"Feature","properties":{"kind":"blob","cls":4,"id":23},"geometry":{"type":"Polygon","coordinates":[[[-40.38,-80.5],[-40.25,-80.88],[-38.5,-80.62],[-29.12,-78.5],[-36.5,-78.88],[-39.25,-79.62],[-40.38,-80.5]]]}},{"type":"Feature","properties":{"kind":"blob","cls":4,"id":24},"geometry":{"type":"Polygon","coordinates":[[[46.25,62.12],[48.25,62.62],[52.5,62.62],[54.12,63.5],[54.38,64.5],[53.75,65.38],[51.75,66.38],[46.25,67.12],[41.0,66.62],[39.12,65.5],[39.12,64.5],[40.5,63.38],[43.0,62.38],[46.25,62.12]]]}},{"type":"Feature","properties":{"kind":"blob","cls":4,"id":25},"geometry":{"type":"Polygon","coordinates":[[[-59.0,-69.88],[-56.75,-69.38],[-54.88,-68.25],[-54.88,-67.25],[-56.5,-65.88],[-57.75,-65.38],[-62.25,-65.12],[-63.25,-66.12],[-64.0,-66.12],[-64.25,-66.62],[-65.88,-67.5],[-65.88,-68.0],[-64.75,-68.88],[-62.5,-69.62],[-59.0,-69.88]]]}},{"type":"Feature","properties":{"kind":"blob","cls":4,"id":26},"geometry":{"type":"Polygon","coordinates":[[[-95.75,51.62],[-93.75,52.38],[-93.12,53.5],[-93.38,54.5],[-95.75,55.62],[-97.5,55.62],[-99.5,54.88],[-100.12,54.0],[-99.62,52.5],[-95.75,51.62]]]}},{"type":"Feature","properties":{"kind":"blob","cls":5,"id":27},"geometry":{"type":"Polygon","coordinates":[[[-82.25,-50.12],[-81.0,-49.62],[-79.88,-48.5],[-79.88,-47.5],[-80.75,-46.62],[-82.0,-46.12],[-83.5,-46.12],[-84.75,-46.62],[-85.62,-47.5],[-85.62,-48.75],[-84.75,-49.62],[-82.25,-50.12]]]}},{"type":"Feature","properties":{"kind":"blob","cls":6,"id":28},"geometry":{"type":"Polygon","coordinates":[[[16.75,79.62],[22.5,80.12],[27.0,81.12],[27.62,81.75],[27.5,82.38],[57.75,82.38],[64.0,83.12],[65.5,83.62],[65.62,84.25],[63.5,85.12],[60.0,85.62],[39.75,86.62],[10.75,86.38],[2.75,85.62],[-0.38,84.75],[-0.38,84.25],[0.25,83.88],[2.5,83.62],[2.88,83.25],[-0.5,82.38],[-1.12,81.75],[-0.5,81.12],[6.0,79.88],[16.75,79.62]],[[8.5,81.38],[7.62,81.75],[8.0,82.12],[12.0,82.62],[25.0,82.62],[25.38,82.25],[16.5,81.38],[8.5,81.38]]]}},{"type":"Feature","properties":{"kind":"blob","cls":4,"id":29},"geometry":{"type":"Polygon","coordinates":[[[-98.5,43.12],[-97.25,43.62],[-96.12,45.0],[-96.38,46.0],[-98.25,47.12],[-100.0,47.12],[-101.25,46.62],[-102.12,45.5],[-102.12,44.75],[-101.25,43.62],[-98.5,43.12]]]}},{"type":"Feature","properties":{"kind":"blob","cls":4,"id":30},"geometry":{"type":"Polygon","coordinates":[[[13.5,57.38],[15.25,57.88],[16.38,59.25],[15.25,60.62],[13.5,61.12],[10.25,60.62],[9.12,59.25],[9.38,58.75],[10.25,57.88],[13.5,57.38]]]}},{"type":"Feature","properties":{"kind":"blob","cls":3,"id":31},"geometry":{"type":"Polygon","coordinates":[[[27.0,73.12],[29.75,74.12],[30.12,75.25],[29.0,76.12],[27.0,76.62],[21.0,76.88],[16.75,76.12],[14.88,75.0],[15.25,74.12],[16.25,73.62],[18.0,73.12],[27.0,73.12]]]}},{"type":"Feature","properties":{"kind":"blob","cls":3,"id":32},"geometry":{"type":"Polygon","coordinates":[[[-123.0,24.38],[-121.38,25.5],[-121.12,27.0],[-122.25,28.62],[-124.25,28.88],[-125.88,27.75],[-125.88,25.5],[-125.0,24.62],[-123.0,24.38]]]}},{"type":"Feature","properties":{"kind":"blob","cls":3,"id":33},"geometry":{"type":"Polygon","coordinates":[[[82.0,69.62],[84.75,70.12],[86.75,71.12],[87.38,71.75],[87.38,72.5],[86.5,73.38],[84.5,74.12],[78.5,74.62],[74.25,73.88],[72.12,72.25],[72.12,71.75],[73.5,70.62],[75.75,69.88],[82.0,69.62]]]}},{"type":"Feature","properties":{"kind":"blob","cls":4,"id":34},"geometry":{"type":"MultiPolygon","coordinates":[[[[-65.5,-66.38],[-65.62,-66.5],[-65.5,-66.62],[-65.5,-66.38]]],[[[-65.12,-66.25],[-65.25,-66.12],[-65.38,-66.25],[-65.12,-66.25]]],[[[-65.12,-66.0],[-64.5,-66.12],[-64.12,-65.75],[-65.12,-66.0]]]]}},{"type":"Feature","properties":{"kind":"blob","cls":4,"id":35},"geometry":{"type":"Polygon","coordinates":[[[-41.25,-33.38],[-39.62,-32.5],[-39.38,-30.0],[-40.5,-28.88],[-42.5,-28.62],[-44.38,-30.0],[-44.62,-31.5],[-44.12,-32.5],[-41.25,-33.38]]]}},{"type":"Feature","properties":{"kind":"blob","cls":0,"id":36},"geometry":{"type":"Polygon","coordinates":[[[-104.5,13.12],[-101.25,13.62],[-101.12,14.75],[-102.0,15.88],[-104.25,15.88],[-105.12,14.75],[-104.5,13.12]]]}},{"type":"Feature","properties":{"kind":"blob","cls":4,"id":37},"geometry":{"type":"Polygon","coordinates":[[[127.25,-31.62],[128.38,-30.25],[128.12,-28.75],[126.25,-27.38],[123.75,-27.62],[122.62,-29.0],[122.88,-30.0],[124.25,-31.38],[127.25,-31.62]]]}},{"type":"Feature","properties":{"kind":"blob","cls":4,"id":38},"geometry":{"type":"Polygon","coordinates":[[[-63.88,-65.5],[-63.75,-65.62],[-63.62,-65.5],[-63.88,-65.5]]]}},{"type":"Feature","properties":{"kind":"blob","cls":4,"id":39},"geometry":{"type":"Polygon","coordinates":[[[-117.25,34.38],[-116.75,34.88],[-116.25,34.38],[-115.62,35.0],[-116.5,35.62],[-117.25,35.12],[-116.62,35.75],[-117.75,35.88],[-118.12,35.0],[-117.25,34.38]]]}},{"type":"Feature","properties":{"kind":"blob","cls":3,"id":40},"geometry":{"type":"Polygon","coordinates":[[[178.0,27.38],[179.62,28.5],[179.88,29.25],[178.75,31.38],[177.0,31.62],[175.12,30.25],[175.12,28.75],[176.25,27.62],[178.0,27.38]]]}},{"type":"Feature","properties":{"kind":"blob","cls":3,"id":41},"geometry":{"type":"Polygon","coordinates":[[[-66.5,59.38],[-64.88,60.5],[-64.88,61.75],[-67.0,63.62],[-70.5,64.62],[-73.75,64.38],[-75.62,63.25],[-75.25,61.38],[-71.75,59.62],[-66.5,59.38]]]}},{"type":"Feature","properties":{"kind":"blob","cls":4,"id":42},"geometry":{"type":"MultiPolygon","coordinates":[[[[123.0,50.62],[126.25,50.62],[127.62,51.75],[127.62,52.75],[126.25,54.12],[124.0,54.88],[123.0,54.88],[122.25,54.38],[120.5,54.38],[119.62,53.5],[119.62,52.5],[120.75,51.38],[122.0,51.38],[122.75,52.38],[123.38,51.25],[121.88,51.0],[123.0,50.62]]],[[[122.0,54.88],[121.88,54.75],[122.25,54.62],[122.0,54.88]]]]}},{"type":"Feature","properties":{"kind":"blob","cls":4,"id":43},"geometry":{"type":"Polygon","coordinates":[[[132.0,-32.38],[133.12,-31.25],[133.12,-30.25],[132.5,-29.38],[130.75,-28.88],[129.5,-29.38],[128.88,-30.25],[128.88,-31.25],[129.38,-32.0],[132.0,-32.38]]]}},{"type":"Feature","properties":{"kind":"blob","cls":2,"id":44},"geometry":{"type":"Polygon","coordinates":[[[-96.12,15.0],[-96.0,14.62],[-92.38,14.75],[-93.25,16.12],[-94.0,16.38],[-95.25,16.12],[-96.12,15.0]]]}},{"type":"Feature","properties":{"kind":"blob","cls":1,"id":45},"geometry":{"type":"MultiPolygon","coordinates":[[[[-101.38,37.25],[-101.25,37.12],[-101.12,37.5],[-101.38,37.25]]],[[[-101.12,37.75],[-101.0,37.62],[-100.88,38.25],[-101.12,37.75]]]]}},{"type":"Feature","properties":{"kind":"blob","cls":5,"id":46},"geometry":{"type":"Polygon","coordinates":[[[-120.5,37.12],[-120.12,38.0],[-121.88,40.25],[-122.0,41.12],[-122.88,40.75],[-122.62,39.5],[-123.0,39.38],[-123.62,40.5],[-123.5,41.12],[-124.38,40.25],[-124.62,39.0],[-123.25,37.12],[-120.5,37.12]]]}},{"type":"Feature","properties":{"kind":"blob","cls":3,"id":47},"geometry":{"type":"Polygon","coordinates":[[[-118.75,35.38],[-118.62,36.0],[-119.25,36.88],[-119.38,36.0],[-118.75,35.38]]]}},{"type":"Feature","properties":{"kind":"blob","cls":0,"id":48},"geometry":{"type":"MultiPolygon","coordinates":[[[[-94.62,12.5],[-93.88,12.5],[-94.0,12.62],[-94.62,12.5]]],[[[-93.88,12.75],[-93.12,12.75],[-93.25,12.88],[-93.88,12.75]]]]}},{"type":"Feature","properties":{"kind":"blob","cls":4,"id":49},"geometry":{"type":"Polygon","coordinates":[[[74.0,29.12],[75.25,29.62],[75.88,30.5],[75.88,31.75],[75.25,32.38],[72.25,32.38],[70.5,31.88],[70.12,30.75],[71.0,29.62],[74.0,29.12]]]}},{"type":"Feature","properties":{"kind":"blob","cls":4,"id":50},"geometry":{"type":"MultiPolygon","coordinates":[[[[-79.75,77.88],[-79.88,77.75],[-79.75,77.62],[-79.75,77.88]]],[[[-69.25,75.62],[-64.25,76.38],[-66.88,76.75],[-64.62,77.5],[-65.5,77.88],[-69.62,78.0],[-69.0,78.38],[-67.0,78.38],[-62.25,79.38],[-61.88,79.75],[-66.25,80.38],[-73.75,80.12],[-77.62,79.0],[-76.5,78.62],[-79.62,78.0],[-76.25,77.62],[-76.75,76.88],[-78.12,76.5],[-77.5,76.12],[-69.25,75.62]],[[-71.62,78.25],[-70.12,78.25],[-70.25,78.12],[-71.62,78.25]],[[-68.0,76.88],[-68.12,77.0],[-67.5,77.12],[-68.0,76.88]]]]}},{"type":"Feature","properties":{"kind":"blob","cls":4,"id":51},"geometry":{"type":"Polygon","coordinates":[[[-67.25,-34.38],[-65.62,-33.5],[-66.38,-33.0],[-65.75,-32.38],[-65.38,-33.0],[-65.38,-32.0],[-66.0,-31.12],[-67.25,-30.62],[-67.38,-31.25],[-68.0,-31.62],[-67.75,-30.88],[-68.62,-31.0],[-69.12,-33.75],[-68.5,-33.62],[-67.25,-34.38]]]}},{"type":"Feature","properties":{"kind":"blob","cls":4,"id":52},"geometry":{"type":"Polygon","coordinates":[[[-64.0,-21.38],[-63.62,-21.0],[-64.0,-20.62],[-64.0,-21.38]]]}},{"type":"Feature","properties":{"kind":"blob","cls":4,"id":53},"geometry":{"type":"Polygon","coordinates":[[[44.5,-41.88],[45.62,-40.75],[45.62,-39.75],[44.25,-38.38],[42.0,-38.12],[40.5,-39.12],[40.38,-37.75],[38.75,-36.62],[37.0,-36.88],[36.12,-37.75],[35.88,-38.75],[37.0,-40.12],[38.75,-40.38],[40.0,-39.62],[40.12,-40.5],[41.25,-41.62],[44.5,-41.88]]]}},{"type":"Feature","properties":{"kind":"center","id":1,"lat":18.75,"lon":140.0,"mslp":939.3,"hvtl":98.7,"hvtu":218.8,"hb":1.9,"idx":2.5,"cls":0,"psfc":939.3,"terrain":false,"radius_km":200,"name":"sym deep warm","track":"T06"},"geometry":{"type":"Point","coordinates":[140.0,18.75]}},{"type":"Feature","properties":{"kind":"center","id":2,"lat":-66.25,"lon":-160.75,"mslp":947.4,"hvtl":-67.7,"hvtu":-257.4,"hb":87.9,"idx":-2.2,"cls":4,"psfc":947.4,"terrain":false,"radius_km":200,"name":"asym cold","track":"T09"},"geometry":{"type":"Point","coordinates":[-160.75,-66.25]}},{"type":"Feature","properties":{"kind":"center","id":3,"lat":17.25,"lon":160.0,"mslp":949.5,"hvtl":90.1,"hvtu":275.3,"hb":5.3,"idx":2.4,"cls":0,"psfc":949.5,"terrain":false,"radius_km":200,"name":"sym deep warm","track":"T12"},"geometry":{"type":"Point","coordinates":[160.0,17.25]}},{"type":"Feature","properties":{"kind":"center","id":4,"lat":-62.75,"lon":89.25,"mslp":950.2,"hvtl":215.1,"hvtu":-68.3,"hb":-17.6,"idx":1.4,"cls":1,"psfc":950.2,"terrain":false,"radius_km":200,"name":"sym shallow warm"},"geometry":{"type":"Point","coordinates":[89.25,-62.75]}},{"type":"Feature","properties":{"kind":"center","id":5,"lat":-61.25,"lon":75.75,"mslp":956.0,"hvtl":-12.8,"hvtu":-39.3,"hb":-18.7,"idx":-0.6,"cls":5,"psfc":956.0,"terrain":false,"radius_km":200,"name":"sym cold","track":"T07"},"geometry":{"type":"Point","coordinates":[75.75,-61.25]}},{"type":"Feature","properties":{"kind":"center","id":6,"lat":-60.25,"lon":-121.5,"mslp":958.9,"hvtl":-12.7,"hvtu":-39.4,"hb":-1.5,"idx":-0.6,"cls":5,"psfc":959.0,"terrain":false,"radius_km":200,"name":"sym cold","track":"T11"},"geometry":{"type":"Point","coordinates":[-121.5,-60.25]}},{"type":"Feature","properties":{"kind":"center","id":7,"lat":-65.75,"lon":162.0,"mslp":959.2,"hvtl":64.1,"hvtu":-245.1,"hb":64.3,"idx":0.1,"cls":3,"psfc":959.2,"terrain":false,"radius_km":200,"name":"asym shallow warm","track":"T15"},"geometry":{"type":"Point","coordinates":[162.0,-65.75]}},{"type":"Feature","properties":{"kind":"center","id":8,"lat":-74.5,"lon":-126.25,"mslp":962.7,"hvtl":-37.3,"hvtu":-56.3,"hb":38.4,"idx":-1.2,"cls":4,"psfc":954.7,"terrain":false,"radius_km":200,"name":"asym cold","track":"T29"},"geometry":{"type":"Point","coordinates":[-126.25,-74.5]}},{"type":"Feature","properties":{"kind":"center","id":9,"lat":-58.0,"lon":-15.0,"mslp":966.3,"hvtl":26.7,"hvtu":-100.6,"hb":7.9,"idx":-0.2,"cls":1,"psfc":966.2,"terrain":false,"radius_km":200,"name":"sym shallow warm"},"geometry":{"type":"Point","coordinates":[-15.0,-58.0]}},{"type":"Feature","properties":{"kind":"center","id":10,"lat":-75.0,"lon":-158.5,"mslp":967.1,"hvtl":11.7,"hvtu":-131.4,"hb":24.7,"idx":-0.6,"cls":3,"psfc":967.0,"terrain":false,"radius_km":200,"name":"asym shallow warm"},"geometry":{"type":"Point","coordinates":[-158.5,-75.0]}},{"type":"Feature","properties":{"kind":"center","id":11,"lat":-64.0,"lon":118.25,"mslp":967.6,"hvtl":-99.4,"hvtu":-256.1,"hb":46.1,"idx":-2.5,"cls":4,"psfc":967.6,"terrain":false,"radius_km":200,"name":"asym cold","track":"T26"},"geometry":{"type":"Point","coordinates":[118.25,-64.0]}},{"type":"Feature","properties":{"kind":"center","id":12,"lat":-59.75,"lon":135.5,"mslp":970.1,"hvtl":117.8,"hvtu":8.2,"hb":-2.3,"idx":1.7,"cls":0,"psfc":970.1,"terrain":false,"radius_km":200,"name":"sym deep warm","track":"T22"},"geometry":{"type":"Point","coordinates":[135.5,-59.75]}},{"type":"Feature","properties":{"kind":"center","id":13,"lat":63.25,"lon":-173.0,"mslp":970.7,"hvtl":58.0,"hvtu":-49.7,"hb":6.6,"idx":0.6,"cls":1,"psfc":970.7,"terrain":false,"radius_km":200,"name":"sym shallow warm","track":"T02"},"geometry":{"type":"Point","coordinates":[-173.0,63.25]}},{"type":"Feature","properties":{"kind":"center","id":14,"lat":56.5,"lon":-43.75,"mslp":972.9,"hvtl":-23.7,"hvtu":-121.4,"hb":21.5,"idx":-1.3,"cls":4,"psfc":972.9,"terrain":false,"radius_km":200,"name":"asym cold","track":"T49"},"geometry":{"type":"Point","coordinates":[-43.75,56.5]}},{"type":"Feature","properties":{"kind":"center","id":15,"lat":-41.75,"lon":-1.5,"mslp":975.6,"hvtl":-1.7,"hvtu":-343.6,"hb":53.6,"idx":-1.0,"cls":4,"psfc":975.6,"terrain":false,"radius_km":200,"name":"asym cold","track":"T33"},"geometry":{"type":"Point","coordinates":[-1.5,-41.75]}},{"type":"Feature","properties":{"kind":"center","id":16,"lat":-77.0,"lon":168.0,"mslp":983.7,"hvtl":141.5,"hvtu":-108.4,"hb":-26.2,"idx":1.0,"cls":1,"psfc":983.7,"terrain":false,"radius_km":200,"name":"sym shallow warm"},"geometry":{"type":"Point","coordinates":[168.0,-77.0]}},{"type":"Feature","properties":{"kind":"center","id":17,"lat":-74.25,"lon":168.5,"mslp":984.2,"hvtl":94.2,"hvtu":-109.0,"hb":-4.4,"idx":0.7,"cls":1,"psfc":984.2,"terrain":false,"radius_km":200,"name":"sym shallow warm","track":"T46"},"geometry":{"type":"Point","coordinates":[168.5,-74.25]}},{"type":"Feature","properties":{"kind":"center","id":18,"lat":-43.75,"lon":-131.75,"mslp":984.3,"hvtl":-111.5,"hvtu":-207.9,"hb":21.9,"idx":-2.6,"cls":4,"psfc":984.3,"terrain":false,"radius_km":200,"name":"asym cold"},"geometry":{"type":"Point","coordinates":[-131.75,-43.75]}},{"type":"Feature","properties":{"kind":"center","id":19,"lat":-67.75,"lon":47.0,"mslp":984.6,"hvtl":-61.1,"hvtu":-70.1,"hb":6.3,"idx":-1.7,"cls":5,"psfc":906.3,"terrain":false,"radius_km":200,"name":"sym cold","track":"T52"},"geometry":{"type":"Point","coordinates":[47.0,-67.75]}},{"type":"Feature","properties":{"kind":"center","id":20,"lat":66.25,"lon":6.25,"mslp":987.7,"hvtl":142.0,"hvtu":-56.1,"hb":-2.9,"idx":1.3,"cls":1,"psfc":987.7,"terrain":false,"radius_km":200,"name":"sym shallow warm","track":"T57"},"geometry":{"type":"Point","coordinates":[6.25,66.25]}},{"type":"Feature","properties":{"kind":"center","id":21,"lat":-70.25,"lon":25.0,"mslp":990.6,"hvtl":-149.8,"hvtu":-125.4,"hb":45.5,"idx":-2.7,"cls":4,"psfc":987.2,"terrain":false,"radius_km":200,"name":"asym cold"},"geometry":{"type":"Point","coordinates":[25.0,-70.25]}},{"type":"Feature","properties":{"kind":"center","id":22,"lat":61.75,"lon":24.25,"mslp":990.9,"hvtl":-42.4,"hvtu":-64.8,"hb":36.1,"idx":-1.4,"cls":4,"psfc":973.0,"terrain":false,"radius_km":200,"name":"asym cold","track":"T77"},"geometry":{"type":"Point","coordinates":[24.25,61.75]}},{"type":"Feature","properties":{"kind":"center","id":23,"lat":-78.5,"lon":-29.25,"mslp":991.5,"hvtl":-196.0,"hvtu":-139.6,"hb":31.0,"idx":-2.8,"cls":4,"psfc":912.2,"terrain":false,"radius_km":200,"name":"asym cold"},"geometry":{"type":"Point","coordinates":[-29.25,-78.5]}},{"type":"Feature","properties":{"kind":"center","id":24,"lat":64.75,"lon":48.75,"mslp":992.6,"hvtl":-133.9,"hvtu":-25.8,"hb":34.4,"idx":-2.0,"cls":4,"psfc":970.8,"terrain":false,"radius_km":200,"name":"asym cold","track":"T81"},"geometry":{"type":"Point","coordinates":[48.75,64.75]}},{"type":"Feature","properties":{"kind":"center","id":25,"lat":-67.5,"lon":-60.5,"mslp":992.7,"hvtl":-132.0,"hvtu":-208.1,"hb":39.6,"idx":-2.7,"cls":4,"psfc":991.8,"terrain":false,"radius_km":200,"name":"asym cold"},"geometry":{"type":"Point","coordinates":[-60.5,-67.5]}},{"type":"Feature","properties":{"kind":"center","id":26,"lat":53.5,"lon":-96.75,"mslp":993.2,"hvtl":-290.4,"hvtu":-257.0,"hb":117.1,"idx":-3.0,"cls":4,"psfc":963.7,"terrain":false,"radius_km":200,"name":"asym cold","track":"T72"},"geometry":{"type":"Point","coordinates":[-96.75,53.5]}},{"type":"Feature","properties":{"kind":"center","id":27,"lat":-48.0,"lon":-82.75,"mslp":993.9,"hvtl":-31.8,"hvtu":-9.2,"hb":-1.2,"idx":-0.7,"cls":5,"psfc":993.9,"terrain":false,"radius_km":200,"name":"sym cold","track":"T74"},"geometry":{"type":"Point","coordinates":[-82.75,-48.0]}},{"type":"Feature","properties":{"kind":"center","id":28,"lat":84.5,"lon":29.5,"mslp":994.1,"hvtl":-23.5,"hvtu":12.0,"hb":12.3,"idx":-0.3,"cls":6,"psfc":994.1,"terrain":false,"radius_km":200,"name":"shallow cold","track":"T50"},"geometry":{"type":"Point","coordinates":[29.5,84.5]}},{"type":"Feature","properties":{"kind":"center","id":29,"lat":45.25,"lon":-99.25,"mslp":994.9,"hvtl":-158.3,"hvtu":-189.3,"hb":74.7,"idx":-2.8,"cls":4,"psfc":937.5,"terrain":false,"radius_km":200,"name":"asym cold"},"geometry":{"type":"Point","coordinates":[-99.25,45.25]}},{"type":"Feature","properties":{"kind":"center","id":30,"lat":59.75,"lon":15.0,"mslp":995.0,"hvtl":-42.0,"hvtu":-69.6,"hb":20.8,"idx":-1.4,"cls":4,"psfc":969.9,"terrain":false,"radius_km":200,"name":"asym cold"},"geometry":{"type":"Point","coordinates":[15.0,59.75]}},{"type":"Feature","properties":{"kind":"center","id":31,"lat":73.75,"lon":17.0,"mslp":996.7,"hvtl":6.9,"hvtu":-172.4,"hb":46.2,"idx":-0.8,"cls":3,"psfc":996.7,"terrain":false,"radius_km":200,"name":"asym shallow warm"},"geometry":{"type":"Point","coordinates":[17.0,73.75]}},{"type":"Feature","properties":{"kind":"center","id":32,"lat":26.5,"lon":-123.75,"mslp":1001.0,"hvtl":66.1,"hvtu":-78.4,"hb":20.9,"idx":0.5,"cls":3,"psfc":1001.0,"terrain":false,"radius_km":200,"name":"asym shallow warm","track":"T42"},"geometry":{"type":"Point","coordinates":[-123.75,26.5]}},{"type":"Feature","properties":{"kind":"center","id":33,"lat":72.0,"lon":80.0,"mslp":1001.2,"hvtl":18.5,"hvtu":-204.2,"hb":37.2,"idx":-0.6,"cls":3,"psfc":999.2,"terrain":false,"radius_km":200,"name":"asym shallow warm"},"geometry":{"type":"Point","coordinates":[80.0,72.0]}},{"type":"Feature","properties":{"kind":"center","id":34,"lat":-66.0,"lon":-64.5,"mslp":1001.9,"hvtl":-162.3,"hvtu":-203.1,"hb":23.1,"idx":-2.8,"cls":4,"psfc":922.0,"terrain":false,"radius_km":200,"name":"asym cold"},"geometry":{"type":"Point","coordinates":[-64.5,-66.0]}},{"type":"Feature","properties":{"kind":"center","id":35,"lat":-31.0,"lon":-42.25,"mslp":1002.4,"hvtl":-40.4,"hvtu":-206.1,"hb":52.5,"idx":-1.7,"cls":4,"psfc":1002.4,"terrain":false,"radius_km":200,"name":"asym cold"},"geometry":{"type":"Point","coordinates":[-42.25,-31.0]}},{"type":"Feature","properties":{"kind":"center","id":36,"lat":14.25,"lon":-103.25,"mslp":1003.2,"hvtl":20.6,"hvtu":24.4,"hb":9.4,"idx":0.6,"cls":0,"psfc":1003.2,"terrain":false,"radius_km":200,"name":"sym deep warm","track":"T104"},"geometry":{"type":"Point","coordinates":[-103.25,14.25]}},{"type":"Feature","properties":{"kind":"center","id":37,"lat":-29.75,"lon":125.75,"mslp":1003.4,"hvtl":-131.7,"hvtu":-286.8,"hb":91.6,"idx":-2.7,"cls":4,"psfc":979.5,"terrain":false,"radius_km":200,"name":"asym cold"},"geometry":{"type":"Point","coordinates":[125.75,-29.75]}},{"type":"Feature","properties":{"kind":"center","id":38,"lat":-65.5,"lon":-63.75,"mslp":1003.7,"hvtl":-150.4,"hvtu":-204.3,"hb":22.1,"idx":-2.8,"cls":4,"psfc":928.7,"terrain":false,"radius_km":200,"name":"asym cold"},"geometry":{"type":"Point","coordinates":[-63.75,-65.5]}},{"type":"Feature","properties":{"kind":"center","id":39,"lat":35.75,"lon":-116.75,"mslp":1003.7,"hvtl":-3.2,"hvtu":-331.0,"hb":40.2,"idx":-1.1,"cls":4,"psfc":931.5,"terrain":false,"radius_km":200,"name":"asym cold"},"geometry":{"type":"Point","coordinates":[-116.75,35.75]}},{"type":"Feature","properties":{"kind":"center","id":40,"lat":29.5,"lon":177.5,"mslp":1003.8,"hvtl":64.7,"hvtu":-113.0,"hb":11.5,"idx":0.3,"cls":3,"psfc":1003.8,"terrain":false,"radius_km":200,"name":"asym shallow warm","track":"T70"},"geometry":{"type":"Point","coordinates":[177.5,29.5]}},{"type":"Feature","properties":{"kind":"center","id":41,"lat":61.75,"lon":-69.75,"mslp":1004.0,"hvtl":25.7,"hvtu":-338.6,"hb":11.6,"idx":-0.5,"cls":3,"psfc":1004.0,"terrain":false,"radius_km":200,"name":"asym shallow warm","track":"T109"},"geometry":{"type":"Point","coordinates":[-69.75,61.75]}},{"type":"Feature","properties":{"kind":"center","id":42,"lat":53.0,"lon":123.0,"mslp":1004.5,"hvtl":-44.4,"hvtu":-240.3,"hb":41.8,"idx":-1.8,"cls":4,"psfc":935.8,"terrain":false,"radius_km":200,"name":"asym cold","track":"T101"},"geometry":{"type":"Point","coordinates":[123.0,53.0]}},{"type":"Feature","properties":{"kind":"center","id":43,"lat":-30.75,"lon":131.0,"mslp":1005.2,"hvtl":-96.3,"hvtu":-216.9,"hb":70.9,"idx":-2.5,"cls":4,"psfc":993.3,"terrain":false,"radius_km":200,"name":"asym cold"},"geometry":{"type":"Point","coordinates":[131.0,-30.75]}},{"type":"Feature","properties":{"kind":"center","id":44,"lat":15.0,"lon":-94.5,"mslp":1005.6,"hvtl":82.5,"hvtu":41.4,"hb":13.6,"idx":1.7,"cls":2,"psfc":1005.6,"terrain":false,"radius_km":200,"name":"asym deep warm","track":"T108"},"geometry":{"type":"Point","coordinates":[-94.5,15.0]}},{"type":"Feature","properties":{"kind":"center","id":45,"lat":38.25,"lon":-101.0,"mslp":1006.7,"hvtl":103.3,"hvtu":-209.3,"hb":-19.3,"idx":0.6,"cls":1,"psfc":905.0,"terrain":true,"radius_km":200,"name":"sym shallow warm"},"geometry":{"type":"Point","coordinates":[-101.0,38.25]}},{"type":"Feature","properties":{"kind":"center","id":46,"lat":39.25,"lon":-122.0,"mslp":1007.1,"hvtl":-1.3,"hvtu":-291.4,"hb":8.6,"idx":-1.0,"cls":5,"psfc":1004.6,"terrain":false,"radius_km":200,"name":"sym cold"},"geometry":{"type":"Point","coordinates":[-122.0,39.25]}},{"type":"Feature","properties":{"kind":"center","id":47,"lat":36.25,"lon":-119.25,"mslp":1007.4,"hvtl":73.1,"hvtu":-346.1,"hb":36.4,"idx":0.2,"cls":3,"psfc":995.9,"terrain":false,"radius_km":200,"name":"asym shallow warm"},"geometry":{"type":"Point","coordinates":[-119.25,36.25]}},{"type":"Feature","properties":{"kind":"center","id":48,"lat":12.5,"lon":-94.5,"mslp":1008.6,"hvtl":69.5,"hvtu":38.4,"hb":-6.2,"idx":1.6,"cls":0,"psfc":1008.6,"terrain":false,"radius_km":200,"name":"sym deep warm"},"geometry":{"type":"Point","coordinates":[-94.5,12.5]}},{"type":"Feature","properties":{"kind":"center","id":49,"lat":30.75,"lon":72.25,"mslp":1009.3,"hvtl":-20.6,"hvtu":-107.9,"hb":15.2,"idx":-1.2,"cls":4,"psfc":992.9,"terrain":false,"radius_km":200,"name":"asym cold","track":"T106"},"geometry":{"type":"Point","coordinates":[72.25,30.75]}},{"type":"Feature","properties":{"kind":"center","id":50,"lat":77.5,"lon":-71.5,"mslp":1009.4,"hvtl":-168.2,"hvtu":-106.2,"hb":29.1,"idx":-2.7,"cls":4,"psfc":1008.9,"terrain":false,"radius_km":200,"name":"asym cold","track":"T112"},"geometry":{"type":"Point","coordinates":[-71.5,77.5]}},{"type":"Feature","properties":{"kind":"center","id":51,"lat":-32.5,"lon":-67.5,"mslp":1013.1,"hvtl":-51.3,"hvtu":-170.7,"hb":18.2,"idx":-1.9,"cls":4,"psfc":955.8,"terrain":false,"radius_km":200,"name":"asym cold","track":"T127"},"geometry":{"type":"Point","coordinates":[-67.5,-32.5]}},{"type":"Feature","properties":{"kind":"center","id":52,"lat":-21.0,"lon":-63.75,"mslp":1014.2,"hvtl":-180.2,"hvtu":-162.1,"hb":33.3,"idx":-2.8,"cls":4,"psfc":924.6,"terrain":false,"radius_km":200,"name":"asym cold","track":"T132"},"geometry":{"type":"Point","coordinates":[-63.75,-21.0]}},{"type":"Feature","properties":{"kind":"center","id":53,"lat":-38.5,"lon":38.25,"mslp":1015.2,"hvtl":-229.6,"hvtu":-273.1,"hb":84.5,"idx":-3.0,"cls":4,"psfc":1015.2,"terrain":false,"radius_km":200,"name":"asym cold"},"geometry":{"type":"Point","coordinates":[38.25,-38.5]}}]}