{"type":"FeatureCollection","features":[{"type":"Feature","properties":{"kind":"blob","cls":1,"id":1},"geometry":{"type":"Polygon","coordinates":[[[116.0,-64.38],[118.0,-63.88],[118.88,-63.25],[119.12,-62.25],[117.75,-60.88],[115.75,-60.38],[112.25,-60.62],[110.62,-61.5],[110.38,-62.5],[110.75,-63.12],[112.75,-64.12],[116.0,-64.38]],[[112.62,-61.5],[113.0,-61.12],[114.88,-61.25],[114.25,-61.88],[112.62,-61.5]]]}},{"type":"Feature","properties":{"kind":"blob","cls":1,"id":2},"geometry":{"type":"Polygon","coordinates":[[[19.75,-69.62],[21.5,-68.88],[22.12,-68.0],[21.25,-66.88],[19.75,-66.12],[17.25,-65.62],[16.25,-64.12],[15.0,-63.62],[10.0,-63.62],[8.75,-64.12],[7.62,-65.25],[12.0,-65.38],[12.38,-65.75],[11.5,-66.12],[8.25,-66.38],[8.38,-67.5],[10.25,-68.88],[12.25,-69.62],[19.75,-69.62]]]}},{"type":"Feature","properties":{"kind":"blob","cls":3,"id":3},"geometry":{"type":"Polygon","coordinates":[[[155.25,-67.12],[156.5,-66.62],[158.75,-66.62],[159.25,-67.12],[160.25,-67.12],[162.0,-66.38],[162.88,-65.0],[162.0,-63.88],[160.75,-63.38],[157.75,-62.88],[153.75,-63.12],[151.88,-64.25],[151.62,-65.25],[152.5,-66.38],[155.25,-67.12]]]}},{"type":"Feature","properties":{"kind":"blob","cls":2,"id":4},"geometry":{"type":"Polygon","coordinates":[[[146.25,31.62],[147.88,32.5],[148.12,34.25],[147.25,35.38],[145.5,35.88],[143.62,34.75],[143.38,33.0],[144.0,32.12],[146.25,31.62]]]}},{"type":"Feature","properties":{"kind":"blob","cls":4,"id":5},"geometry":{"type":"Polygon","coordinates":[[[28.25,-67.12],[32.0,-67.12],[33.25,-66.62],[34.12,-65.75],[34.12,-65.25],[33.25,-64.12],[30.5,-63.38],[26.75,-63.62],[24.88,-64.75],[24.62,-65.25],[25.75,-66.62],[28.25,-67.12]]]}},{"type":"Feature","properties":{"kind":"blob","cls":4,"id":6},"geometry":{"type":"Polygon","coordinates":[[[-10.25,-68.62],[-8.0,-68.12],[-8.62,-67.5],[-7.75,-66.88],[-6.25,-66.62],[-6.38,-65.5],[-7.75,-64.38],[-10.0,-63.88],[-14.0,-64.38],[-16.12,-66.0],[-16.38,-67.0],[-15.0,-68.12],[-10.25,-68.62]]]}},{"type":"Feature","properties":{"kind":"blob","cls":1,"id":7},"geometry":{"type":"Polygon","coordinates":[[[-115.25,-66.62],[-114.0,-66.12],[-113.12,-65.0],[-114.5,-63.62],[-116.5,-63.38],[-116.88,-62.25],[-117.88,-61.5],[-115.25,-60.88],[-114.12,-59.75],[-114.12,-59.25],[-115.25,-58.12],[-117.0,-57.62],[-119.0,-57.62],[-121.0,-58.38],[-121.5,-57.88],[-123.25,-57.38],[-125.25,-57.38],[-127.0,-57.88],[-127.88,-58.75],[-128.12,-59.75],[-127.0,-60.88],[-125.0,-61.38],[-125.25,-62.12],[-123.25,-62.12],[-122.88,-62.5],[-122.88,-63.0],[-124.12,-64.0],[-123.75,-64.38],[-121.75,-64.62],[-121.62,-65.5],[-120.5,-66.38],[-115.25,-66.62]]]}},{"type":"Feature","properties":{"kind":"blob","cls":4,"id":8},"geometry":{"type":"Polygon","coordinates":[[[179.75,-80.12],[180.0,-78.62],[179.12,-79.25],[179.12,-79.75],[179.75,-80.12]]]}},{"type":"Feature","properties":{"kind":"blob","cls":4,"id":8},"geometry":{"type":"Polygon","coordinates":[[[-179.88,-78.5],[-180.0,-80.12],[-179.25,-80.62],[-176.25,-81.38],[-171.25,-81.88],[-162.0,-81.62],[-159.0,-81.12],[-156.62,-80.0],[-159.5,-80.38],[-165.5,-80.12],[-166.38,-79.5],[-165.75,-78.88],[-159.38,-78.0],[-165.5,-77.12],[-175.0,-77.38],[-179.88,-78.5]]]}},{"type":"Feature","properties":{"kind":"blob","cls":4,"id":9},"geometry":{"type":"Polygon","coordinates":[[[-130.5,-56.38],[-128.75,-55.88],[-127.12,-54.75],[-126.88,-53.75],[-127.5,-52.88],[-129.5,-52.12],[-131.0,-52.12],[-133.5,-52.88],[-134.88,-53.75],[-135.12,-54.75],[-134.5,-55.62],[-130.5,-56.38]]]}},{"type":"Feature","properties":{"kind":"blob","cls":5,"id":10},"geometry":{"type":"Polygon","coordinates":[[[42.0,67.12],[45.5,68.12],[46.75,69.88],[48.25,70.38],[49.38,71.25],[49.62,72.25],[49.12,73.25],[47.0,74.38],[44.0,74.88],[39.5,74.62],[36.5,73.62],[35.88,72.75],[35.88,72.0],[34.5,71.38],[33.62,70.5],[33.62,70.0],[35.5,68.12],[37.25,67.38],[42.0,67.12]]]}},{"type":"Feature","properties":{"kind":"blob","cls":4,"id":11},"geometry":{"type":"Polygon","coordinates":[[[79.5,-61.88],[82.75,-60.88],[84.25,-59.38],[85.0,-59.38],[86.38,-58.5],[86.38,-57.0],[85.0,-56.12],[82.5,-55.88],[80.0,-57.12],[78.0,-57.38],[76.25,-58.12],[75.12,-59.25],[75.12,-60.25],[76.25,-61.38],[79.5,-61.88]]]}},{"type":"Feature","properties":{"kind":"blob","cls":0,"id":12},"geometry":{"type":"Polygon","coordinates":[[[-117.5,18.62],[-116.62,19.75],[-116.88,21.25],[-118.25,22.12],[-119.5,21.88],[-120.38,20.75],[-120.25,19.62],[-119.75,20.38],[-118.75,20.38],[-118.38,20.0],[-118.75,18.88],[-119.62,18.75],[-117.5,18.62]]]}},{"type":"Feature","properties":{"kind":"blob","cls":6,"id":13},"geometry":{"type":"Polygon","coordinates":[[[-63.5,49.12],[-62.0,49.62],[-61.12,50.75],[-61.12,51.75],[-62.5,51.62],[-62.62,52.25],[-61.88,52.5],[-64.25,53.62],[-67.25,53.12],[-68.12,52.25],[-68.12,51.75],[-67.62,51.5],[-68.12,51.0],[-66.75,49.62],[-63.5,49.12]],[[-65.0,51.62],[-65.12,51.75],[-65.0,51.88],[-65.0,51.62]],[[-64.25,51.12],[-64.62,51.5],[-64.25,51.62],[-64.25,51.12]]]}},{"type":"Feature","properties":{"kind":"blob","cls":4,"id":14},"geometry":{"type":"Polygon","coordinates":[[[-15.5,-47.38],[-11.5,-47.38],[-10.38,-46.5],[-10.12,-45.5],[-11.0,-44.38],[-13.0,-43.62],[-16.5,-43.88],[-17.62,-44.75],[-17.88,-45.75],[-17.0,-46.88],[-15.5,-47.38]]]}},{"type":"Feature","properties":{"kind":"blob","cls":3,"id":15},"geometry":{"type":"Polygon","coordinates":[[[155.0,55.38],[156.62,56.75],[156.62,57.25],[155.75,58.38],[153.25,59.38],[150.75,59.38],[148.75,58.62],[148.12,57.75],[148.38,56.5],[150.25,55.38],[155.0,55.38]]]}},{"type":"Feature","properties":{"kind":"blob","cls":4,"id":16},"geometry":{"type":"Polygon","coordinates":[[[-57.0,51.88],[-55.0,52.62],[-54.12,53.75],[-54.38,55.25],[-55.0,55.88],[-57.0,56.62],[-59.25,56.38],[-61.0,55.62],[-61.62,54.75],[-61.38,53.0],[-60.0,52.12],[-57.0,51.88]]]}},{"type":"Feature","properties":{"kind":"blob","cls":4,"id":17},"geometry":{"type":"Polygon","coordinates":[[[-48.5,51.12],[-47.0,51.62],[-45.88,52.5],[-45.38,53.5],[-45.88,54.5],[-48.0,55.38],[-49.75,55.38],[-51.75,54.62],[-52.62,53.5],[-52.62,52.5],[-51.75,51.62],[-48.5,51.12]]]}},{"type":"Feature","properties":{"kind":"blob","cls":0,"id":18},"geometry":{"type":"Polygon","coordinates":[[[169.0,24.62],[169.88,25.5],[169.88,27.25],[169.0,28.12],[167.5,28.38],[165.88,27.25],[165.88,25.5],[166.75,24.62],[169.0,24.62]]]}},{"type":"Feature","properties":{"kind":"blob","cls":4,"id":19},"geometry":{"type":"Polygon","coordinates":[[[-87.75,-63.38],[-85.5,-62.62],[-84.62,-61.5],[-84.88,-60.25],[-85.75,-59.38],[-88.0,-58.62],[-90.75,-58.62],[-93.0,-59.38],[-93.62,-60.0],[-93.62,-61.25],[-92.5,-62.38],[-91.0,-63.12],[-87.75,-63.38]]]}},{"type":"Feature","properties":{"kind":"blob","cls":4,"id":20},"geometry":{"type":"Polygon","coordinates":[[[-94.0,56.62],[-92.0,57.38],[-91.38,58.0],[-91.12,59.25],[-91.38,61.0],[-93.0,62.12],[-95.0,62.62],[-97.0,62.62],[-99.25,61.88],[-100.38,60.5],[-100.38,59.25],[-98.75,57.38],[-94.0,56.62]]]}},{"type":"Feature","properties":{"kind":"blob","cls":3,"id":21},"geometry":{"type":"MultiPolygon","coordinates":[[[[-68.5,-31.88],[-68.0,-31.88],[-68.12,-31.25],[-67.62,-31.0],[-68.25,-30.12],[-68.38,-31.25],[-68.5,-31.88]]],[[[-67.5,-31.38],[-67.88,-31.5],[-67.25,-31.62],[-66.12,-30.25],[-66.5,-28.88],[-67.38,-30.25],[-67.5,-31.38]]]]}},{"type":"Feature","properties":{"kind":"blob","cls":4,"id":22},"geometry":{"type":"Polygon","coordinates":[[[-61.0,-81.38],[-48.75,-81.62],[-48.62,-81.25],[-56.25,-81.12],[-61.0,-81.38]]]}},{"type":"Feature","properties":{"kind":"blob","cls":4,"id":23},"geometry":{"type":"Polygon","coordinates":[[[-124.0,-42.62],[-122.88,-41.5],[-122.88,-40.25],[-124.25,-38.88],[-126.0,-38.62],[-127.88,-40.0],[-127.88,-41.25],[-126.5,-42.62],[-124.0,-42.62]]]}},{"type":"Feature","properties":{"kind":"blob","cls":4,"id":24},"geometry":{"type":"Polygon","coordinates":[[[-148.0,56.62],[-144.0,57.62],[-142.88,58.75],[-142.62,60.0],[-144.0,60.62],[-144.25,61.12],[-145.0,61.12],[-145.0,60.62],[-146.0,61.12],[-150.25,60.88],[-152.62,59.0],[-152.62,58.0],[-151.0,56.88],[-148.0,56.62]],[[-149.12,60.25],[-149.0,60.62],[-148.62,60.25],[-149.12,60.25]],[[-150.62,59.75],[-150.0,60.38],[-149.88,60.0],[-150.62,59.75]]]}},{"type":"Feature","properties":{"kind":"blob","cls":4,"id":25},"geometry":{"type":"MultiPolygon","coordinates":[[[[-65.5,-27.12],[-64.88,-26.75],[-65.25,-26.12],[-65.38,-26.25],[-65.5,-27.12]]],[[[-64.62,-26.0],[-64.75,-26.62],[-64.38,-26.25],[-64.5,-24.62],[-65.12,-25.75],[-64.62,-26.0]]],[[[-64.62,-24.5],[-64.75,-24.38],[-64.88,-24.5],[-64.62,-24.5]]]]}},{"type":"Feature","properties":{"kind":"blob","cls":5,"id":26},"geometry":{"type":"MultiPolygon","coordinates":[[[[-64.25,-22.62],[-64.38,-22.75],[-64.25,-22.88],[-64.25,-22.62]]],[[[-64.0,-22.62],[-63.38,-22.0],[-63.5,-20.88],[-64.12,-21.0],[-63.62,-21.5],[-64.0,-22.62]]]]}},{"type":"Feature","properties":{"kind":"blob","cls":5,"id":27},"geometry":{"type":"Polygon","coordinates":[[[-32.0,62.12],[-29.75,62.62],[-27.62,64.0],[-27.62,65.0],[-29.75,66.38],[-34.0,66.62],[-36.25,66.12],[-37.62,65.0],[-37.25,63.38],[-35.5,62.38],[-32.0,62.12]]]}},{"type":"Feature","properties":{"kind":"blob","cls":4,"id":28},"geometry":{"type":"Polygon","coordinates":[[[-77.0,-38.12],[-75.75,-38.38],[-74.12,-37.25],[-74.12,-35.75],[-76.0,-34.38],[-77.25,-34.38],[-78.88,-35.5],[-78.88,-37.25],[-78.25,-37.88],[-77.5,-37.62],[-77.0,-38.12]]]}},{"type":"Feature","properties":{"kind":"blob","cls":4,"id":29},"geometry":{"type":"Polygon","coordinates":[[[-63.75,-19.12],[-63.5,-19.38],[-63.12,-19.0],[-63.38,-17.5],[-64.5,-16.88],[-65.25,-15.88],[-66.5,-15.62],[-66.62,-16.0],[-65.5,-17.12],[-64.0,-17.62],[-63.38,-18.25],[-63.75,-19.12]]]}},{"type":"Feature","properties":{"kind":"blob","cls":4,"id":30},"geometry":{"type":"Polygon","coordinates":[[[-38.0,-49.62],[-36.75,-49.12],[-35.62,-48.0],[-35.62,-47.0],[-36.5,-46.12],[-37.75,-45.62],[-40.25,-46.12],[-41.38,-47.25],[-41.38,-48.25],[-40.5,-49.12],[-38.0,-49.62]]]}},{"type":"Feature","properties":{"kind":"blob","cls":4,"id":31},"geometry":{"type":"Polygon","coordinates":[[[79.0,56.88],[81.0,57.62],[81.88,58.5],[81.88,59.5],[81.0,60.38],[79.25,60.88],[76.0,60.38],[74.88,59.25],[74.88,58.25],[76.5,57.12],[79.0,56.88]],[[77.12,58.0],[78.0,58.88],[79.38,58.75],[78.75,57.62],[77.12,58.0]]]}},{"type":"Feature","properties":{"kind":"blob","cls":4,"id":32},"geometry":{"type":"Polygon","coordinates":[[[166.25,-45.12],[167.88,-44.25],[168.12,-42.5],[167.5,-41.62],[165.0,-41.12],[163.38,-42.0],[163.12,-43.75],[163.75,-44.62],[166.25,-45.12]]]}},{"type":"Feature","properties":{"kind":"blob","cls":0,"id":33},"geometry":{"type":"Polygon","coordinates":[[[41.38,10.0],[41.75,9.62],[42.38,10.0],[41.88,11.25],[42.88,12.0],[43.12,13.5],[41.75,15.38],[40.5,15.62],[39.62,15.25],[40.12,13.5],[39.88,12.0],[41.38,11.5],[41.38,10.0]]]}},{"type":"Feature","properties":{"kind":"blob","cls":1,"id":34},"geometry":{"type":"MultiPolygon","coordinates":[[[[66.75,25.38],[68.5,25.38],[69.88,27.0],[69.62,28.5],[71.75,28.62],[73.88,30.75],[74.12,32.25],[72.25,32.38],[70.5,31.88],[69.75,29.62],[68.75,29.62],[67.75,30.12],[67.38,29.75],[66.88,27.0],[65.62,26.75],[65.62,26.25],[66.75,25.38]]],[[[68.75,30.12],[68.62,30.0],[68.75,29.88],[68.75,30.12]]]]}},{"type":"Feature","properties":{"kind":"blob","cls":4,"id":35},"geometry":{"type":"Polygon","coordinates":[[[47.5,29.12],[48.75,29.62],[49.62,30.75],[49.62,32.25],[48.75,32.88],[48.0,32.88],[47.75,33.38],[47.5,32.88],[46.75,33.12],[45.5,34.38],[44.12,33.0],[44.12,30.75],[45.0,29.62],[47.5,29.12]]]}},{"type":"Feature","properties":{"kind":"blob","cls":3,"id":36},"geometry":{"type":"Polygon","coordinates":[[[18.0,-26.62],[18.38,-26.0],[17.75,-25.38],[17.62,-25.5],[18.0,-26.62]]]}},{"type":"Feature","properties":{"kind":"blob","cls":1,"id":37},"geometry":{"type":"Polygon","coordinates":[[[65.5,28.12],[65.5,28.88],[65.38,28.75],[65.5,28.12]]]}},{"type":"Feature","properties":{"kind":"blob","cls":1,"id":38},"geometry":{"type":"MultiPolygon","coordinates":[[[[97.5,23.38],[97.38,23.25],[97.5,23.12],[97.5,23.38]]],[[[97.0,23.12],[97.38,24.25],[95.75,25.62],[94.12,24.75],[94.75,24.12],[97.0,23.12]]]]}},{"type":"Feature","properties":{"kind":"blob","cls":3,"id":39},"geometry":{"type":"Polygon","coordinates":[[[15.88,-25.5],[16.0,-25.62],[16.12,-25.5],[15.88,-25.5]]]}},{"type":"Feature","properties":{"kind":"blob","cls":3,"id":40},"geometry":{"type":"MultiPolygon","coordinates":[[[[62.62,30.0],[63.38,30.0],[63.25,30.12],[62.62,30.0]]],[[[61.5,30.38],[62.62,30.25],[61.12,32.0],[62.12,32.25],[61.5,33.62],[60.88,32.75],[60.88,31.25],[61.5,30.38]]]]}},{"type":"Feature","properties":{"kind":"blob","cls":5,"id":41},"geometry":{"type":"Polygon","coordinates":[[[94.0,25.62],[94.38,26.25],[94.0,26.38],[94.0,25.62]]]}},{"type":"Feature","properties":{"kind":"blob","cls":1,"id":42},"geometry":{"type":"Polygon","coordinates":[[[65.62,29.25],[65.75,29.12],[65.88,29.5],[65.62,29.25]]]}},{"type":"Feature","properties":{"kind":"blob","cls":4,"id":43},"geometry":{"type":"Polygon","coordinates":[[[-56.12,73.75],[-56.0,73.62],[-55.88,73.75],[-56.12,73.75]]]}},{"type":"Feature","properties":{"kind":"blob","cls":4,"id":44},"geometry":{"type":"Polygon","coordinates":[[[-56.38,74.0],[-58.75,75.12],[-59.75,76.38],[-61.88,76.25],[-61.62,75.25],[-61.0,74.62],[-56.38,74.0]]]}},{"type":"Feature","properties":{"kind":"blob","cls":4,"id":45},"geometry":{"type":"MultiPolygon","coordinates":[[[[111.75,52.62],[113.12,53.25],[112.5,53.38],[111.75,52.62]]],[[[113.25,53.38],[113.75,52.88],[113.62,53.25],[114.75,53.62],[115.38,54.75],[115.0,55.12],[114.5,54.38],[114.0,54.62],[113.38,54.0],[113.88,53.75],[113.25,53.38]]]]}},{"type":"Feature","properties":{"kind":"blob","cls":3,"id":46},"geometry":{"type":"Polygon","coordinates":[[[179.88,-34.25],[180.0,-32.38],[179.0,-32.88],[178.38,-33.75],[178.38,-34.75],[179.0,-35.62],[179.88,-34.25]]]}},{"type":"Feature","properties":{"kind":"blob","cls":3,"id":46},"geometry":{"type":"Polygon","coordinates":[[[-179.75,-32.38],[-180.0,-34.12],[-179.25,-33.88],[-178.62,-34.5],[-178.38,-35.25],[-178.75,-36.12],[-177.5,-35.88],[-176.38,-35.0],[-176.12,-33.5],[-177.0,-32.38],[-178.75,-31.88],[-179.75,-32.38]]]}},{"type":"Feature","properties":{"kind":"blob","cls":4,"id":47},"geometry":{"type":"Polygon","coordinates":[[[109.62,53.75],[110.0,53.38],[111.38,55.0],[110.5,54.62],[109.62,53.75]]]}},{"type":"Feature","properties":{"kind":"blob","cls":4,"id":48},"geometry":{"type":"Polygon","coordinates":[[[109.12,54.5],[109.5,54.12],[109.88,54.5],[110.0,55.62],[109.38,55.25],[109.12,54.5]]]}},{"type":"Feature","properties":{"kind":"blob","cls":4,"id":49},"geometry":{"type":"Polygon","coordinates":[[[110.75,56.12],[112.0,55.88],[112.62,56.25],[111.75,56.38],[110.75,56.12]]]}},{"type":"Feature","properties":{"kind":"center","id":1,"lat":-62.25,"lon":114.5,"mslp":934.1,"hvtl":254.5,"hvtu":-128.7,"hb":-19.2,"idx":1.1,"cls":1,"psfc":934.1,"terrain":false,"radius_km":200,"name":"sym shallow warm","track":"T01"},"geometry":{"type":"Point","coordinates":[114.5,-62.25]}},{"type":"Feature","properties":{"kind":"center","id":2,"lat":-68.0,"lon":16.25,"mslp":951.6,"hvtl":51.2,"hvtu":-31.4,"hb":-4.9,"idx":0.6,"cls":1,"psfc":951.6,"terrain":false,"radius_km":200,"name":"sym shallow warm","track":"T05"},"geometry":{"type":"Point","coordinates":[16.25,-68.0]}},{"type":"Feature","properties":{"kind":"center","id":3,"lat":-65.25,"lon":157.75,"mslp":952.6,"hvtl":54.0,"hvtu":-49.1,"hb":18.1,"idx":0.5,"cls":3,"psfc":952.6,"terrain":false,"radius_km":200,"name":"asym shallow warm","track":"T04"},"geometry":{"type":"Point","coordinates":[157.75,-65.25]}},{"type":"Feature","properties":{"kind":"center","id":4,"lat":33.5,"lon":145.75,"mslp":953.7,"hvtl":110.4,"hvtu":184.5,"hb":19.5,"idx":2.6,"cls":2,"psfc":953.7,"terrain":false,"radius_km":200,"name":"asym deep warm","track":"T02"},"geometry":{"type":"Point","coordinates":[145.75,33.5]}},{"type":"Feature","properties":{"kind":"center","id":5,"lat":-65.25,"lon":29.5,"mslp":955.7,"hvtl":-61.1,"hvtu":-44.5,"hb":11.7,"idx":-1.5,"cls":4,"psfc":955.7,"terrain":false,"radius_km":200,"name":"asym cold","track":"T21"},"geometry":{"type":"Point","coordinates":[29.5,-65.25]}},{"type":"Feature","properties":{"kind":"center","id":6,"lat":-66.25,"lon":-11.25,"mslp":959.1,"hvtl":-241.3,"hvtu":-31.0,"hb":14.9,"idx":-2.3,"cls":4,"psfc":959.1,"terrain":false,"radius_km":200,"name":"asym cold","track":"T24"},"geometry":{"type":"Point","coordinates":[-11.25,-66.25]}},{"type":"Feature","properties":{"kind":"center","id":7,"lat":-59.5,"lon":-118.0,"mslp":959.4,"hvtl":14.1,"hvtu":-28.3,"hb":-4.3,"idx":0.0,"cls":1,"psfc":959.4,"terrain":false,"radius_km":200,"name":"sym shallow warm","track":"T19"},"geometry":{"type":"Point","coordinates":[-118.0,-59.5]}},{"type":"Feature","properties":{"kind":"center","id":8,"lat":-79.75,"lon":-168.25,"mslp":965.4,"hvtl":-31.7,"hvtu":-18.0,"hb":23.0,"idx":-0.8,"cls":4,"psfc":958.1,"terrain":false,"radius_km":200,"name":"asym cold","track":"T32"},"geometry":{"type":"Point","coordinates":[-168.25,-79.75]}},{"type":"Feature","properties":{"kind":"center","id":9,"lat":-54.25,"lon":-130.75,"mslp":968.5,"hvtl":-42.1,"hvtu":-207.3,"hb":15.1,"idx":-1.8,"cls":4,"psfc":968.5,"terrain":false,"radius_km":200,"name":"asym cold","track":"T39"},"geometry":{"type":"Point","coordinates":[-130.75,-54.25]}},{"type":"Feature","properties":{"kind":"center","id":10,"lat":69.0,"lon":40.5,"mslp":974.3,"hvtl":-9.1,"hvtu":-136.6,"hb":9.0,"idx":-1.1,"cls":5,"psfc":974.3,"terrain":false,"radius_km":200,"name":"sym cold","track":"T50"},"geometry":{"type":"Point","coordinates":[40.5,69.0]}},{"type":"Feature","properties":{"kind":"center","id":11,"lat":-59.75,"lon":79.25,"mslp":976.4,"hvtl":-459.0,"hvtu":-450.4,"hb":87.5,"idx":-3.0,"cls":4,"psfc":976.4,"terrain":false,"radius_km":200,"name":"asym cold"},"geometry":{"type":"Point","coordinates":[79.25,-59.75]}},{"type":"Feature","properties":{"kind":"center","id":12,"lat":20.25,"lon":-118.5,"mslp":976.7,"hvtl":78.1,"hvtu":199.9,"hb":2.5,"idx":2.3,"cls":0,"psfc":976.8,"terrain":false,"radius_km":200,"name":"sym deep warm","track":"T42"},"geometry":{"type":"Point","coordinates":[-118.5,20.25]}},{"type":"Feature","properties":{"kind":"center","id":13,"lat":51.5,"lon":-64.75,"mslp":981.1,"hvtl":-30.7,"hvtu":20.9,"hb":2.9,"idx":-0.4,"cls":6,"psfc":904.1,"terrain":false,"radius_km":200,"name":"shallow cold","track":"T61"},"geometry":{"type":"Point","coordinates":[-64.75,51.5]}},{"type":"Feature","properties":{"kind":"center","id":14,"lat":-45.5,"lon":-15.0,"mslp":983.5,"hvtl":-185.4,"hvtu":-294.6,"hb":80.3,"idx":-2.9,"cls":4,"psfc":983.5,"terrain":false,"radius_km":200,"name":"asym cold","track":"T20"},"geometry":{"type":"Point","coordinates":[-15.0,-45.5]}},{"type":"Feature","properties":{"kind":"center","id":15,"lat":57.5,"lon":152.0,"mslp":983.6,"hvtl":52.7,"hvtu":-440.5,"hb":47.6,"idx":-0.0,"cls":3,"psfc":983.6,"terrain":false,"radius_km":200,"name":"asym shallow warm","track":"T53"},"geometry":{"type":"Point","coordinates":[152.0,57.5]}},{"type":"Feature","properties":{"kind":"center","id":16,"lat":54.25,"lon":-57.75,"mslp":985.9,"hvtl":-66.6,"hvtu":-236.0,"hb":34.2,"idx":-2.1,"cls":4,"psfc":985.0,"terrain":false,"radius_km":200,"name":"asym cold"},"geometry":{"type":"Point","coordinates":[-57.75,54.25]}},{"type":"Feature","properties":{"kind":"center","id":17,"lat":53.0,"lon":-50.75,"mslp":989.2,"hvtl":-263.3,"hvtu":-464.4,"hb":78.6,"idx":-3.0,"cls":4,"psfc":989.2,"terrain":false,"radius_km":200,"name":"asym cold","track":"T56"},"geometry":{"type":"Point","coordinates":[-50.75,53.0]}},{"type":"Feature","properties":{"kind":"center","id":18,"lat":26.5,"lon":167.75,"mslp":989.7,"hvtl":124.8,"hvtu":177.9,"hb":-5.9,"idx":2.6,"cls":0,"psfc":989.7,"terrain":false,"radius_km":200,"name":"sym deep warm","track":"T44"},"geometry":{"type":"Point","coordinates":[167.75,26.5]}},{"type":"Feature","properties":{"kind":"center","id":19,"lat":-61.0,"lon":-89.5,"mslp":990.5,"hvtl":-49.6,"hvtu":-220.7,"hb":23.3,"idx":-1.9,"cls":4,"psfc":990.5,"terrain":false,"radius_km":200,"name":"asym cold","track":"T68"},"geometry":{"type":"Point","coordinates":[-89.5,-61.0]}},{"type":"Feature","properties":{"kind":"center","id":20,"lat":59.75,"lon":-96.25,"mslp":995.5,"hvtl":-29.2,"hvtu":-54.2,"hb":29.6,"idx":-1.1,"cls":4,"psfc":974.4,"terrain":false,"radius_km":200,"name":"asym cold","track":"T90"},"geometry":{"type":"Point","coordinates":[-96.25,59.75]}},{"type":"Feature","properties":{"kind":"center","id":21,"lat":-30.25,"lon":-68.25,"mslp":996.8,"hvtl":51.3,"hvtu":-261.1,"hb":52.1,"idx":-0.0,"cls":3,"psfc":906.4,"terrain":true,"radius_km":200,"name":"asym shallow warm"},"geometry":{"type":"Point","coordinates":[-68.25,-30.25]}},{"type":"Feature","properties":{"kind":"center","id":22,"lat":-81.5,"lon":-61.0,"mslp":997.2,"hvtl":-303.5,"hvtu":-148.6,"hb":53.6,"idx":-2.9,"cls":4,"psfc":981.0,"terrain":false,"radius_km":200,"name":"asym cold","track":"T79"},"geometry":{"type":"Point","coordinates":[-61.0,-81.5]}},{"type":"Feature","properties":{"kind":"center","id":23,"lat":-42.25,"lon":-123.75,"mslp":997.9,"hvtl":-337.1,"hvtu":-177.3,"hb":70.6,"idx":-2.9,"cls":4,"psfc":997.9,"terrain":false,"radius_km":200,"name":"asym cold"},"geometry":{"type":"Point","coordinates":[-123.75,-42.25]}},{"type":"Feature","properties":{"kind":"center","id":24,"lat":59.25,"lon":-147.0,"mslp":998.8,"hvtl":-0.1,"hvtu":-151.0,"hb":13.6,"idx":-0.9,"cls":4,"psfc":998.8,"terrain":false,"radius_km":200,"name":"asym cold","track":"T40"},"geometry":{"type":"Point","coordinates":[-147.0,59.25]}},{"type":"Feature","properties":{"kind":"center","id":25,"lat":-26.75,"lon":-65.0,"mslp":1000.4,"hvtl":-4.9,"hvtu":-219.8,"hb":18.7,"idx":-1.1,"cls":4,"psfc":941.2,"terrain":false,"radius_km":200,"name":"asym cold","track":"T97"},"geometry":{"type":"Point","coordinates":[-65.0,-26.75]}},{"type":"Feature","properties":{"kind":"center","id":26,"lat":-22.75,"lon":-64.25,"mslp":1002.2,"hvtl":-113.4,"hvtu":-103.7,"hb":9.4,"idx":-2.4,"cls":5,"psfc":944.8,"terrain":false,"radius_km":200,"name":"sym cold","track":"T91"},"geometry":{"type":"Point","coordinates":[-64.25,-22.75]}},{"type":"Feature","properties":{"kind":"center","id":27,"lat":64.5,"lon":-32.75,"mslp":1002.9,"hvtl":-76.4,"hvtu":-293.0,"hb":5.6,"idx":-2.3,"cls":5,"psfc":1002.9,"terrain":false,"radius_km":200,"name":"sym cold","track":"T62"},"geometry":{"type":"Point","coordinates":[-32.75,64.5]}},{"type":"Feature","properties":{"kind":"center","id":28,"lat":-36.5,"lon":-76.75,"mslp":1003.1,"hvtl":-45.1,"hvtu":-68.2,"hb":20.1,"idx":-1.4,"cls":4,"psfc":1003.1,"terrain":false,"radius_km":200,"name":"asym cold","track":"T102"},"geometry":{"type":"Point","coordinates":[-76.75,-36.5]}},{"type":"Feature","properties":{"kind":"center","id":29,"lat":-16.0,"lon":-65.75,"mslp":1003.6,"hvtl":-130.9,"hvtu":-33.2,"hb":31.8,"idx":-2.0,"cls":4,"psfc":980.7,"terrain":false,"radius_km":200,"name":"asym cold","track":"T89"},"geometry":{"type":"Point","coordinates":[-65.75,-16.0]}},{"type":"Feature","properties":{"kind":"center","id":30,"lat":-47.5,"lon":-38.25,"mslp":1004.1,"hvtl":-108.8,"hvtu":-124.0,"hb":25.6,"idx":-2.4,"cls":4,"psfc":1004.1,"terrain":false,"radius_km":200,"name":"asym cold"},"geometry":{"type":"Point","coordinates":[-38.25,-47.5]}},{"type":"Feature","properties":{"kind":"center","id":31,"lat":59.0,"lon":78.5,"mslp":1004.4,"hvtl":-46.8,"hvtu":-187.4,"hb":14.7,"idx":-1.8,"cls":4,"psfc":994.4,"terrain":false,"radius_km":200,"name":"asym cold","track":"T84"},"geometry":{"type":"Point","coordinates":[78.5,59.0]}},{"type":"Feature","properties":{"kind":"center","id":32,"lat":-43.25,"lon":165.5,"mslp":1006.8,"hvtl":-156.9,"hvtu":-161.0,"hb":40.8,"idx":-2.8,"cls":4,"psfc":1006.8,"terrain":false,"radius_km":200,"name":"asym cold"},"geometry":{"type":"Point","coordinates":[165.5,-43.25]}},{"type":"Feature","properties":{"kind":"center","id":33,"lat":13.25,"lon":40.75,"mslp":1006.8,"hvtl":28.9,"hvtu":37.8,"hb":8.6,"idx":0.9,"cls":0,"psfc":1009.5,"terrain":false,"radius_km":200,"name":"sym deep warm"},"geometry":{"type":"Point","coordinates":[40.75,13.25]}},{"type":"Feature","properties":{"kind":"center","id":34,"lat":31.0,"lon":70.75,"mslp":1007.2,"hvtl":31.3,"hvtu":-111.5,"hb":3.7,"idx":-0.2,"cls":1,"psfc":989.9,"terrain":false,"radius_km":200,"name":"sym shallow warm","track":"T103"},"geometry":{"type":"Point","coordinates":[70.75,31.0]}},{"type":"Feature","properties":{"kind":"center","id":35,"lat":31.0,"lon":46.5,"mslp":1009.0,"hvtl":-92.0,"hvtu":-64.6,"hb":38.3,"idx":-2.0,"cls":4,"psfc":1008.5,"terrain":false,"radius_km":200,"name":"asym cold"},"geometry":{"type":"Point","coordinates":[46.5,31.0]}},{"type":"Feature","properties":{"kind":"center","id":36,"lat":-25.5,"lon":17.75,"mslp":1011.7,"hvtl":31.0,"hvtu":-121.5,"hb":29.2,"idx":-0.2,"cls":3,"psfc":900.1,"terrain":true,"radius_km":200,"name":"asym shallow warm"},"geometry":{"type":"Point","coordinates":[17.75,-25.5]}},{"type":"Feature","properties":{"kind":"center","id":37,"lat":28.5,"lon":65.5,"mslp":1012.8,"hvtl":9.4,"hvtu":-77.8,"hb":2.5,"idx":-0.5,"cls":1,"psfc":932.3,"terrain":false,"radius_km":200,"name":"sym shallow warm","track":"T117"},"geometry":{"type":"Point","coordinates":[65.5,28.5]}},{"type":"Feature","properties":{"kind":"center","id":38,"lat":24.25,"lon":96.5,"mslp":1013.2,"hvtl":33.0,"hvtu":-117.5,"hb":1.4,"idx":-0.2,"cls":1,"psfc":997.3,"terrain":false,"radius_km":200,"name":"sym shallow warm","track":"T122"},"geometry":{"type":"Point","coordinates":[96.5,24.25]}},{"type":"Feature","properties":{"kind":"center","id":39,"lat":-25.5,"lon":16.0,"mslp":1013.9,"hvtl":61.1,"hvtu":-115.4,"hb":47.3,"idx":0.3,"cls":3,"psfc":900.4,"terrain":true,"radius_km":200,"name":"asym shallow warm"},"geometry":{"type":"Point","coordinates":[16.0,-25.5]}},{"type":"Feature","properties":{"kind":"center","id":40,"lat":31.25,"lon":61.75,"mslp":1014.1,"hvtl":75.6,"hvtu":-65.9,"hb":23.7,"idx":0.7,"cls":3,"psfc":959.5,"terrain":false,"radius_km":200,"name":"asym shallow warm","track":"T130"},"geometry":{"type":"Point","coordinates":[61.75,31.25]}},{"type":"Feature","properties":{"kind":"center","id":41,"lat":26.25,"lon":94.0,"mslp":1014.4,"hvtl":-59.4,"hvtu":-144.7,"hb":5.8,"idx":-2.0,"cls":5,"psfc":993.5,"terrain":false,"radius_km":200,"name":"sym cold"},"geometry":{"type":"Point","coordinates":[94.0,26.25]}},{"type":"Feature","properties":{"kind":"center","id":42,"lat":29.5,"lon":65.75,"mslp":1014.7,"hvtl":14.7,"hvtu":-95.8,"hb":-0.0,"idx":-0.5,"cls":1,"psfc":914.4,"terrain":true,"radius_km":200,"name":"sym shallow warm"},"geometry":{"type":"Point","coordinates":[65.75,29.5]}},{"type":"Feature","properties":{"kind":"center","id":43,"lat":73.75,"lon":-56.0,"mslp":1016.2,"hvtl":-174.6,"hvtu":-100.0,"hb":33.0,"idx":-2.6,"cls":4,"psfc":998.1,"terrain":false,"radius_km":200,"name":"asym cold"},"geometry":{"type":"Point","coordinates":[-56.0,73.75]}},{"type":"Feature","properties":{"kind":"center","id":44,"lat":75.75,"lon":-61.75,"mslp":1016.4,"hvtl":-220.5,"hvtu":-25.7,"hb":41.7,"idx":-2.2,"cls":4,"psfc":1016.4,"terrain":false,"radius_km":200,"name":"asym cold"},"geometry":{"type":"Point","coordinates":[-61.75,75.75]}},{"type":"Feature","properties":{"kind":"center","id":45,"lat":53.0,"lon":112.0,"mslp":1018.0,"hvtl":-205.7,"hvtu":-368.9,"hb":64.1,"idx":-2.9,"cls":4,"psfc":900.6,"terrain":true,"radius_km":200,"name":"asym cold"},"geometry":{"type":"Point","coordinates":[112.0,53.0]}},{"type":"Feature","properties":{"kind":"center","id":46,"lat":-33.75,"lon":-178.75,"mslp":1018.4,"hvtl":28.1,"hvtu":-111.4,"hb":12.2,"idx":-0.3,"cls":3,"psfc":1018.4,"terrain":false,"radius_km":200,"name":"asym shallow warm"},"geometry":{"type":"Point","coordinates":[-178.75,-33.75]}},{"type":"Feature","properties":{"kind":"center","id":47,"lat":54.25,"lon":110.75,"mslp":1018.9,"hvtl":-158.7,"hvtu":-385.4,"hb":76.5,"idx":-2.8,"cls":4,"psfc":925.1,"terrain":true,"radius_km":200,"name":"asym cold"},"geometry":{"type":"Point","coordinates":[110.75,54.25]}},{"type":"Feature","properties":{"kind":"center","id":48,"lat":54.25,"lon":109.25,"mslp":1019.8,"hvtl":-145.6,"hvtu":-389.8,"hb":69.3,"idx":-2.8,"cls":4,"psfc":965.9,"terrain":false,"radius_km":200,"name":"asym cold"},"geometry":{"type":"Point","coordinates":[109.25,54.25]}},{"type":"Feature","properties":{"kind":"center","id":49,"lat":56.0,"lon":110.75,"mslp":1022.2,"hvtl":-129.8,"hvtu":-348.1,"hb":82.7,"idx":-2.7,"cls":4,"psfc":910.6,"terrain":true,"radius_km":200,"name":"asym cold"},"geometry":{"type":"Point","coordinates":[110.75,56.0]}}]}