{"type":"FeatureCollection","features":[{"type":"Feature","properties":{"kind":"blob","cls":0,"id":1},"geometry":{"type":"Polygon","coordinates":[[[146.25,23.38],[147.12,24.25],[147.12,26.0],[145.5,27.12],[144.25,26.88],[143.38,26.0],[143.38,24.25],[144.25,23.38],[146.25,23.38]],[[144.62,24.25],[143.88,24.75],[144.25,25.12],[144.88,24.75],[144.62,24.25]]]}},{"type":"Feature","properties":{"kind":"blob","cls":1,"id":2},"geometry":{"type":"Polygon","coordinates":[[[10.5,-65.12],[12.5,-64.62],[13.62,-63.75],[13.62,-62.75],[12.5,-61.62],[11.0,-60.88],[8.25,-60.38],[5.0,-59.12],[-1.0,-59.38],[-3.12,-60.75],[-3.12,-61.75],[-1.25,-63.12],[3.5,-63.38],[7.25,-64.88],[10.5,-65.12]],[[2.5,-60.62],[1.38,-59.75],[4.0,-59.62],[6.38,-60.75],[6.25,-61.12],[2.5,-60.62]]]}},{"type":"Feature","properties":{"kind":"blob","cls":6,"id":3},"geometry":{"type":"Polygon","coordinates":[[[-128.5,-74.62],[-124.5,-73.88],[-122.88,-72.75],[-122.88,-72.0],[-123.5,-71.38],[-126.0,-70.62],[-127.0,-69.88],[-130.5,-69.12],[-137.25,-69.38],[-138.12,-69.75],[-136.5,-70.12],[-136.5,-70.62],[-139.62,-71.25],[-139.62,-72.25],[-138.75,-72.88],[-134.0,-74.38],[-128.5,-74.62]],[[-127.12,-73.5],[-125.62,-73.5],[-125.75,-73.62],[-127.12,-73.5]]]}},{"type":"Feature","properties":{"kind":"blob","cls":4,"id":4},"geometry":{"type":"Polygon","coordinates":[[[133.75,-60.12],[137.25,-60.12],[139.12,-58.75],[139.12,-57.5],[138.0,-56.12],[136.25,-55.38],[132.25,-55.38],[130.62,-56.75],[130.62,-58.0],[132.0,-59.62],[133.75,-60.12]]]}},{"type":"Feature","properties":{"kind":"blob","cls":4,"id":5},"geometry":{"type":"Polygon","coordinates":[[[87.25,-55.62],[89.25,-54.88],[89.88,-54.0],[89.38,-52.5],[86.75,-51.38],[84.75,-51.62],[83.5,-52.38],[82.88,-53.5],[83.38,-54.5],[84.75,-55.38],[87.25,-55.62]]]}},{"type":"Feature","properties":{"kind":"blob","cls":3,"id":6},"geometry":{"type":"Polygon","coordinates":[[[-134.75,-59.88],[-132.75,-59.12],[-132.12,-58.5],[-132.38,-57.0],[-134.75,-55.88],[-136.75,-55.88],[-138.75,-56.62],[-139.38,-57.5],[-139.38,-58.5],[-137.75,-59.62],[-134.75,-59.88]]]}},{"type":"Feature","properties":{"kind":"blob","cls":6,"id":7},"geometry":{"type":"Polygon","coordinates":[[[-127.75,-65.62],[-125.88,-64.25],[-125.88,-63.75],[-127.75,-62.38],[-130.25,-61.88],[-133.25,-62.12],[-134.5,-62.62],[-135.38,-63.5],[-135.38,-64.0],[-134.25,-65.12],[-133.25,-65.62],[-127.75,-65.62]]]}},{"type":"Feature","properties":{"kind":"blob","cls":4,"id":8},"geometry":{"type":"Polygon","coordinates":[[[-136.5,-55.38],[-134.5,-54.62],[-133.88,-53.5],[-134.38,-52.5],[-136.5,-51.62],[-138.0,-51.62],[-140.0,-52.38],[-140.62,-53.5],[-140.12,-54.5],[-136.5,-55.38]]]}},{"type":"Feature","properties":{"kind":"blob","cls":3,"id":9},"geometry":{"type":"Polygon","coordinates":[[[115.75,-64.62],[120.75,-63.38],[122.0,-63.38],[122.75,-63.88],[122.88,-62.75],[122.0,-61.88],[120.75,-61.38],[116.25,-61.38],[114.38,-62.5],[114.38,-63.75],[115.75,-64.62]]]}},{"type":"Feature","properties":{"kind":"blob","cls":4,"id":10},"geometry":{"type":"Polygon","coordinates":[[[-167.5,-69.62],[-165.12,-68.25],[-165.12,-67.25],[-167.25,-66.12],[-171.75,-65.88],[-174.0,-66.38],[-175.88,-67.5],[-176.12,-68.0],[-175.5,-68.88],[-173.75,-69.62],[-167.5,-69.62]]]}},{"type":"Feature","properties":{"kind":"blob","cls":6,"id":11},"geometry":{"type":"Polygon","coordinates":[[[162.25,-79.12],[163.25,-79.38],[167.25,-78.88],[169.0,-78.38],[169.88,-77.5],[168.25,-76.38],[164.0,-75.88],[162.62,-77.0],[164.12,-78.0],[164.0,-78.38],[165.12,-78.5],[162.0,-78.62],[162.25,-79.12]],[[166.62,-77.5],[169.12,-77.5],[169.0,-77.62],[166.62,-77.5]]]}},{"type":"Feature","properties":{"kind":"blob","cls":4,"id":12},"geometry":{"type":"Polygon","coordinates":[[[179.75,-82.88],[180.0,-80.62],[175.0,-80.62],[168.12,-81.25],[168.5,-81.62],[172.5,-82.38],[179.75,-82.88]]]}},{"type":"Feature","properties":{"kind":"blob","cls":4,"id":12},"geometry":{"type":"Polygon","coordinates":[[[-179.75,-80.62],[-180.0,-82.88],[-177.75,-83.12],[-161.5,-83.38],[-154.12,-83.0],[-157.25,-82.12],[-167.75,-80.88],[-179.75,-80.62]]]}},{"type":"Feature","properties":{"kind":"blob","cls":4,"id":13},"geometry":{"type":"Polygon","coordinates":[[[161.25,-70.62],[164.0,-70.62],[165.62,-69.5],[165.62,-69.0],[165.0,-68.12],[164.0,-67.62],[161.5,-67.12],[156.0,-67.38],[153.38,-68.75],[154.25,-69.12],[158.5,-69.38],[161.25,-70.62]]]}},{"type":"Feature","properties":{"kind":"blob","cls":0,"id":14},"geometry":{"type":"Polygon","coordinates":[[[179.0,23.88],[179.88,24.75],[179.88,26.25],[178.25,27.38],[177.0,27.12],[176.12,26.25],[176.12,24.75],[177.0,23.88],[179.0,23.88]]]}},{"type":"Feature","properties":{"kind":"blob","cls":4,"id":15},"geometry":{"type":"Polygon","coordinates":[[[-104.0,-65.62],[-101.5,-64.88],[-100.62,-64.0],[-101.12,-61.75],[-102.25,-60.88],[-104.25,-60.38],[-107.0,-60.62],[-108.5,-61.38],[-109.38,-62.25],[-109.38,-64.0],[-108.0,-65.12],[-104.0,-65.62]]]}},{"type":"Feature","properties":{"kind":"blob","cls":0,"id":16},"geometry":{"type":"Polygon","coordinates":[[[-114.0,18.62],[-113.12,19.75],[-113.38,21.25],[-114.75,22.12],[-116.0,21.88],[-116.88,20.75],[-116.62,19.25],[-116.25,18.88],[-115.5,19.88],[-114.75,19.88],[-114.0,18.62]]]}},{"type":"Feature","properties":{"kind":"blob","cls":4,"id":17},"geometry":{"type":"Polygon","coordinates":[[[-113.0,-58.12],[-111.25,-57.62],[-110.38,-56.75],[-110.38,-55.5],[-111.25,-54.62],[-113.0,-54.12],[-116.0,-54.62],[-116.88,-55.5],[-116.88,-56.75],[-115.5,-57.88],[-113.0,-58.12]]]}},{"type":"Feature","properties":{"kind":"blob","cls":3,"id":18},"geometry":{"type":"Polygon","coordinates":[[[5.5,68.12],[10.75,68.12],[13.0,69.12],[13.62,70.5],[11.25,72.12],[5.75,72.62],[2.25,71.88],[0.38,70.5],[1.0,69.38],[2.5,68.62],[5.5,68.12]]]}},{"type":"Feature","properties":{"kind":"blob","cls":1,"id":19},"geometry":{"type":"Polygon","coordinates":[[[-163.0,54.12],[-161.25,54.62],[-160.38,55.5],[-160.38,56.5],[-161.25,57.38],[-163.0,57.88],[-165.75,57.38],[-166.62,56.5],[-166.62,55.5],[-165.25,54.38],[-163.0,54.12]]]}},{"type":"Feature","properties":{"kind":"blob","cls":3,"id":20},"geometry":{"type":"Polygon","coordinates":[[[41.0,78.12],[47.75,78.88],[51.25,80.12],[51.38,81.0],[50.75,81.62],[49.25,82.12],[40.25,83.12],[25.75,82.88],[22.5,82.38],[20.62,81.5],[23.0,81.12],[23.38,80.75],[22.12,80.0],[23.0,79.62],[29.0,78.62],[41.0,78.12]]]}},{"type":"Feature","properties":{"kind":"blob","cls":4,"id":21},"geometry":{"type":"Polygon","coordinates":[[[-12.0,60.88],[-8.25,61.62],[-7.0,62.12],[-6.12,63.5],[-7.0,64.62],[-9.5,65.38],[-12.5,65.38],[-15.0,64.88],[-16.0,64.12],[-17.0,64.12],[-17.88,63.25],[-17.88,62.25],[-16.75,61.38],[-12.0,60.88]]]}},{"type":"Feature","properties":{"kind":"blob","cls":4,"id":22},"geometry":{"type":"Polygon","coordinates":[[[59.25,-67.62],[59.88,-66.5],[58.5,-65.38],[56.25,-64.88],[52.5,-65.12],[51.25,-65.62],[50.38,-66.5],[50.75,-67.38],[51.5,-67.38],[51.5,-66.38],[55.0,-66.12],[55.88,-66.5],[55.75,-67.12],[59.25,-67.62]]]}},{"type":"Feature","properties":{"kind":"blob","cls":5,"id":23},"geometry":{"type":"Polygon","coordinates":[[[-154.5,62.62],[-153.5,62.38],[-150.75,63.62],[-147.38,64.25],[-150.0,65.12],[-152.75,64.88],[-154.62,63.75],[-154.5,62.62]]]}},{"type":"Feature","properties":{"kind":"blob","cls":4,"id":24},"geometry":{"type":"Polygon","coordinates":[[[-151.75,61.62],[-149.25,61.62],[-149.62,62.0],[-149.38,63.0],[-152.0,62.62],[-152.38,62.0],[-151.75,61.62]]]}},{"type":"Feature","properties":{"kind":"blob","cls":4,"id":25},"geometry":{"type":"Polygon","coordinates":[[[63.0,53.38],[64.75,53.88],[65.88,55.0],[65.75,55.62],[64.88,55.75],[65.38,56.5],[64.25,57.38],[63.0,57.62],[59.75,57.12],[58.88,56.25],[58.88,55.0],[60.0,53.88],[63.0,53.38]]]}},{"type":"Feature","properties":{"kind":"blob","cls":4,"id":26},"geometry":{"type":"Polygon","coordinates":[[[-41.75,-42.88],[-40.62,-41.75],[-40.62,-40.0],[-42.0,-38.62],[-44.0,-38.38],[-45.88,-39.75],[-45.88,-41.5],[-44.5,-42.88],[-41.75,-42.88]]]}},{"type":"Feature","properties":{"kind":"blob","cls":4,"id":27},"geometry":{"type":"Polygon","coordinates":[[[80.0,58.12],[81.75,58.62],[82.62,59.25],[82.88,60.5],[81.75,61.62],[77.75,62.62],[73.25,62.62],[72.0,62.38],[70.38,61.25],[70.38,60.25],[72.0,59.12],[80.0,58.12]]]}},{"type":"Feature","properties":{"kind":"blob","cls":4,"id":28},"geometry":{"type":"Polygon","coordinates":[[[-117.0,60.88],[-114.88,62.25],[-114.88,63.25],[-115.5,63.88],[-117.62,64.5],[-116.38,65.5],[-116.38,66.0],[-118.5,67.88],[-123.75,69.38],[-129.5,69.12],[-131.62,68.0],[-131.88,67.0],[-130.5,65.88],[-126.25,65.12],[-124.25,64.12],[-122.5,63.88],[-123.12,62.75],[-122.88,61.75],[-121.25,60.88],[-117.0,60.88]]]}},{"type":"Feature","properties":{"kind":"blob","cls":5,"id":29},"geometry":{"type":"MultiPolygon","coordinates":[[[[135.5,65.88],[135.38,65.75],[135.5,65.62],[135.5,65.88]]],[[[131.12,65.5],[131.0,65.12],[133.25,65.12],[134.5,65.62],[135.0,65.38],[134.88,65.75],[136.0,66.12],[136.38,67.0],[135.5,67.88],[134.25,68.38],[130.75,68.62],[129.62,67.75],[132.5,67.88],[132.88,67.5],[130.62,66.75],[130.62,66.0],[131.12,65.5]],[[134.62,66.25],[135.25,66.88],[135.88,66.75],[135.5,66.62],[134.62,66.25]]]]}},{"type":"Feature","properties":{"kind":"blob","cls":1,"id":30},"geometry":{"type":"Polygon","coordinates":[[[-78.25,50.88],[-76.25,51.62],[-74.38,54.0],[-74.62,55.0],[-77.0,56.12],[-78.5,56.12],[-80.5,55.38],[-82.12,53.25],[-80.75,51.38],[-78.25,50.88]]]}},{"type":"Feature","properties":{"kind":"blob","cls":1,"id":31},"geometry":{"type":"Polygon","coordinates":[[[-54.75,67.62],[-52.5,68.38],[-51.62,69.25],[-51.62,69.75],[-52.25,70.38],[-53.12,70.5],[-52.75,70.88],[-57.25,71.88],[-61.5,71.62],[-64.0,70.88],[-64.88,70.0],[-64.88,69.5],[-63.5,68.38],[-61.0,67.62],[-54.75,67.62]],[[-53.5,69.62],[-53.88,70.0],[-52.62,69.75],[-53.5,69.62]]]}},{"type":"Feature","properties":{"kind":"blob","cls":4,"id":32},"geometry":{"type":"Polygon","coordinates":[[[-34.25,62.38],[-32.38,63.5],[-32.12,65.0],[-33.25,66.12],[-35.0,66.62],[-36.75,66.12],[-40.0,64.38],[-41.88,64.25],[-39.25,62.38],[-34.25,62.38]]]}},{"type":"Feature","properties":{"kind":"blob","cls":4,"id":33},"geometry":{"type":"Polygon","coordinates":[[[-64.25,-80.62],[-54.5,-80.62],[-50.25,-79.62],[-49.12,-78.5],[-50.25,-77.62],[-53.5,-76.88],[-63.5,-76.62],[-68.75,-77.38],[-71.38,-78.75],[-71.0,-79.62],[-69.75,-80.12],[-64.25,-80.62]]]}},{"type":"Feature","properties":{"kind":"blob","cls":1,"id":34},"geometry":{"type":"Polygon","coordinates":[[[-86.0,-40.12],[-84.88,-38.75],[-85.12,-37.75],[-86.0,-36.88],[-87.25,-36.38],[-89.25,-36.62],[-90.12,-37.5],[-90.38,-38.75],[-89.25,-40.12],[-86.0,-40.12]]]}},{"type":"Feature","properties":{"kind":"blob","cls":6,"id":35},"geometry":{"type":"MultiPolygon","coordinates":[[[[-60.5,-54.38],[-60.62,-54.5],[-60.5,-54.62],[-60.5,-54.38]]],[[[-60.75,-54.38],[-60.88,-52.75],[-60.25,-52.38],[-58.5,-52.38],[-56.0,-53.38],[-55.62,-53.0],[-55.62,-52.0],[-58.0,-50.12],[-60.0,-49.62],[-62.75,-49.88],[-64.38,-51.25],[-64.62,-52.75],[-63.5,-53.88],[-60.75,-54.38]]]]}},{"type":"Feature","properties":{"kind":"blob","cls":4,"id":36},"geometry":{"type":"Polygon","coordinates":[[[-63.25,-20.38],[-61.5,-20.38],[-60.62,-19.25],[-60.88,-17.75],[-62.5,-16.62],[-64.38,-17.25],[-63.38,-18.25],[-63.88,-19.0],[-63.12,-19.5],[-63.25,-20.38]]]}},{"type":"Feature","properties":{"kind":"blob","cls":4,"id":37},"geometry":{"type":"Polygon","coordinates":[[[129.25,38.38],[130.62,39.75],[130.25,41.38],[131.25,40.88],[132.5,40.88],[133.75,41.38],[134.38,42.25],[134.12,43.75],[132.5,44.62],[130.0,44.12],[129.38,43.25],[129.62,42.0],[129.12,41.0],[127.25,40.12],[126.62,40.25],[126.62,40.75],[127.0,41.38],[127.62,41.5],[127.62,42.0],[126.75,41.88],[125.62,40.75],[125.62,39.5],[126.75,38.38],[129.25,38.38]]]}},{"type":"Feature","properties":{"kind":"blob","cls":5,"id":38},"geometry":{"type":"Polygon","coordinates":[[[-66.0,-16.62],[-65.0,-16.62],[-64.38,-16.0],[-64.38,-13.5],[-65.75,-12.12],[-66.5,-11.88],[-68.5,-12.38],[-69.38,-13.5],[-68.5,-13.88],[-67.88,-15.25],[-66.0,-16.62]]]}},{"type":"Feature","properties":{"kind":"blob","cls":1,"id":39},"geometry":{"type":"Polygon","coordinates":[[[-70.0,-13.62],[-69.38,-12.75],[-69.62,-11.25],[-71.0,-10.38],[-72.12,-10.5],[-72.38,-8.5],[-73.0,-7.88],[-74.0,-7.62],[-75.62,-8.75],[-75.38,-10.25],[-74.75,-10.62],[-74.25,-10.12],[-73.0,-12.38],[-72.25,-11.88],[-71.25,-13.12],[-70.0,-13.62]]]}},{"type":"Feature","properties":{"kind":"blob","cls":3,"id":40},"geometry":{"type":"Polygon","coordinates":[[[73.75,29.38],[75.0,29.88],[75.62,30.75],[75.62,31.75],[75.0,32.38],[72.25,32.38],[70.5,31.88],[70.12,31.5],[70.12,30.0],[73.75,29.38]]]}},{"type":"Feature","properties":{"kind":"blob","cls":4,"id":41},"geometry":{"type":"Polygon","coordinates":[[[-110.5,48.62],[-109.38,49.25],[-110.5,49.38],[-110.5,49.88],[-108.62,50.0],[-108.62,51.5],[-109.25,52.12],[-111.75,53.12],[-114.25,52.62],[-114.38,52.25],[-112.88,50.5],[-113.12,50.25],[-112.25,49.38],[-110.5,48.62]]]}},{"type":"Feature","properties":{"kind":"blob","cls":5,"id":42},"geometry":{"type":"MultiPolygon","coordinates":[[[[-115.5,30.62],[-115.62,30.5],[-115.5,30.38],[-115.5,30.62]]],[[[-115.88,30.75],[-115.75,30.62],[-115.62,31.25],[-115.88,30.75]]],[[[-114.5,29.38],[-112.75,29.12],[-111.5,29.62],[-110.88,30.5],[-111.62,31.5],[-111.38,32.0],[-112.25,33.12],[-114.0,33.62],[-115.62,32.75],[-115.88,32.0],[-115.12,30.75],[-115.38,30.0],[-114.5,29.38]]]]}},{"type":"Feature","properties":{"kind":"blob","cls":4,"id":43},"geometry":{"type":"Polygon","coordinates":[[[-66.5,-33.38],[-66.25,-32.62],[-65.38,-32.5],[-65.12,-31.0],[-65.75,-30.12],[-67.25,-29.62],[-67.38,-31.25],[-68.0,-31.62],[-68.12,-31.25],[-67.62,-31.0],[-68.38,-30.0],[-68.88,-33.0],[-66.5,-33.38]],[[-66.62,-31.0],[-66.5,-30.62],[-66.38,-30.75],[-66.62,-31.0]]]}},{"type":"Feature","properties":{"kind":"blob","cls":3,"id":44},"geometry":{"type":"MultiPolygon","coordinates":[[[[97.25,23.88],[97.12,23.75],[97.25,23.62],[97.25,23.88]]],[[[96.5,23.88],[97.12,24.0],[95.75,25.38],[95.62,24.75],[96.5,23.88]]]]}},{"type":"Feature","properties":{"kind":"blob","cls":1,"id":45},"geometry":{"type":"Polygon","coordinates":[[[-74.12,-11.75],[-74.0,-11.88],[-73.88,-11.75],[-74.12,-11.75]]]}},{"type":"Feature","properties":{"kind":"blob","cls":1,"id":46},"geometry":{"type":"Polygon","coordinates":[[[-74.5,-11.38],[-74.12,-11.25],[-74.25,-11.12],[-74.5,-11.38]]]}},{"type":"Feature","properties":{"kind":"blob","cls":3,"id":47},"geometry":{"type":"MultiPolygon","coordinates":[[[[62.5,29.88],[63.0,29.62],[63.38,29.75],[63.0,30.12],[62.5,29.88]]],[[[62.38,30.25],[62.25,30.38],[62.12,30.25],[62.38,30.25]]],[[[62.12,30.5],[62.0,30.62],[61.88,30.5],[62.12,30.5]]]]}},{"type":"Feature","properties":{"kind":"blob","cls":3,"id":48},"geometry":{"type":"MultiPolygon","coordinates":[[[[61.75,32.38],[61.62,32.25],[61.75,32.12],[61.75,32.38]]],[[[61.88,32.5],[62.0,32.38],[62.12,32.75],[61.88,32.5]]]]}},{"type":"Feature","properties":{"kind":"blob","cls":3,"id":49},"geometry":{"type":"Polygon","coordinates":[[[61.62,31.0],[61.75,30.88],[61.88,31.0],[61.62,31.0]]]}},{"type":"Feature","properties":{"kind":"blob","cls":1,"id":50},"geometry":{"type":"Polygon","coordinates":[[[172.25,-43.88],[174.5,-43.88],[175.62,-42.75],[174.0,-41.88],[172.5,-42.38],[172.75,-41.88],[173.62,-41.75],[172.25,-40.62],[171.75,-40.62],[170.88,-41.25],[170.62,-42.75],[171.0,-43.12],[171.5,-42.88],[171.12,-43.25],[172.25,-43.88]],[[172.0,-42.88],[171.88,-42.75],[172.0,-42.62],[172.0,-42.88]]]}},{"type":"Feature","properties":{"kind":"center","id":1,"lat":25.25,"lon":145.25,"mslp":936.8,"hvtl":154.8,"hvtu":248.4,"hb":-4.6,"idx":2.8,"cls":0,"psfc":936.8,"terrain":false,"radius_km":200,"name":"sym deep warm","track":"T02"},"geometry":{"type":"Point","coordinates":[145.25,25.25]}},{"type":"Feature","properties":{"kind":"center","id":2,"lat":-61.25,"lon":1.25,"mslp":938.2,"hvtl":272.9,"hvtu":-104.1,"hb":6.4,"idx":1.2,"cls":1,"psfc":938.2,"terrain":false,"radius_km":200,"name":"sym shallow warm","track":"T05"},"geometry":{"type":"Point","coordinates":[1.25,-61.25]}},{"type":"Feature","properties":{"kind":"center","id":3,"lat":-72.5,"lon":-130.0,"mslp":945.3,"hvtl":-16.5,"hvtu":34.4,"hb":3.1,"idx":0.0,"cls":6,"psfc":945.3,"terrain":false,"radius_km":200,"name":"shallow cold","track":"T03"},"geometry":{"type":"Point","coordinates":[-130.0,-72.5]}},{"type":"Feature","properties":{"kind":"center","id":4,"lat":-57.5,"lon":134.5,"mslp":949.3,"hvtl":-85.1,"hvtu":-243.7,"hb":55.0,"idx":-2.4,"cls":4,"psfc":949.3,"terrain":false,"radius_km":200,"name":"asym cold","track":"T04"},"geometry":{"type":"Point","coordinates":[134.5,-57.5]}},{"type":"Feature","properties":{"kind":"center","id":5,"lat":-53.5,"lon":86.5,"mslp":955.6,"hvtl":-64.4,"hvtu":-278.0,"hb":40.3,"idx":-2.1,"cls":4,"psfc":955.6,"terrain":false,"radius_km":200,"name":"asym cold","track":"T14"},"geometry":{"type":"Point","coordinates":[86.5,-53.5]}},{"type":"Feature","properties":{"kind":"center","id":6,"lat":-58.0,"lon":-135.75,"mslp":956.3,"hvtl":55.7,"hvtu":-7.8,"hb":36.2,"idx":0.9,"cls":3,"psfc":956.3,"terrain":false,"radius_km":200,"name":"asym shallow warm","track":"T10"},"geometry":{"type":"Point","coordinates":[-135.75,-58.0]}},{"type":"Feature","properties":{"kind":"center","id":7,"lat":-64.0,"lon":-130.5,"mslp":959.5,"hvtl":-62.1,"hvtu":15.2,"hb":43.3,"idx":-1.0,"cls":6,"psfc":959.5,"terrain":false,"radius_km":200,"name":"shallow cold","track":"T25"},"geometry":{"type":"Point","coordinates":[-130.5,-64.0]}},{"type":"Feature","properties":{"kind":"center","id":8,"lat":-53.5,"lon":-137.25,"mslp":961.0,"hvtl":-32.3,"hvtu":-92.1,"hb":21.8,"idx":-1.4,"cls":4,"psfc":961.0,"terrain":false,"radius_km":200,"name":"asym cold"},"geometry":{"type":"Point","coordinates":[-137.25,-53.5]}},{"type":"Feature","properties":{"kind":"center","id":9,"lat":-63.0,"lon":118.5,"mslp":961.7,"hvtl":103.7,"hvtu":-158.4,"hb":10.4,"idx":0.6,"cls":3,"psfc":961.7,"terrain":false,"radius_km":200,"name":"asym shallow warm"},"geometry":{"type":"Point","coordinates":[118.5,-63.0]}},{"type":"Feature","properties":{"kind":"center","id":10,"lat":-68.0,"lon":-171.0,"mslp":963.1,"hvtl":-463.2,"hvtu":-243.3,"hb":101.6,"idx":-3.0,"cls":4,"psfc":963.1,"terrain":false,"radius_km":200,"name":"asym cold","track":"T31"},"geometry":{"type":"Point","coordinates":[-171.0,-68.0]}},{"type":"Feature","properties":{"kind":"center","id":11,"lat":-76.0,"lon":166.0,"mslp":967.1,"hvtl":-285.6,"hvtu":38.2,"hb":39.3,"idx":-1.6,"cls":6,"psfc":967.2,"terrain":false,"radius_km":200,"name":"shallow cold","track":"T17"},"geometry":{"type":"Point","coordinates":[166.0,-76.0]}},{"type":"Feature","properties":{"kind":"center","id":12,"lat":-82.5,"lon":-177.75,"mslp":969.1,"hvtl":-325.2,"hvtu":-61.8,"hb":48.1,"idx":-2.5,"cls":4,"psfc":961.9,"terrain":false,"radius_km":200,"name":"asym cold"},"geometry":{"type":"Point","coordinates":[-177.75,-82.5]}},{"type":"Feature","properties":{"kind":"center","id":13,"lat":-69.25,"lon":160.0,"mslp":970.2,"hvtl":-417.4,"hvtu":-323.4,"hb":99.7,"idx":-3.0,"cls":4,"psfc":970.2,"terrain":false,"radius_km":200,"name":"asym cold"},"geometry":{"type":"Point","coordinates":[160.0,-69.25]}},{"type":"Feature","properties":{"kind":"center","id":14,"lat":25.5,"lon":178.0,"mslp":970.3,"hvtl":92.0,"hvtu":347.0,"hb":-4.2,"idx":2.5,"cls":0,"psfc":970.4,"terrain":false,"radius_km":200,"name":"sym deep warm","track":"T44"},"geometry":{"type":"Point","coordinates":[178.0,25.5]}},{"type":"Feature","properties":{"kind":"center","id":15,"lat":-63.25,"lon":-105.75,"mslp":974.9,"hvtl":-299.5,"hvtu":-219.7,"hb":72.5,"idx":-3.0,"cls":4,"psfc":974.9,"terrain":false,"radius_km":200,"name":"asym cold","track":"T45"},"geometry":{"type":"Point","coordinates":[-105.75,-63.25]}},{"type":"Feature","properties":{"kind":"center","id":16,"lat":20.25,"lon":-115.0,"mslp":975.0,"hvtl":66.2,"hvtu":226.4,"hb":5.9,"idx":2.1,"cls":0,"psfc":975.0,"terrain":false,"radius_km":200,"name":"sym deep warm","track":"T42"},"geometry":{"type":"Point","coordinates":[-115.0,20.25]}},{"type":"Feature","properties":{"kind":"center","id":17,"lat":-56.25,"lon":-114.0,"mslp":977.5,"hvtl":-181.7,"hvtu":-133.2,"hb":41.9,"idx":-2.8,"cls":4,"psfc":977.5,"terrain":false,"radius_km":200,"name":"asym cold","track":"T19"},"geometry":{"type":"Point","coordinates":[-114.0,-56.25]}},{"type":"Feature","properties":{"kind":"center","id":18,"lat":70.25,"lon":7.25,"mslp":978.0,"hvtl":34.5,"hvtu":-126.2,"hb":13.9,"idx":-0.2,"cls":3,"psfc":978.0,"terrain":false,"radius_km":200,"name":"asym shallow warm","track":"T50"},"geometry":{"type":"Point","coordinates":[7.25,70.25]}},{"type":"Feature","properties":{"kind":"center","id":19,"lat":56.0,"lon":-163.5,"mslp":979.8,"hvtl":7.7,"hvtu":-121.2,"hb":9.0,"idx":-0.7,"cls":1,"psfc":979.8,"terrain":false,"radius_km":200,"name":"sym shallow warm","track":"T40"},"geometry":{"type":"Point","coordinates":[-163.5,56.0]}},{"type":"Feature","properties":{"kind":"center","id":20,"lat":80.75,"lon":35.25,"mslp":980.7,"hvtl":62.3,"hvtu":-224.2,"hb":25.3,"idx":0.1,"cls":3,"psfc":980.7,"terrain":false,"radius_km":200,"name":"asym shallow warm","track":"T63"},"geometry":{"type":"Point","coordinates":[35.25,80.75]}},{"type":"Feature","properties":{"kind":"center","id":21,"lat":63.25,"lon":-12.5,"mslp":982.0,"hvtl":-104.4,"hvtu":-417.6,"hb":37.5,"idx":-2.6,"cls":4,"psfc":982.0,"terrain":false,"radius_km":200,"name":"asym cold","track":"T59"},"geometry":{"type":"Point","coordinates":[-12.5,63.25]}},{"type":"Feature","properties":{"kind":"center","id":22,"lat":-66.0,"lon":53.75,"mslp":990.5,"hvtl":-140.8,"hvtu":-319.5,"hb":54.7,"idx":-2.8,"cls":4,"psfc":931.6,"terrain":false,"radius_km":200,"name":"asym cold","track":"T38"},"geometry":{"type":"Point","coordinates":[53.75,-66.0]}},{"type":"Feature","properties":{"kind":"center","id":23,"lat":62.5,"lon":-153.5,"mslp":990.5,"hvtl":-55.1,"hvtu":-99.2,"hb":5.7,"idx":-1.8,"cls":5,"psfc":912.1,"terrain":false,"radius_km":200,"name":"sym cold","track":"T76"},"geometry":{"type":"Point","coordinates":[-153.5,62.5]}},{"type":"Feature","properties":{"kind":"center","id":24,"lat":62.0,"lon":-149.75,"mslp":992.0,"hvtl":-55.6,"hvtu":-57.3,"hb":15.5,"idx":-1.5,"cls":4,"psfc":936.4,"terrain":false,"radius_km":200,"name":"asym cold","track":"T82"},"geometry":{"type":"Point","coordinates":[-149.75,62.0]}},{"type":"Feature","properties":{"kind":"center","id":25,"lat":55.5,"lon":62.25,"mslp":993.8,"hvtl":-78.2,"hvtu":-88.7,"hb":27.1,"idx":-2.0,"cls":4,"psfc":972.3,"terrain":false,"radius_km":200,"name":"asym cold","track":"T84"},"geometry":{"type":"Point","coordinates":[62.25,55.5]}},{"type":"Feature","properties":{"kind":"center","id":26,"lat":-40.75,"lon":-43.5,"mslp":996.1,"hvtl":-24.1,"hvtu":-302.6,"hb":60.9,"idx":-1.5,"cls":4,"psfc":996.1,"terrain":false,"radius_km":200,"name":"asym cold","track":"T20"},"geometry":{"type":"Point","coordinates":[-43.5,-40.75]}},{"type":"Feature","properties":{"kind":"center","id":27,"lat":60.25,"lon":78.25,"mslp":996.1,"hvtl":-66.6,"hvtu":-312.7,"hb":49.3,"idx":-2.2,"cls":4,"psfc":990.8,"terrain":false,"radius_km":200,"name":"asym cold","track":"T92"},"geometry":{"type":"Point","coordinates":[78.25,60.25]}},{"type":"Feature","properties":{"kind":"center","id":28,"lat":62.5,"lon":-120.25,"mslp":996.2,"hvtl":-222.2,"hvtu":-188.2,"hb":67.5,"idx":-2.9,"cls":4,"psfc":952.5,"terrain":false,"radius_km":200,"name":"asym cold"},"geometry":{"type":"Point","coordinates":[-120.25,62.5]}},{"type":"Feature","properties":{"kind":"center","id":29,"lat":66.75,"lon":131.75,"mslp":997.3,"hvtl":-45.2,"hvtu":-41.5,"hb":2.1,"idx":-1.2,"cls":5,"psfc":949.1,"terrain":false,"radius_km":200,"name":"sym cold","track":"T60"},"geometry":{"type":"Point","coordinates":[131.75,66.75]}},{"type":"Feature","properties":{"kind":"center","id":30,"lat":53.25,"lon":-78.75,"mslp":997.6,"hvtl":129.8,"hvtu":-100.6,"hb":9.6,"idx":1.0,"cls":1,"psfc":992.7,"terrain":false,"radius_km":200,"name":"sym shallow warm","track":"T61"},"geometry":{"type":"Point","coordinates":[-78.75,53.25]}},{"type":"Feature","properties":{"kind":"center","id":31,"lat":69.5,"lon":-57.75,"mslp":997.7,"hvtl":31.9,"hvtu":-66.8,"hb":1.1,"idx":0.0,"cls":1,"psfc":997.7,"terrain":false,"radius_km":200,"name":"sym shallow warm","track":"T69"},"geometry":{"type":"Point","coordinates":[-57.75,69.5]}},{"type":"Feature","properties":{"kind":"center","id":32,"lat":64.5,"lon":-36.5,"mslp":997.7,"hvtl":-47.1,"hvtu":-49.1,"hb":19.4,"idx":-1.3,"cls":4,"psfc":997.7,"terrain":false,"radius_km":200,"name":"asym cold","track":"T62"},"geometry":{"type":"Point","coordinates":[-36.5,64.5]}},{"type":"Feature","properties":{"kind":"center","id":33,"lat":-78.75,"lon":-59.75,"mslp":997.9,"hvtl":-262.6,"hvtu":-131.5,"hb":68.5,"idx":-2.8,"cls":4,"psfc":990.2,"terrain":false,"radius_km":200,"name":"asym cold","track":"T67"},"geometry":{"type":"Point","coordinates":[-59.75,-78.75]}},{"type":"Feature","properties":{"kind":"center","id":34,"lat":-38.5,"lon":-87.75,"mslp":998.1,"hvtl":22.1,"hvtu":-139.4,"hb":7.3,"idx":-0.4,"cls":1,"psfc":998.1,"terrain":false,"radius_km":200,"name":"sym shallow warm","track":"T93"},"geometry":{"type":"Point","coordinates":[-87.75,-38.5]}},{"type":"Feature","properties":{"kind":"center","id":35,"lat":-52.0,"lon":-59.25,"mslp":998.3,"hvtl":-31.3,"hvtu":34.7,"hb":16.8,"idx":-0.3,"cls":6,"psfc":994.2,"terrain":false,"radius_km":200,"name":"shallow cold","track":"T86"},"geometry":{"type":"Point","coordinates":[-59.25,-52.0]}},{"type":"Feature","properties":{"kind":"center","id":36,"lat":-18.75,"lon":-62.5,"mslp":1002.2,"hvtl":-101.5,"hvtu":-35.0,"hb":27.4,"idx":-1.9,"cls":4,"psfc":963.1,"terrain":false,"radius_km":200,"name":"asym cold","track":"T99"},"geometry":{"type":"Point","coordinates":[-62.5,-18.75]}},{"type":"Feature","properties":{"kind":"center","id":37,"lat":42.75,"lon":131.75,"mslp":1002.8,"hvtl":-61.0,"hvtu":-395.4,"hb":59.1,"idx":-2.1,"cls":4,"psfc":1002.8,"terrain":false,"radius_km":200,"name":"asym cold","track":"T94"},"geometry":{"type":"Point","coordinates":[131.75,42.75]}},{"type":"Feature","properties":{"kind":"center","id":38,"lat":-14.5,"lon":-67.0,"mslp":1003.7,"hvtl":-68.4,"hvtu":-135.4,"hb":-1.6,"idx":-2.1,"cls":5,"psfc":982.6,"terrain":false,"radius_km":200,"name":"sym cold","track":"T89"},"geometry":{"type":"Point","coordinates":[-67.0,-14.5]}},{"type":"Feature","properties":{"kind":"center","id":39,"lat":-12.5,"lon":-69.5,"mslp":1005.4,"hvtl":13.8,"hvtu":-123.5,"hb":-4.4,"idx":-0.6,"cls":1,"psfc":976.7,"terrain":false,"radius_km":200,"name":"sym shallow warm"},"geometry":{"type":"Point","coordinates":[-69.5,-12.5]}},{"type":"Feature","properties":{"kind":"center","id":40,"lat":30.75,"lon":72.0,"mslp":1006.7,"hvtl":1.0,"hvtu":-80.0,"hb":13.5,"idx":-0.6,"cls":3,"psfc":990.9,"terrain":false,"radius_km":200,"name":"asym shallow warm","track":"T103"},"geometry":{"type":"Point","coordinates":[72.0,30.75]}},{"type":"Feature","properties":{"kind":"center","id":41,"lat":50.75,"lon":-112.5,"mslp":1007.3,"hvtl":-177.3,"hvtu":-63.6,"hb":41.7,"idx":-2.5,"cls":4,"psfc":913.3,"terrain":true,"radius_km":200,"name":"asym cold"},"geometry":{"type":"Point","coordinates":[-112.5,50.75]}},{"type":"Feature","properties":{"kind":"center","id":42,"lat":31.0,"lon":-113.5,"mslp":1008.6,"hvtl":-21.1,"hvtu":-49.3,"hb":-0.4,"idx":-0.9,"cls":5,"psfc":1008.6,"terrain":false,"radius_km":200,"name":"sym cold"},"geometry":{"type":"Point","coordinates":[-113.5,31.0]}},{"type":"Feature","properties":{"kind":"center","id":43,"lat":-31.75,"lon":-67.5,"mslp":1009.5,"hvtl":-91.6,"hvtu":-271.2,"hb":31.0,"idx":-2.4,"cls":4,"psfc":946.5,"terrain":false,"radius_km":200,"name":"asym cold","track":"T98"},"geometry":{"type":"Point","coordinates":[-67.5,-31.75]}},{"type":"Feature","properties":{"kind":"center","id":44,"lat":24.0,"lon":97.0,"mslp":1009.5,"hvtl":51.6,"hvtu":-68.5,"hb":22.3,"idx":0.4,"cls":3,"psfc":984.2,"terrain":false,"radius_km":200,"name":"asym shallow warm","track":"T122"},"geometry":{"type":"Point","coordinates":[97.0,24.0]}},{"type":"Feature","properties":{"kind":"center","id":45,"lat":-11.75,"lon":-74.0,"mslp":1009.8,"hvtl":81.9,"hvtu":-71.7,"hb":-7.1,"idx":0.7,"cls":1,"psfc":935.5,"terrain":false,"radius_km":200,"name":"sym shallow warm"},"geometry":{"type":"Point","coordinates":[-74.0,-11.75]}},{"type":"Feature","properties":{"kind":"center","id":46,"lat":-11.25,"lon":-74.25,"mslp":1009.9,"hvtl":70.9,"hvtu":-63.2,"hb":-7.6,"idx":0.7,"cls":1,"psfc":903.2,"terrain":true,"radius_km":200,"name":"sym shallow warm"},"geometry":{"type":"Point","coordinates":[-74.25,-11.25]}},{"type":"Feature","properties":{"kind":"center","id":47,"lat":30.0,"lon":63.0,"mslp":1016.3,"hvtl":149.6,"hvtu":-79.0,"hb":13.1,"idx":1.2,"cls":3,"psfc":943.4,"terrain":false,"radius_km":200,"name":"asym shallow warm","track":"T130"},"geometry":{"type":"Point","coordinates":[63.0,30.0]}},{"type":"Feature","properties":{"kind":"center","id":48,"lat":32.5,"lon":62.0,"mslp":1016.4,"hvtl":214.6,"hvtu":-127.9,"hb":96.6,"idx":1.1,"cls":3,"psfc":935.6,"terrain":false,"radius_km":200,"name":"asym shallow warm","track":"T125"},"geometry":{"type":"Point","coordinates":[62.0,32.5]}},{"type":"Feature","properties":{"kind":"center","id":49,"lat":31.0,"lon":61.75,"mslp":1016.4,"hvtl":188.6,"hvtu":-92.0,"hb":35.8,"idx":1.2,"cls":3,"psfc":960.6,"terrain":false,"radius_km":200,"name":"asym shallow warm"},"geometry":{"type":"Point","coordinates":[61.75,31.0]}},{"type":"Feature","properties":{"kind":"center","id":50,"lat":-42.25,"lon":173.25,"mslp":1022.8,"hvtl":18.1,"hvtu":-26.3,"hb":-1.4,"idx":0.1,"cls":1,"psfc":901.9,"terrain":true,"radius_km":200,"name":"sym shallow warm"},"geometry":{"type":"Point","coordinates":[173.25,-42.25]}}]}