{"type":"FeatureCollection","features":[{"type":"Feature","properties":{"kind":"blob","cls":3,"id":1},"geometry":{"type":"Polygon","coordinates":[[[149.25,-66.62],[151.5,-66.12],[153.5,-65.12],[154.62,-63.5],[153.75,-62.38],[151.25,-61.62],[148.25,-61.62],[146.25,-62.12],[143.38,-64.0],[143.38,-65.0],[144.0,-65.62],[144.75,-65.12],[146.75,-64.88],[147.38,-65.5],[145.38,-66.25],[149.25,-66.62]]]}},{"type":"Feature","properties":{"kind":"blob","cls":3,"id":2},"geometry":{"type":"Polygon","coordinates":[[[103.5,-59.12],[106.5,-59.12],[107.88,-58.25],[108.12,-57.25],[107.5,-56.38],[106.5,-55.88],[102.75,-55.88],[101.38,-56.75],[101.12,-57.75],[101.75,-58.62],[103.5,-59.12]]]}},{"type":"Feature","properties":{"kind":"blob","cls":3,"id":3},"geometry":{"type":"Polygon","coordinates":[[[25.5,-69.12],[27.25,-68.38],[27.88,-67.0],[26.5,-65.88],[23.25,-65.12],[20.0,-65.12],[17.75,-65.62],[17.88,-65.25],[17.0,-63.88],[15.25,-63.62],[14.0,-62.62],[13.0,-62.38],[9.5,-62.62],[8.0,-63.38],[7.62,-64.0],[7.62,-65.25],[9.5,-66.62],[11.75,-67.12],[14.25,-67.12],[16.25,-66.62],[16.12,-67.5],[17.0,-68.38],[18.75,-69.12],[25.5,-69.12]]]}},{"type":"Feature","properties":{"kind":"blob","cls":3,"id":4},"geometry":{"type":"Polygon","coordinates":[[[10.75,-61.88],[12.5,-61.38],[13.38,-60.75],[13.62,-59.5],[12.5,-58.38],[10.75,-57.88],[8.5,-57.88],[6.75,-58.38],[5.62,-59.5],[5.62,-60.0],[7.0,-61.38],[10.75,-61.88]]]}},{"type":"Feature","properties":{"kind":"blob","cls":0,"id":5},"geometry":{"type":"Polygon","coordinates":[[[145.25,27.88],[146.38,29.25],[146.12,30.5],[145.25,31.38],[143.0,31.38],[141.88,30.0],[142.12,28.75],[143.0,27.88],[145.25,27.88]]]}},{"type":"Feature","properties":{"kind":"blob","cls":0,"id":6},"geometry":{"type":"Polygon","coordinates":[[[-123.75,-61.88],[-122.0,-61.38],[-121.12,-60.75],[-120.88,-59.75],[-122.0,-58.62],[-124.0,-58.12],[-124.12,-56.5],[-125.5,-55.62],[-128.25,-55.38],[-130.25,-56.12],[-130.88,-57.0],[-130.62,-58.0],[-127.88,-59.25],[-128.12,-60.25],[-127.75,-60.88],[-123.75,-61.88]]]}},{"type":"Feature","properties":{"kind":"blob","cls":4,"id":7},"geometry":{"type":"Polygon","coordinates":[[[-15.0,-73.88],[-15.62,-73.5],[-15.0,-73.12],[-12.25,-73.38],[-11.0,-72.88],[-10.0,-71.88],[-9.25,-71.88],[-9.12,-71.25],[-11.25,-69.88],[-15.0,-69.12],[-20.0,-69.38],[-22.0,-69.88],[-23.62,-71.0],[-23.0,-72.12],[-21.5,-72.88],[-19.0,-73.62],[-15.0,-73.88]]]}},{"type":"Feature","properties":{"kind":"blob","cls":4,"id":8},"geometry":{"type":"Polygon","coordinates":[[[179.75,-81.88],[180.0,-79.12],[177.88,-80.25],[178.0,-81.12],[179.75,-81.88]]]}},{"type":"Feature","properties":{"kind":"blob","cls":4,"id":8},"geometry":{"type":"Polygon","coordinates":[[[-179.75,-79.12],[-179.75,-82.12],[-175.25,-82.88],[-160.0,-82.88],[-155.25,-82.12],[-153.75,-81.62],[-153.12,-81.0],[-153.25,-80.38],[-157.25,-78.88],[-161.75,-78.62],[-162.5,-78.12],[-164.5,-77.88],[-175.0,-78.12],[-179.75,-79.12]]]}},{"type":"Feature","properties":{"kind":"blob","cls":1,"id":9},"geometry":{"type":"Polygon","coordinates":[[[-157.0,-78.62],[-152.38,-78.5],[-153.75,-77.88],[-157.0,-78.62]]]}},{"type":"Feature","properties":{"kind":"blob","cls":1,"id":10},"geometry":{"type":"Polygon","coordinates":[[[-147.5,-77.88],[-145.88,-76.75],[-145.88,-76.25],[-147.5,-75.12],[-148.75,-74.88],[-153.88,-77.5],[-147.5,-77.88]]]}},{"type":"Feature","properties":{"kind":"blob","cls":1,"id":11},"geometry":{"type":"Polygon","coordinates":[[[-162.25,-77.62],[-161.25,-76.88],[-155.38,-74.5],[-157.0,-74.38],[-161.75,-75.12],[-163.38,-76.25],[-163.38,-76.75],[-162.25,-77.62]]]}},{"type":"Feature","properties":{"kind":"blob","cls":6,"id":12},"geometry":{"type":"Polygon","coordinates":[[[-127.0,-68.88],[-121.75,-68.88],[-120.5,-68.38],[-119.38,-67.25],[-119.38,-66.5],[-120.25,-65.62],[-121.5,-65.12],[-126.75,-64.88],[-129.0,-65.38],[-130.62,-66.75],[-130.62,-67.25],[-129.5,-68.38],[-127.0,-68.88]]]}},{"type":"Feature","properties":{"kind":"blob","cls":4,"id":13},"geometry":{"type":"Polygon","coordinates":[[[-149.5,-69.62],[-147.25,-69.12],[-145.38,-68.0],[-145.12,-66.75],[-146.5,-65.62],[-148.75,-65.12],[-155.5,-65.12],[-157.75,-65.62],[-159.12,-66.75],[-159.12,-67.25],[-158.0,-68.38],[-157.0,-68.88],[-154.75,-69.38],[-149.5,-69.62]]]}},{"type":"Feature","properties":{"kind":"blob","cls":4,"id":14},"geometry":{"type":"Polygon","coordinates":[[[-143.0,-61.38],[-138.0,-59.12],[-136.88,-57.75],[-137.12,-56.5],[-138.5,-55.62],[-141.0,-55.38],[-144.0,-56.62],[-145.75,-58.12],[-147.25,-58.38],[-148.38,-59.5],[-148.38,-60.0],[-147.25,-61.12],[-143.0,-61.38]]]}},{"type":"Feature","properties":{"kind":"blob","cls":4,"id":15},"geometry":{"type":"Polygon","coordinates":[[[-115.5,-74.62],[-112.75,-74.88],[-99.25,-74.38],[-97.62,-73.75],[-97.62,-72.75],[-98.25,-71.88],[-100.5,-71.12],[-105.5,-70.88],[-108.5,-71.38],[-112.0,-72.62],[-115.5,-74.62]]]}},{"type":"Feature","properties":{"kind":"blob","cls":4,"id":16},"geometry":{"type":"Polygon","coordinates":[[[56.75,-65.88],[60.75,-65.38],[62.5,-64.62],[63.38,-63.5],[61.75,-61.88],[58.25,-61.38],[52.75,-62.12],[51.5,-62.62],[50.62,-63.5],[50.62,-64.0],[51.75,-65.12],[52.75,-65.62],[56.75,-65.88]]]}},{"type":"Feature","properties":{"kind":"blob","cls":0,"id":17},"geometry":{"type":"Polygon","coordinates":[[[-117.75,18.62],[-116.25,18.62],[-115.38,19.75],[-115.62,21.25],[-117.0,22.12],[-118.5,21.88],[-119.38,20.75],[-119.38,19.75],[-118.5,18.62],[-118.12,18.75],[-118.62,19.5],[-118.0,20.12],[-116.88,19.75],[-116.88,19.0],[-117.75,18.62]]]}},{"type":"Feature","properties":{"kind":"blob","cls":4,"id":18},"geometry":{"type":"Polygon","coordinates":[[[37.0,67.38],[39.5,68.38],[40.12,69.5],[37.75,70.88],[31.75,71.12],[28.5,70.38],[27.5,69.88],[26.88,69.0],[27.5,68.12],[28.5,67.62],[37.0,67.38]]]}},{"type":"Feature","properties":{"kind":"blob","cls":4,"id":19},"geometry":{"type":"Polygon","coordinates":[[[71.0,-68.88],[78.5,-68.88],[79.62,-68.25],[77.0,-67.62],[74.75,-67.62],[71.5,-68.38],[71.0,-68.88]]]}},{"type":"Feature","properties":{"kind":"blob","cls":0,"id":20},"geometry":{"type":"Polygon","coordinates":[[[173.25,24.62],[174.12,25.5],[174.12,27.25],[173.25,28.12],[171.75,28.38],[170.12,27.25],[170.12,25.5],[171.0,24.62],[173.25,24.62]]]}},{"type":"Feature","properties":{"kind":"blob","cls":4,"id":21},"geometry":{"type":"Polygon","coordinates":[[[-63.5,49.62],[-62.0,50.12],[-60.88,51.25],[-60.88,52.25],[-61.75,53.12],[-63.25,53.62],[-65.0,53.62],[-66.5,53.12],[-67.38,52.25],[-67.38,51.25],[-66.5,50.38],[-63.5,49.62]]]}},{"type":"Feature","properties":{"kind":"blob","cls":4,"id":22},"geometry":{"type":"Polygon","coordinates":[[[-27.75,-46.88],[-26.5,-46.38],[-25.62,-45.25],[-25.88,-44.0],[-28.25,-42.62],[-30.25,-42.62],[-31.5,-43.12],[-32.12,-43.75],[-32.38,-45.0],[-31.25,-46.38],[-27.75,-46.88]]]}},{"type":"Feature","properties":{"kind":"blob","cls":3,"id":23},"geometry":{"type":"Polygon","coordinates":[[[87.5,81.38],[96.75,82.12],[100.0,82.88],[100.88,83.5],[100.5,83.88],[74.0,83.88],[52.62,82.25],[57.0,81.62],[87.5,81.38]]]}},{"type":"Feature","properties":{"kind":"blob","cls":4,"id":24},"geometry":{"type":"Polygon","coordinates":[[[-96.5,-59.12],[-94.0,-59.38],[-92.0,-58.62],[-91.38,-57.75],[-91.62,-56.25],[-93.75,-54.38],[-96.5,-54.12],[-98.25,-54.62],[-99.38,-55.75],[-99.62,-57.25],[-98.75,-58.38],[-96.5,-59.12]]]}},{"type":"Feature","properties":{"kind":"blob","cls":4,"id":25},"geometry":{"type":"Polygon","coordinates":[[[-148.75,55.12],[-146.0,56.12],[-144.88,57.5],[-144.88,59.0],[-145.5,59.62],[-147.5,60.38],[-149.75,60.38],[-150.5,59.62],[-150.12,60.25],[-150.5,60.38],[-153.5,59.12],[-154.38,57.75],[-154.12,56.75],[-152.5,55.62],[-148.75,55.12]]]}},{"type":"Feature","properties":{"kind":"blob","cls":4,"id":26},"geometry":{"type":"Polygon","coordinates":[[[144.5,46.12],[145.75,46.62],[146.88,47.75],[146.62,49.5],[148.25,49.38],[149.75,49.88],[150.62,50.75],[150.62,51.75],[149.25,52.88],[147.25,53.12],[145.75,52.62],[144.88,51.75],[145.25,50.12],[142.75,50.38],[141.0,49.62],[140.38,48.75],[140.38,47.75],[141.5,46.62],[144.5,46.12]]]}},{"type":"Feature","properties":{"kind":"blob","cls":5,"id":27},"geometry":{"type":"Polygon","coordinates":[[[-32.75,62.88],[-30.5,63.88],[-29.62,65.0],[-31.25,66.62],[-34.0,67.12],[-40.62,64.25],[-38.5,62.88],[-32.75,62.88]]]}},{"type":"Feature","properties":{"kind":"blob","cls":6,"id":28},"geometry":{"type":"Polygon","coordinates":[[[-81.0,-39.88],[-79.88,-39.25],[-80.12,-38.0],[-79.25,-37.88],[-79.12,-37.5],[-80.25,-36.12],[-82.5,-35.88],[-84.12,-37.0],[-84.12,-38.75],[-83.25,-39.62],[-81.0,-39.88]]]}},{"type":"Feature","properties":{"kind":"blob","cls":4,"id":29},"geometry":{"type":"Polygon","coordinates":[[[78.25,54.38],[80.12,56.0],[80.38,56.75],[79.25,58.12],[78.25,58.62],[75.75,58.88],[73.5,58.38],[72.12,57.25],[71.88,55.5],[73.25,54.38],[78.25,54.38]],[[73.5,56.88],[72.88,57.25],[73.0,57.62],[74.0,58.12],[74.88,57.75],[74.5,57.12],[73.5,56.88]]]}},{"type":"Feature","properties":{"kind":"blob","cls":1,"id":30},"geometry":{"type":"Polygon","coordinates":[[[146.25,68.88],[148.0,69.12],[149.75,69.62],[150.62,70.5],[150.62,71.0],[146.0,69.38],[143.75,69.12],[143.62,69.5],[147.0,72.88],[140.25,72.88],[138.25,72.12],[137.62,71.5],[137.88,70.5],[138.75,69.88],[141.25,69.12],[146.25,68.88]]]}},{"type":"Feature","properties":{"kind":"blob","cls":4,"id":31},"geometry":{"type":"Polygon","coordinates":[[[-98.75,47.12],[-97.0,46.88],[-95.25,47.62],[-94.62,49.25],[-94.88,50.0],[-97.0,51.12],[-98.75,51.12],[-100.5,50.38],[-101.12,49.25],[-100.62,48.0],[-98.75,47.12]]]}},{"type":"Feature","properties":{"kind":"blob","cls":5,"id":32},"geometry":{"type":"Polygon","coordinates":[[[-64.25,-17.62],[-63.12,-16.25],[-62.88,-14.5],[-64.5,-12.62],[-67.5,-11.38],[-68.75,-11.62],[-69.25,-12.12],[-69.62,-11.0],[-71.25,-9.88],[-71.75,-9.88],[-73.38,-11.25],[-73.0,-12.38],[-72.25,-11.88],[-71.62,-12.25],[-71.25,-13.12],[-69.75,-13.12],[-69.5,-13.62],[-68.12,-14.25],[-67.5,-15.62],[-67.0,-15.62],[-65.5,-17.12],[-64.25,-17.62]]]}},{"type":"Feature","properties":{"kind":"blob","cls":4,"id":33},"geometry":{"type":"Polygon","coordinates":[[[-63.5,-81.62],[-47.12,-81.5],[-52.0,-81.12],[-63.5,-81.62]]]}},{"type":"Feature","properties":{"kind":"blob","cls":1,"id":34},"geometry":{"type":"Polygon","coordinates":[[[-56.5,-53.38],[-55.0,-52.88],[-54.38,-52.25],[-55.38,-51.5],[-54.12,-50.75],[-54.38,-50.25],[-55.25,-49.38],[-56.75,-48.88],[-58.5,-48.88],[-60.0,-49.38],[-61.12,-50.75],[-61.12,-51.75],[-60.25,-52.62],[-56.5,-53.38]]]}},{"type":"Feature","properties":{"kind":"blob","cls":3,"id":35},"geometry":{"type":"MultiPolygon","coordinates":[[[[138.0,61.12],[137.88,61.0],[138.0,60.88],[138.0,61.12]]],[[[139.5,59.38],[140.5,59.88],[141.12,60.75],[140.5,61.12],[140.25,60.62],[138.75,60.62],[138.5,60.12],[138.0,60.12],[137.75,60.88],[137.0,60.88],[136.88,61.25],[137.38,61.5],[137.12,61.75],[138.12,62.25],[137.62,62.5],[137.62,63.75],[137.0,64.38],[136.0,64.62],[135.38,64.0],[135.5,63.62],[133.5,63.88],[132.88,63.25],[132.88,62.25],[133.62,60.5],[135.25,59.38],[139.5,59.38]],[[137.12,59.75],[137.0,59.62],[136.88,59.75],[137.12,59.75]]]]}},{"type":"Feature","properties":{"kind":"blob","cls":0,"id":36},"geometry":{"type":"Polygon","coordinates":[[[152.75,12.62],[154.25,12.62],[155.12,13.75],[154.88,15.25],[153.5,16.12],[152.25,15.88],[151.38,14.75],[151.62,13.25],[152.75,12.62]]]}},{"type":"Feature","properties":{"kind":"blob","cls":4,"id":37},"geometry":{"type":"MultiPolygon","coordinates":[[[[-69.0,-33.38],[-69.12,-33.5],[-69.0,-33.62],[-69.0,-33.38]]],[[[-68.62,-34.5],[-68.25,-35.12],[-67.25,-34.88],[-65.62,-33.25],[-66.38,-33.0],[-66.0,-32.38],[-65.38,-32.75],[-65.38,-31.0],[-66.0,-30.12],[-67.0,-29.88],[-67.38,-30.25],[-67.38,-31.25],[-68.0,-31.62],[-68.12,-31.25],[-67.62,-31.0],[-68.38,-30.0],[-68.88,-32.25],[-68.88,-33.25],[-68.38,-33.5],[-68.62,-34.5]],[[-66.38,-31.0],[-66.5,-31.12],[-66.62,-30.75],[-66.38,-31.0]]],[[[-67.12,-29.75],[-67.25,-29.62],[-67.38,-29.75],[-67.12,-29.75]]]]}},{"type":"Feature","properties":{"kind":"blob","cls":4,"id":38},"geometry":{"type":"Polygon","coordinates":[[[-24.0,69.88],[-22.25,69.88],[-20.62,71.0],[-20.62,71.5],[-22.25,72.62],[-24.75,72.88],[-25.12,72.5],[-24.25,71.88],[-25.25,71.38],[-26.0,71.62],[-26.0,71.12],[-26.62,71.0],[-26.0,70.62],[-28.12,70.0],[-25.5,70.38],[-23.38,70.0],[-24.0,69.88]]]}},{"type":"Feature","properties":{"kind":"blob","cls":3,"id":39},"geometry":{"type":"Polygon","coordinates":[[[72.5,29.12],[73.75,29.62],[74.38,30.5],[74.38,32.0],[74.0,32.38],[72.25,32.38],[70.5,31.88],[70.12,31.5],[69.88,29.5],[72.5,29.12]]]}},{"type":"Feature","properties":{"kind":"blob","cls":4,"id":40},"geometry":{"type":"Polygon","coordinates":[[[-25.25,69.38],[-24.88,69.5],[-25.0,69.62],[-25.25,69.38]]]}},{"type":"Feature","properties":{"kind":"blob","cls":1,"id":41},"geometry":{"type":"Polygon","coordinates":[[[-74.0,-12.38],[-74.0,-11.62],[-74.12,-11.75],[-74.0,-12.38]]]}},{"type":"Feature","properties":{"kind":"blob","cls":4,"id":42},"geometry":{"type":"Polygon","coordinates":[[[-58.75,69.62],[-53.75,69.62],[-53.75,70.12],[-52.75,69.88],[-52.12,70.25],[-52.75,70.62],[-51.75,70.38],[-51.62,70.75],[-54.0,72.88],[-55.5,73.38],[-61.5,73.12],[-63.5,72.38],[-64.12,71.75],[-63.5,70.62],[-62.5,70.12],[-58.75,69.62]]]}},{"type":"Feature","properties":{"kind":"blob","cls":1,"id":43},"geometry":{"type":"Polygon","coordinates":[[[-120.25,36.88],[-119.88,37.75],[-121.88,40.25],[-122.0,41.12],[-123.5,41.12],[-124.38,40.25],[-124.62,39.0],[-123.0,36.88],[-120.25,36.88]],[[-122.75,39.38],[-123.12,39.5],[-123.5,40.62],[-122.88,40.5],[-122.75,39.38]]]}},{"type":"Feature","properties":{"kind":"blob","cls":4,"id":44},"geometry":{"type":"Polygon","coordinates":[[[-56.62,74.0],[-58.5,74.88],[-60.0,76.38],[-62.38,76.25],[-62.12,75.25],[-61.25,74.62],[-56.62,74.0]]]}},{"type":"Feature","properties":{"kind":"blob","cls":1,"id":45},"geometry":{"type":"Polygon","coordinates":[[[96.25,23.88],[97.25,23.62],[97.38,24.0],[95.25,25.62],[95.38,24.75],[96.25,23.88]]]}},{"type":"Feature","properties":{"kind":"blob","cls":4,"id":46},"geometry":{"type":"Polygon","coordinates":[[[-56.25,73.62],[-55.88,73.75],[-56.0,73.88],[-56.25,73.62]]]}},{"type":"Feature","properties":{"kind":"blob","cls":4,"id":47},"geometry":{"type":"MultiPolygon","coordinates":[[[[115.25,53.12],[115.12,53.0],[115.5,52.88],[115.25,53.12]]],[[[115.38,53.5],[116.5,53.12],[117.88,55.25],[115.5,55.88],[115.5,55.12],[113.38,54.0],[114.5,53.62],[116.0,54.38],[115.38,53.5]],[[116.0,53.38],[115.88,53.5],[116.25,53.88],[116.0,53.38]]]]}},{"type":"Feature","properties":{"kind":"blob","cls":4,"id":48},"geometry":{"type":"Polygon","coordinates":[[[113.25,53.38],[113.62,53.5],[113.5,53.62],[113.25,53.38]]]}},{"type":"Feature","properties":{"kind":"blob","cls":3,"id":49},"geometry":{"type":"Polygon","coordinates":[[[62.12,30.5],[61.62,31.75],[62.38,32.75],[61.75,32.88],[61.25,33.62],[60.62,32.75],[60.62,31.5],[62.12,30.5]]]}},{"type":"Feature","properties":{"kind":"blob","cls":4,"id":50},"geometry":{"type":"Polygon","coordinates":[[[111.12,54.75],[111.25,54.62],[111.38,55.0],[111.12,54.75]]]}},{"type":"Feature","properties":{"kind":"blob","cls":3,"id":51},"geometry":{"type":"Polygon","coordinates":[[[62.38,30.25],[62.5,30.12],[62.62,30.25],[62.38,30.25]]]}},{"type":"Feature","properties":{"kind":"blob","cls":4,"id":52},"geometry":{"type":"Polygon","coordinates":[[[114.25,56.12],[116.62,56.25],[116.25,56.62],[114.25,56.12]]]}},{"type":"Feature","properties":{"kind":"blob","cls":4,"id":53},"geometry":{"type":"MultiPolygon","coordinates":[[[[111.75,56.12],[111.62,56.0],[112.0,55.88],[111.75,56.12]]],[[[112.25,56.38],[112.12,56.25],[112.5,56.12],[112.25,56.38]]]]}},{"type":"Feature","properties":{"kind":"blob","cls":3,"id":54},"geometry":{"type":"Polygon","coordinates":[[[179.75,-33.12],[180.0,-30.88],[179.38,-31.75],[179.38,-32.75],[179.75,-33.12]]]}},{"type":"Feature","properties":{"kind":"blob","cls":3,"id":54},"geometry":{"type":"Polygon","coordinates":[[[-179.75,-30.88],[-180.0,-33.12],[-178.5,-34.62],[-176.75,-34.38],[-175.88,-33.75],[-175.62,-31.75],[-176.25,-30.88],[-178.75,-30.38],[-179.75,-30.88]]]}},{"type":"Feature","properties":{"kind":"center","id":1,"lat":-64.0,"lon":148.75,"mslp":942.0,"hvtl":87.5,"hvtu":-29.4,"hb":15.3,"idx":1.1,"cls":3,"psfc":942.0,"terrain":false,"radius_km":200,"name":"asym shallow warm","track":"T04"},"geometry":{"type":"Point","coordinates":[148.75,-64.0]}},{"type":"Feature","properties":{"kind":"center","id":2,"lat":-57.5,"lon":104.75,"mslp":943.0,"hvtl":159.8,"hvtu":-96.3,"hb":27.7,"idx":1.1,"cls":3,"psfc":943.1,"terrain":false,"radius_km":200,"name":"asym shallow warm","track":"T08"},"geometry":{"type":"Point","coordinates":[104.75,-57.5]}},{"type":"Feature","properties":{"kind":"center","id":3,"lat":-65.0,"lon":12.75,"mslp":946.0,"hvtl":73.0,"hvtu":-46.3,"hb":31.8,"idx":0.8,"cls":3,"psfc":946.0,"terrain":false,"radius_km":200,"name":"asym shallow warm","track":"T05"},"geometry":{"type":"Point","coordinates":[12.75,-65.0]}},{"type":"Feature","properties":{"kind":"center","id":4,"lat":-59.75,"lon":9.75,"mslp":947.0,"hvtl":147.6,"hvtu":-113.4,"hb":19.9,"idx":1.0,"cls":3,"psfc":947.0,"terrain":false,"radius_km":200,"name":"asym shallow warm"},"geometry":{"type":"Point","coordinates":[9.75,-59.75]}},{"type":"Feature","properties":{"kind":"center","id":5,"lat":29.5,"lon":144.25,"mslp":947.2,"hvtl":116.8,"hvtu":221.2,"hb":1.7,"idx":2.6,"cls":0,"psfc":947.2,"terrain":false,"radius_km":200,"name":"sym deep warm","track":"T02"},"geometry":{"type":"Point","coordinates":[144.25,29.5]}},{"type":"Feature","properties":{"kind":"center","id":6,"lat":-57.25,"lon":-127.25,"mslp":953.6,"hvtl":104.8,"hvtu":62.0,"hb":-24.1,"idx":2.1,"cls":0,"psfc":953.5,"terrain":false,"radius_km":200,"name":"sym deep warm","track":"T19"},"geometry":{"type":"Point","coordinates":[-127.25,-57.25]}},{"type":"Feature","properties":{"kind":"center","id":7,"lat":-71.25,"lon":-16.25,"mslp":963.2,"hvtl":-267.7,"hvtu":-112.3,"hb":46.7,"idx":-2.8,"cls":4,"psfc":963.1,"terrain":false,"radius_km":200,"name":"asym cold","track":"T24"},"geometry":{"type":"Point","coordinates":[-16.25,-71.25]}},{"type":"Feature","properties":{"kind":"center","id":8,"lat":-80.5,"lon":-168.25,"mslp":963.4,"hvtl":-13.5,"hvtu":-32.8,"hb":16.9,"idx":-0.6,"cls":4,"psfc":956.2,"terrain":false,"radius_km":200,"name":"asym cold","track":"T32"},"geometry":{"type":"Point","coordinates":[-168.25,-80.5]}},{"type":"Feature","properties":{"kind":"center","id":9,"lat":-78.5,"lon":-155.75,"mslp":966.3,"hvtl":73.4,"hvtu":-81.6,"hb":8.9,"idx":0.6,"cls":1,"psfc":958.5,"terrain":false,"radius_km":200,"name":"sym shallow warm"},"geometry":{"type":"Point","coordinates":[-155.75,-78.5]}},{"type":"Feature","properties":{"kind":"center","id":10,"lat":-76.75,"lon":-152.25,"mslp":966.8,"hvtl":58.3,"hvtu":-95.0,"hb":-5.3,"idx":0.3,"cls":1,"psfc":966.8,"terrain":false,"radius_km":200,"name":"sym shallow warm","track":"T03"},"geometry":{"type":"Point","coordinates":[-152.25,-76.75]}},{"type":"Feature","properties":{"kind":"center","id":11,"lat":-77.5,"lon":-162.25,"mslp":967.4,"hvtl":153.9,"hvtu":-58.6,"hb":3.0,"idx":1.3,"cls":1,"psfc":967.4,"terrain":false,"radius_km":200,"name":"sym shallow warm"},"geometry":{"type":"Point","coordinates":[-162.25,-77.5]}},{"type":"Feature","properties":{"kind":"center","id":12,"lat":-67.0,"lon":-125.25,"mslp":968.0,"hvtl":-83.4,"hvtu":9.3,"hb":41.0,"idx":-1.3,"cls":6,"psfc":968.0,"terrain":false,"radius_km":200,"name":"shallow cold","track":"T25"},"geometry":{"type":"Point","coordinates":[-125.25,-67.0]}},{"type":"Feature","properties":{"kind":"center","id":13,"lat":-67.0,"lon":-154.0,"mslp":969.6,"hvtl":-151.7,"hvtu":-318.2,"hb":25.7,"idx":-2.8,"cls":4,"psfc":969.6,"terrain":false,"radius_km":200,"name":"asym cold","track":"T31"},"geometry":{"type":"Point","coordinates":[-154.0,-67.0]}},{"type":"Feature","properties":{"kind":"center","id":14,"lat":-57.75,"lon":-141.0,"mslp":969.8,"hvtl":-66.0,"hvtu":-275.4,"hb":33.0,"idx":-2.1,"cls":4,"psfc":969.8,"terrain":false,"radius_km":200,"name":"asym cold","track":"T39"},"geometry":{"type":"Point","coordinates":[-141.0,-57.75]}},{"type":"Feature","properties":{"kind":"center","id":15,"lat":-73.75,"lon":-106.0,"mslp":970.7,"hvtl":-61.0,"hvtu":-256.5,"hb":25.6,"idx":-2.1,"cls":4,"psfc":970.7,"terrain":false,"radius_km":200,"name":"asym cold","track":"T45"},"geometry":{"type":"Point","coordinates":[-106.0,-73.75]}},{"type":"Feature","properties":{"kind":"center","id":16,"lat":-63.75,"lon":56.75,"mslp":974.4,"hvtl":-198.9,"hvtu":-404.1,"hb":68.4,"idx":-2.9,"cls":4,"psfc":974.4,"terrain":false,"radius_km":200,"name":"asym cold"},"geometry":{"type":"Point","coordinates":[56.75,-63.75]}},{"type":"Feature","properties":{"kind":"center","id":17,"lat":20.25,"lon":-117.5,"mslp":975.0,"hvtl":59.6,"hvtu":233.1,"hb":2.7,"idx":2.1,"cls":0,"psfc":975.0,"terrain":false,"radius_km":200,"name":"sym deep warm","track":"T42"},"geometry":{"type":"Point","coordinates":[-117.5,20.25]}},{"type":"Feature","properties":{"kind":"center","id":18,"lat":69.0,"lon":32.75,"mslp":975.1,"hvtl":-86.8,"hvtu":-180.9,"hb":18.0,"idx":-2.3,"cls":4,"psfc":958.5,"terrain":false,"radius_km":200,"name":"asym cold","track":"T50"},"geometry":{"type":"Point","coordinates":[32.75,69.0]}},{"type":"Feature","properties":{"kind":"center","id":19,"lat":-68.75,"lon":78.0,"mslp":979.0,"hvtl":-93.7,"hvtu":-202.2,"hb":20.8,"idx":-2.4,"cls":4,"psfc":966.0,"terrain":false,"radius_km":200,"name":"asym cold"},"geometry":{"type":"Point","coordinates":[78.0,-68.75]}},{"type":"Feature","properties":{"kind":"center","id":20,"lat":26.25,"lon":172.25,"mslp":982.2,"hvtl":126.4,"hvtu":190.5,"hb":-6.5,"idx":2.7,"cls":0,"psfc":982.2,"terrain":false,"radius_km":200,"name":"sym deep warm","track":"T44"},"geometry":{"type":"Point","coordinates":[172.25,26.25]}},{"type":"Feature","properties":{"kind":"center","id":21,"lat":51.75,"lon":-64.25,"mslp":985.2,"hvtl":-13.8,"hvtu":-269.0,"hb":42.5,"idx":-1.3,"cls":4,"psfc":908.1,"terrain":false,"radius_km":200,"name":"asym cold","track":"T61"},"geometry":{"type":"Point","coordinates":[-64.25,51.75]}},{"type":"Feature","properties":{"kind":"center","id":22,"lat":-44.75,"lon":-29.25,"mslp":986.1,"hvtl":-62.0,"hvtu":-256.5,"hb":53.1,"idx":-2.1,"cls":4,"psfc":986.1,"terrain":false,"radius_km":200,"name":"asym cold","track":"T20"},"geometry":{"type":"Point","coordinates":[-29.25,-44.75]}},{"type":"Feature","properties":{"kind":"center","id":23,"lat":83.5,"lon":70.5,"mslp":987.1,"hvtl":158.5,"hvtu":-171.6,"hb":50.0,"idx":0.9,"cls":3,"psfc":987.1,"terrain":false,"radius_km":200,"name":"asym shallow warm","track":"T63"},"geometry":{"type":"Point","coordinates":[70.5,83.5]}},{"type":"Feature","properties":{"kind":"center","id":24,"lat":-56.75,"lon":-95.75,"mslp":991.4,"hvtl":-84.5,"hvtu":-176.3,"hb":28.6,"idx":-2.3,"cls":4,"psfc":991.4,"terrain":false,"radius_km":200,"name":"asym cold","track":"T68"},"geometry":{"type":"Point","coordinates":[-95.75,-56.75]}},{"type":"Feature","properties":{"kind":"center","id":25,"lat":58.0,"lon":-149.5,"mslp":994.1,"hvtl":-28.7,"hvtu":-162.0,"hb":14.0,"idx":-1.5,"cls":4,"psfc":994.1,"terrain":false,"radius_km":200,"name":"asym cold","track":"T40"},"geometry":{"type":"Point","coordinates":[-149.5,58.0]}},{"type":"Feature","properties":{"kind":"center","id":26,"lat":48.25,"lon":143.5,"mslp":997.9,"hvtl":-248.1,"hvtu":-440.2,"hb":58.1,"idx":-3.0,"cls":4,"psfc":997.9,"terrain":false,"radius_km":200,"name":"asym cold","track":"T94"},"geometry":{"type":"Point","coordinates":[143.5,48.25]}},{"type":"Feature","properties":{"kind":"center","id":27,"lat":64.75,"lon":-36.0,"mslp":999.8,"hvtl":-79.6,"hvtu":-120.8,"hb":8.4,"idx":-2.2,"cls":5,"psfc":999.8,"terrain":false,"radius_km":200,"name":"sym cold","track":"T62"},"geometry":{"type":"Point","coordinates":[-36.0,64.75]}},{"type":"Feature","properties":{"kind":"center","id":28,"lat":-37.75,"lon":-82.0,"mslp":1000.8,"hvtl":-27.8,"hvtu":34.5,"hb":12.8,"idx":-0.2,"cls":6,"psfc":1000.8,"terrain":false,"radius_km":200,"name":"shallow cold","track":"T102"},"geometry":{"type":"Point","coordinates":[-82.0,-37.75]}},{"type":"Feature","properties":{"kind":"center","id":29,"lat":56.5,"lon":76.0,"mslp":1001.9,"hvtl":-69.5,"hvtu":-73.7,"hb":13.6,"idx":-1.8,"cls":4,"psfc":988.2,"terrain":false,"radius_km":200,"name":"asym cold","track":"T84"},"geometry":{"type":"Point","coordinates":[76.0,56.5]}},{"type":"Feature","properties":{"kind":"center","id":30,"lat":70.75,"lon":144.75,"mslp":1002.0,"hvtl":24.2,"hvtu":-10.0,"hb":7.7,"idx":0.4,"cls":1,"psfc":1001.3,"terrain":false,"radius_km":200,"name":"sym shallow warm"},"geometry":{"type":"Point","coordinates":[144.75,70.75]}},{"type":"Feature","properties":{"kind":"center","id":31,"lat":49.25,"lon":-98.25,"mslp":1002.4,"hvtl":-237.7,"hvtu":-173.3,"hb":68.5,"idx":-2.9,"cls":4,"psfc":957.8,"terrain":false,"radius_km":200,"name":"asym cold"},"geometry":{"type":"Point","coordinates":[-98.25,49.25]}},{"type":"Feature","properties":{"kind":"center","id":32,"lat":-14.5,"lon":-66.75,"mslp":1003.2,"hvtl":-67.9,"hvtu":-42.7,"hb":5.2,"idx":-1.6,"cls":5,"psfc":983.0,"terrain":false,"radius_km":200,"name":"sym cold","track":"T89"},"geometry":{"type":"Point","coordinates":[-66.75,-14.5]}},{"type":"Feature","properties":{"kind":"center","id":33,"lat":-81.5,"lon":-47.25,"mslp":1003.7,"hvtl":-175.3,"hvtu":-153.3,"hb":29.3,"idx":-2.8,"cls":4,"psfc":986.9,"terrain":false,"radius_km":200,"name":"asym cold","track":"T79"},"geometry":{"type":"Point","coordinates":[-47.25,-81.5]}},{"type":"Feature","properties":{"kind":"center","id":34,"lat":-51.0,"lon":-57.25,"mslp":1004.1,"hvtl":38.3,"hvtu":-47.1,"hb":-11.2,"idx":0.3,"cls":1,"psfc":1004.1,"terrain":false,"radius_km":200,"name":"sym shallow warm","track":"T86"},"geometry":{"type":"Point","coordinates":[-57.25,-51.0]}},{"type":"Feature","properties":{"kind":"center","id":35,"lat":62.5,"lon":137.0,"mslp":1004.2,"hvtl":47.1,"hvtu":-135.8,"hb":58.8,"idx":0.0,"cls":3,"psfc":953.4,"terrain":false,"radius_km":200,"name":"asym shallow warm"},"geometry":{"type":"Point","coordinates":[137.0,62.5]}},{"type":"Feature","properties":{"kind":"center","id":36,"lat":14.25,"lon":153.25,"mslp":1004.9,"hvtl":1.0,"hvtu":3.7,"hb":-3.3,"idx":0.1,"cls":0,"psfc":1004.9,"terrain":false,"radius_km":200,"name":"sym deep warm"},"geometry":{"type":"Point","coordinates":[153.25,14.25]}},{"type":"Feature","properties":{"kind":"center","id":37,"lat":-32.0,"lon":-68.5,"mslp":1005.0,"hvtl":-223.9,"hvtu":-170.0,"hb":41.7,"idx":-2.9,"cls":4,"psfc":937.4,"terrain":false,"radius_km":200,"name":"asym cold","track":"T95"},"geometry":{"type":"Point","coordinates":[-68.5,-32.0]}},{"type":"Feature","properties":{"kind":"center","id":38,"lat":69.75,"lon":-23.25,"mslp":1006.7,"hvtl":-80.7,"hvtu":-28.2,"hb":21.6,"idx":-1.6,"cls":4,"psfc":986.1,"terrain":false,"radius_km":200,"name":"asym cold"},"geometry":{"type":"Point","coordinates":[-23.25,69.75]}},{"type":"Feature","properties":{"kind":"center","id":39,"lat":31.25,"lon":71.5,"mslp":1007.7,"hvtl":30.9,"hvtu":-99.2,"hb":10.4,"idx":-0.2,"cls":3,"psfc":989.9,"terrain":false,"radius_km":200,"name":"asym shallow warm","track":"T103"},"geometry":{"type":"Point","coordinates":[71.5,31.25]}},{"type":"Feature","properties":{"kind":"center","id":40,"lat":69.5,"lon":-25.0,"mslp":1008.5,"hvtl":-97.5,"hvtu":-33.9,"hb":21.1,"idx":-1.8,"cls":4,"psfc":921.5,"terrain":false,"radius_km":200,"name":"asym cold","track":"T80"},"geometry":{"type":"Point","coordinates":[-25.0,69.5]}},{"type":"Feature","properties":{"kind":"center","id":41,"lat":-12.0,"lon":-74.0,"mslp":1008.5,"hvtl":86.9,"hvtu":-36.4,"hb":0.3,"idx":1.1,"cls":1,"psfc":931.9,"terrain":false,"radius_km":200,"name":"sym shallow warm"},"geometry":{"type":"Point","coordinates":[-74.0,-12.0]}},{"type":"Feature","properties":{"kind":"center","id":42,"lat":71.5,"lon":-57.5,"mslp":1009.3,"hvtl":-158.2,"hvtu":-134.2,"hb":25.8,"idx":-2.7,"cls":4,"psfc":1009.3,"terrain":false,"radius_km":200,"name":"asym cold","track":"T69"},"geometry":{"type":"Point","coordinates":[-57.5,71.5]}},{"type":"Feature","properties":{"kind":"center","id":43,"lat":39.0,"lon":-122.0,"mslp":1009.5,"hvtl":76.3,"hvtu":-210.6,"hb":8.6,"idx":0.3,"cls":1,"psfc":1004.5,"terrain":false,"radius_km":200,"name":"sym shallow warm"},"geometry":{"type":"Point","coordinates":[-122.0,39.0]}},{"type":"Feature","properties":{"kind":"center","id":44,"lat":75.25,"lon":-61.0,"mslp":1010.2,"hvtl":-225.2,"hvtu":-26.7,"hb":59.2,"idx":-2.2,"cls":4,"psfc":1010.2,"terrain":false,"radius_km":200,"name":"asym cold"},"geometry":{"type":"Point","coordinates":[-61.0,75.25]}},{"type":"Feature","properties":{"kind":"center","id":45,"lat":23.75,"lon":96.5,"mslp":1010.8,"hvtl":64.7,"hvtu":-99.2,"hb":5.3,"idx":0.4,"cls":1,"psfc":991.9,"terrain":false,"radius_km":200,"name":"sym shallow warm","track":"T122"},"geometry":{"type":"Point","coordinates":[96.5,23.75]}},{"type":"Feature","properties":{"kind":"center","id":46,"lat":73.75,"lon":-56.25,"mslp":1011.1,"hvtl":-162.2,"hvtu":-78.5,"hb":47.7,"idx":-2.5,"cls":4,"psfc":1003.5,"terrain":false,"radius_km":200,"name":"asym cold"},"geometry":{"type":"Point","coordinates":[-56.25,73.75]}},{"type":"Feature","properties":{"kind":"center","id":47,"lat":55.0,"lon":115.0,"mslp":1012.0,"hvtl":-293.6,"hvtu":-395.7,"hb":109.4,"idx":-3.0,"cls":4,"psfc":907.1,"terrain":true,"radius_km":200,"name":"asym cold"},"geometry":{"type":"Point","coordinates":[115.0,55.0]}},{"type":"Feature","properties":{"kind":"center","id":48,"lat":53.5,"lon":113.25,"mslp":1013.3,"hvtl":-274.2,"hvtu":-310.8,"hb":62.8,"idx":-3.0,"cls":4,"psfc":900.0,"terrain":true,"radius_km":200,"name":"asym cold"},"geometry":{"type":"Point","coordinates":[113.25,53.5]}},{"type":"Feature","properties":{"kind":"center","id":49,"lat":32.25,"lon":62.0,"mslp":1014.9,"hvtl":80.1,"hvtu":-121.5,"hb":64.4,"idx":0.5,"cls":3,"psfc":943.1,"terrain":false,"radius_km":200,"name":"asym shallow warm"},"geometry":{"type":"Point","coordinates":[62.0,32.25]}},{"type":"Feature","properties":{"kind":"center","id":50,"lat":55.0,"lon":111.25,"mslp":1015.5,"hvtl":-281.9,"hvtu":-339.3,"hb":91.9,"idx":-3.0,"cls":4,"psfc":901.0,"terrain":true,"radius_km":200,"name":"asym cold"},"geometry":{"type":"Point","coordinates":[111.25,55.0]}},{"type":"Feature","properties":{"kind":"center","id":51,"lat":30.25,"lon":62.5,"mslp":1015.8,"hvtl":51.5,"hvtu":-98.0,"hb":19.7,"idx":0.2,"cls":3,"psfc":951.4,"terrain":false,"radius_km":200,"name":"asym shallow warm","track":"T130"},"geometry":{"type":"Point","coordinates":[62.5,30.25]}},{"type":"Feature","properties":{"kind":"center","id":52,"lat":56.25,"lon":114.5,"mslp":1016.1,"hvtl":-254.4,"hvtu":-441.9,"hb":107.7,"idx":-3.0,"cls":4,"psfc":914.5,"terrain":true,"radius_km":200,"name":"asym cold"},"geometry":{"type":"Point","coordinates":[114.5,56.25]}},{"type":"Feature","properties":{"kind":"center","id":53,"lat":56.0,"lon":112.0,"mslp":1016.5,"hvtl":-266.6,"hvtu":-377.6,"hb":113.9,"idx":-3.0,"cls":4,"psfc":920.5,"terrain":true,"radius_km":200,"name":"asym cold"},"geometry":{"type":"Point","coordinates":[112.0,56.0]}},{"type":"Feature","properties":{"kind":"center","id":54,"lat":-32.0,"lon":-178.5,"mslp":1018.9,"hvtl":6.9,"hvtu":-144.9,"hb":33.3,"idx":-0.8,"cls":3,"psfc":1018.9,"terrain":false,"radius_km":200,"name":"asym shallow warm"},"geometry":{"type":"Point","coordinates":[-178.5,-32.0]}}]}