{"type":"FeatureCollection","features":[{"type":"Feature","properties":{"kind":"blob","cls":0,"id":1},"geometry":{"type":"Polygon","coordinates":[[[142.0,16.88],[142.62,17.5],[142.88,19.0],[142.0,20.12],[140.75,20.38],[139.38,19.5],[139.12,18.0],[139.5,17.38],[142.0,16.88]]]}},{"type":"Feature","properties":{"kind":"blob","cls":4,"id":2},"geometry":{"type":"Polygon","coordinates":[[[-167.75,-68.38],[-165.25,-67.88],[-163.12,-66.75],[-163.12,-65.75],[-164.5,-64.88],[-166.5,-64.38],[-173.25,-64.38],[-175.25,-64.88],[-176.62,-65.75],[-176.62,-66.75],[-176.25,-67.12],[-174.0,-68.12],[-167.75,-68.38]]]}},{"type":"Feature","properties":{"kind":"blob","cls":0,"id":3},"geometry":{"type":"Polygon","coordinates":[[[76.5,-66.12],[80.25,-65.62],[82.5,-64.88],[83.38,-64.0],[83.38,-63.5],[82.5,-62.62],[81.25,-62.12],[75.5,-61.88],[74.5,-60.62],[73.5,-60.12],[70.5,-59.88],[68.75,-60.38],[68.0,-59.38],[65.75,-58.62],[62.5,-58.88],[60.88,-60.0],[60.88,-61.25],[61.5,-61.88],[63.75,-62.62],[65.5,-62.62],[65.62,-63.5],[67.75,-65.12],[70.25,-65.88],[76.5,-66.12]],[[71.5,-62.62],[71.12,-62.25],[74.75,-61.88],[78.38,-62.5],[75.25,-62.62],[71.5,-62.62]]]}},{"type":"Feature","properties":{"kind":"blob","cls":3,"id":4},"geometry":{"type":"Polygon","coordinates":[[[92.0,-64.12],[93.62,-63.25],[93.88,-62.0],[92.75,-60.88],[90.75,-60.38],[86.5,-60.62],[84.5,-61.12],[83.62,-61.75],[83.38,-62.75],[83.75,-63.38],[85.25,-64.12],[92.0,-64.12]]]}},{"type":"Feature","properties":{"kind":"blob","cls":1,"id":5},"geometry":{"type":"Polygon","coordinates":[[[-125.0,-62.38],[-124.25,-61.62],[-123.25,-61.62],[-122.75,-62.38],[-120.75,-62.12],[-118.88,-61.0],[-118.62,-59.25],[-119.75,-58.12],[-122.0,-57.38],[-124.0,-57.38],[-126.5,-58.12],[-127.88,-59.5],[-127.88,-61.0],[-126.25,-62.12],[-125.0,-62.38]]]}},{"type":"Feature","properties":{"kind":"blob","cls":0,"id":6},"geometry":{"type":"Polygon","coordinates":[[[159.75,14.62],[161.25,14.62],[162.12,15.75],[161.88,17.5],[160.5,18.38],[159.25,18.12],[158.38,17.0],[159.12,16.25],[158.62,15.25],[159.75,14.62]]]}},{"type":"Feature","properties":{"kind":"blob","cls":4,"id":7},"geometry":{"type":"Polygon","coordinates":[[[165.0,-67.38],[166.25,-66.88],[167.12,-66.0],[167.12,-65.25],[165.5,-63.88],[162.0,-63.12],[156.75,-63.38],[154.88,-64.5],[154.62,-65.0],[155.75,-66.38],[158.5,-67.38],[165.0,-67.38]]]}},{"type":"Feature","properties":{"kind":"blob","cls":3,"id":8},"geometry":{"type":"Polygon","coordinates":[[[-113.0,-74.88],[-111.88,-74.0],[-111.88,-73.25],[-113.25,-71.88],[-118.75,-70.62],[-123.5,-70.88],[-126.0,-71.62],[-127.38,-72.75],[-127.25,-73.38],[-125.88,-73.5],[-126.88,-73.75],[-125.75,-74.62],[-113.0,-74.88]]]}},{"type":"Feature","properties":{"kind":"blob","cls":1,"id":9},"geometry":{"type":"Polygon","coordinates":[[[-21.25,-64.38],[-20.88,-62.5],[-19.88,-61.25],[-22.0,-60.62],[-24.75,-60.62],[-27.5,-61.62],[-27.88,-63.25],[-26.75,-64.12],[-21.25,-64.38]]]}},{"type":"Feature","properties":{"kind":"blob","cls":0,"id":10},"geometry":{"type":"Polygon","coordinates":[[[-172.5,60.38],[-170.5,60.88],[-169.12,61.75],[-168.88,62.75],[-169.25,63.38],[-170.75,64.12],[-174.25,64.38],[-175.88,63.75],[-175.38,63.25],[-175.75,62.88],[-177.38,62.75],[-176.75,61.38],[-175.25,60.62],[-172.5,60.38]]]}},{"type":"Feature","properties":{"kind":"blob","cls":0,"id":11},"geometry":{"type":"Polygon","coordinates":[[[136.75,-61.38],[138.5,-60.88],[139.62,-59.75],[139.62,-59.25],[138.25,-57.88],[136.5,-57.38],[133.0,-57.88],[132.12,-58.75],[131.88,-59.75],[133.0,-60.88],[136.75,-61.38]]]}},{"type":"Feature","properties":{"kind":"blob","cls":4,"id":12},"geometry":{"type":"Polygon","coordinates":[[[-159.25,-77.88],[-157.0,-77.38],[-155.62,-76.25],[-156.5,-75.12],[-159.5,-74.12],[-168.75,-74.12],[-165.5,-74.38],[-163.62,-75.0],[-164.5,-75.88],[-170.12,-77.5],[-159.25,-77.88]]]}},{"type":"Feature","properties":{"kind":"blob","cls":4,"id":13},"geometry":{"type":"Polygon","coordinates":[[[118.75,-65.38],[121.75,-64.38],[122.62,-63.5],[122.38,-61.0],[121.5,-60.12],[119.25,-59.38],[116.0,-59.62],[114.5,-60.38],[113.38,-61.5],[113.38,-63.75],[114.75,-64.88],[118.75,-65.38]]]}},{"type":"Feature","properties":{"kind":"blob","cls":1,"id":14},"geometry":{"type":"Polygon","coordinates":[[[-169.75,-74.62],[-169.38,-74.5],[-169.5,-74.38],[-169.75,-74.62]]]}},{"type":"Feature","properties":{"kind":"blob","cls":3,"id":15},"geometry":{"type":"Polygon","coordinates":[[[-45.75,53.38],[-44.0,53.88],[-43.12,54.75],[-43.12,56.0],[-44.0,56.88],[-45.75,57.38],[-47.75,57.38],[-49.5,56.88],[-49.38,56.5],[-50.38,55.75],[-50.38,55.0],[-49.25,53.88],[-45.75,53.38]]]}},{"type":"Feature","properties":{"kind":"blob","cls":4,"id":16},"geometry":{"type":"Polygon","coordinates":[[[123.88,-66.5],[124.0,-66.88],[130.5,-66.38],[135.0,-66.62],[135.12,-65.75],[132.0,-64.38],[128.0,-64.12],[124.75,-65.12],[123.88,-66.5]]]}},{"type":"Feature","properties":{"kind":"blob","cls":4,"id":17},"geometry":{"type":"Polygon","coordinates":[[[-1.25,-71.62],[1.5,-71.12],[4.5,-71.12],[6.12,-70.0],[6.12,-69.5],[5.25,-68.62],[3.75,-68.12],[-2.25,-67.62],[-7.0,-68.62],[-7.88,-69.5],[-7.88,-70.0],[-7.0,-70.88],[-1.25,-71.62]]]}},{"type":"Feature","properties":{"kind":"blob","cls":4,"id":18},"geometry":{"type":"Polygon","coordinates":[[[-134.75,-47.38],[-133.5,-46.88],[-132.62,-45.75],[-132.88,-44.75],[-133.75,-43.88],[-135.0,-43.38],[-137.25,-43.88],[-138.12,-44.75],[-138.38,-45.75],[-137.5,-46.88],[-134.75,-47.38]]]}},{"type":"Feature","properties":{"kind":"blob","cls":3,"id":19},"geometry":{"type":"MultiPolygon","coordinates":[[[[174.38,-82.5],[175.12,-82.5],[175.0,-82.38],[174.38,-82.5]]],[[[174.38,-82.25],[171.5,-81.62],[169.38,-81.75],[174.38,-82.25]]]]}},{"type":"Feature","properties":{"kind":"blob","cls":1,"id":20},"geometry":{"type":"Polygon","coordinates":[[[162.5,-79.62],[163.75,-79.88],[168.0,-79.38],[170.5,-78.38],[170.62,-77.75],[168.0,-76.62],[163.5,-76.12],[162.38,-77.0],[164.62,-78.5],[161.75,-78.62],[162.5,-79.62]],[[166.62,-77.5],[169.12,-77.5],[169.0,-77.62],[166.62,-77.5]]]}},{"type":"Feature","properties":{"kind":"blob","cls":1,"id":21},"geometry":{"type":"Polygon","coordinates":[[[164.5,-75.12],[166.0,-75.38],[167.75,-74.88],[168.88,-74.0],[168.88,-73.5],[168.25,-72.88],[166.75,-73.12],[165.75,-73.88],[165.0,-73.62],[164.5,-75.12]]]}},{"type":"Feature","properties":{"kind":"blob","cls":4,"id":22},"geometry":{"type":"Polygon","coordinates":[[[19.88,-70.25],[20.0,-70.62],[29.75,-70.38],[37.75,-69.38],[41.38,-68.5],[40.0,-67.62],[37.5,-67.12],[33.25,-67.38],[31.5,-68.12],[31.0,-68.88],[29.0,-68.12],[25.0,-67.88],[21.75,-68.62],[20.5,-69.38],[19.88,-70.25]]]}},{"type":"Feature","properties":{"kind":"blob","cls":1,"id":23},"geometry":{"type":"Polygon","coordinates":[[[6.25,64.12],[8.5,64.62],[9.62,65.25],[9.88,66.75],[7.75,67.88],[7.0,66.88],[6.0,66.88],[3.25,68.12],[1.25,67.62],[-0.12,66.75],[-0.12,65.75],[0.25,65.38],[2.5,64.38],[6.25,64.12]]]}},{"type":"Feature","properties":{"kind":"blob","cls":3,"id":24},"geometry":{"type":"Polygon","coordinates":[[[168.25,-81.62],[169.12,-81.5],[169.0,-81.38],[168.25,-81.62]]]}},{"type":"Feature","properties":{"kind":"blob","cls":4,"id":25},"geometry":{"type":"Polygon","coordinates":[[[-3.75,-45.88],[-2.5,-45.38],[-1.88,-44.75],[-1.62,-43.5],[-1.62,-42.25],[-2.5,-41.12],[-4.62,-40.5],[-4.0,-40.38],[-2.62,-38.75],[-2.88,-37.75],[-4.5,-36.62],[-6.5,-36.88],[-7.62,-38.25],[-7.38,-39.5],[-6.5,-40.38],[-5.12,-40.75],[-6.62,-41.5],[-7.12,-42.75],[-7.12,-44.5],[-6.25,-45.38],[-3.75,-45.88]]]}},{"type":"Feature","properties":{"kind":"blob","cls":4,"id":26},"geometry":{"type":"Polygon","coordinates":[[[-52.25,-81.12],[-42.5,-81.12],[-32.88,-79.25],[-41.25,-79.38],[-52.25,-81.12]]]}},{"type":"Feature","properties":{"kind":"blob","cls":4,"id":27},"geometry":{"type":"Polygon","coordinates":[[[24.0,59.88],[25.0,60.38],[25.88,61.5],[25.0,62.62],[22.75,63.38],[20.5,63.38],[18.25,62.62],[17.38,61.5],[17.62,61.0],[19.25,59.88],[24.0,59.88]]]}},{"type":"Feature","properties":{"kind":"blob","cls":4,"id":28},"geometry":{"type":"Polygon","coordinates":[[[-97.25,51.62],[-95.62,53.25],[-96.5,54.62],[-97.5,55.12],[-101.75,55.12],[-102.88,54.5],[-103.38,53.25],[-102.25,51.88],[-97.25,51.62]]]}},{"type":"Feature","properties":{"kind":"blob","cls":3,"id":29},"geometry":{"type":"Polygon","coordinates":[[[18.25,80.38],[22.75,81.12],[24.25,81.62],[25.0,82.38],[45.75,80.88],[56.25,80.88],[65.0,81.62],[67.25,82.38],[67.38,83.0],[65.5,83.88],[63.0,84.38],[51.75,85.62],[29.75,86.12],[19.0,85.38],[15.5,84.62],[14.75,83.88],[0.5,83.88],[-4.25,83.12],[-5.62,82.25],[-5.62,81.75],[-5.0,81.38],[-2.0,80.62],[18.25,80.38]],[[6.25,81.12],[4.88,81.5],[9.0,82.38],[15.25,82.62],[22.75,82.38],[23.88,82.0],[18.75,81.38],[6.25,81.12]]]}},{"type":"Feature","properties":{"kind":"blob","cls":1,"id":30},"geometry":{"type":"Polygon","coordinates":[[[-86.75,-50.12],[-85.5,-49.62],[-84.62,-48.75],[-84.5,-47.88],[-83.0,-47.62],[-81.88,-46.75],[-81.88,-45.25],[-83.0,-44.38],[-85.0,-44.12],[-86.25,-44.62],[-87.25,-45.88],[-89.0,-45.88],[-90.25,-46.38],[-91.12,-47.25],[-91.12,-48.25],[-90.0,-49.38],[-86.75,-50.12]],[[-90.12,-48.75],[-89.12,-48.5],[-89.5,-48.88],[-90.12,-48.75]]]}},{"type":"Feature","properties":{"kind":"blob","cls":4,"id":31},"geometry":{"type":"Polygon","coordinates":[[[49.5,62.38],[51.38,63.75],[51.38,64.25],[49.5,65.62],[47.25,66.12],[43.0,65.88],[41.38,65.0],[41.12,63.75],[42.0,62.88],[43.0,62.38],[49.5,62.38]]]}},{"type":"Feature","properties":{"kind":"blob","cls":4,"id":32},"geometry":{"type":"Polygon","coordinates":[[[-100.5,42.12],[-99.0,42.62],[-97.88,43.5],[-97.88,45.25],[-99.75,46.38],[-103.0,46.62],[-103.38,46.0],[-102.88,45.5],[-103.38,44.5],[-102.5,43.38],[-101.25,43.38],[-100.5,42.12]]]}},{"type":"Feature","properties":{"kind":"blob","cls":3,"id":33},"geometry":{"type":"Polygon","coordinates":[[[23.25,72.12],[25.5,72.88],[26.12,74.0],[25.0,74.88],[23.25,75.38],[18.5,75.62],[15.25,75.12],[13.38,74.0],[13.38,73.5],[14.5,72.62],[16.25,72.12],[23.25,72.12]]]}},{"type":"Feature","properties":{"kind":"blob","cls":3,"id":34},"geometry":{"type":"Polygon","coordinates":[[[-123.25,24.38],[-122.38,25.25],[-122.12,26.25],[-122.38,27.5],[-124.0,28.62],[-125.75,28.38],[-126.88,26.75],[-126.62,25.5],[-125.5,24.38],[-123.25,24.38]]]}},{"type":"Feature","properties":{"kind":"blob","cls":0,"id":35},"geometry":{"type":"Polygon","coordinates":[[[-104.75,13.12],[-103.25,13.88],[-101.0,14.12],[-100.88,14.75],[-101.75,15.62],[-103.25,15.88],[-104.62,15.0],[-104.75,13.12]]]}},{"type":"Feature","properties":{"kind":"blob","cls":3,"id":36},"geometry":{"type":"Polygon","coordinates":[[[-116.5,34.62],[-115.88,35.25],[-116.5,35.62],[-117.25,35.12],[-116.62,35.75],[-117.75,35.88],[-118.12,35.0],[-116.5,34.62]]]}},{"type":"Feature","properties":{"kind":"blob","cls":4,"id":37},"geometry":{"type":"Polygon","coordinates":[[[76.75,68.62],[79.5,69.12],[81.75,70.12],[82.38,71.5],[81.5,72.38],[79.5,73.12],[72.5,73.38],[69.75,72.88],[67.75,71.88],[67.12,71.0],[68.5,69.62],[70.75,68.88],[76.75,68.62]]]}},{"type":"Feature","properties":{"kind":"blob","cls":4,"id":38},"geometry":{"type":"Polygon","coordinates":[[[121.25,49.88],[121.88,51.0],[120.62,51.0],[121.75,51.38],[122.75,52.38],[123.38,51.25],[122.75,51.38],[122.0,50.12],[124.25,51.12],[125.12,52.0],[125.12,53.25],[124.25,54.12],[123.0,54.62],[121.5,54.12],[121.38,54.5],[122.0,54.88],[119.5,54.38],[116.88,52.25],[117.0,51.38],[117.88,51.25],[117.75,50.38],[121.25,49.88]],[[121.25,52.38],[121.12,52.5],[121.25,52.62],[121.25,52.38]],[[121.5,51.62],[121.38,51.75],[121.5,51.88],[121.5,51.62]],[[118.5,50.88],[118.38,51.0],[118.5,51.12],[118.5,50.88]]]}},{"type":"Feature","properties":{"kind":"blob","cls":3,"id":39},"geometry":{"type":"Polygon","coordinates":[[[178.25,27.88],[179.38,28.5],[178.88,29.25],[178.62,31.75],[178.0,32.12],[176.5,31.88],[175.38,30.5],[175.62,29.0],[176.5,28.12],[178.25,27.88]]]}},{"type":"Feature","properties":{"kind":"blob","cls":4,"id":40},"geometry":{"type":"Polygon","coordinates":[[[-69.75,75.38],[-65.75,75.88],[-64.12,76.5],[-66.88,76.75],[-64.62,77.5],[-65.5,77.88],[-67.75,77.62],[-69.62,78.0],[-69.0,78.38],[-67.0,78.38],[-66.0,78.88],[-70.0,79.38],[-74.75,79.38],[-77.5,79.12],[-76.5,78.88],[-77.12,78.5],[-76.12,78.0],[-77.25,77.12],[-79.88,76.5],[-76.75,75.62],[-69.75,75.38]],[[-71.62,78.25],[-70.12,78.25],[-70.25,78.12],[-71.62,78.25]],[[-68.12,77.0],[-67.38,77.0],[-67.5,76.88],[-68.12,77.0]]]}},{"type":"Feature","properties":{"kind":"blob","cls":3,"id":41},"geometry":{"type":"Polygon","coordinates":[[[-118.62,35.5],[-119.0,36.62],[-119.12,35.75],[-118.62,35.5]]]}},{"type":"Feature","properties":{"kind":"blob","cls":4,"id":42},"geometry":{"type":"Polygon","coordinates":[[[-69.75,59.38],[-67.5,60.12],[-66.62,61.5],[-67.12,63.25],[-68.75,64.38],[-70.75,64.88],[-73.75,64.88],[-76.25,64.12],[-76.88,63.5],[-76.62,61.75],[-74.5,60.12],[-69.75,59.38]]]}},{"type":"Feature","properties":{"kind":"blob","cls":2,"id":43},"geometry":{"type":"Polygon","coordinates":[[[-95.62,15.0],[-95.25,14.62],[-92.12,15.0],[-92.75,15.62],[-94.25,15.88],[-95.62,15.0]]]}},{"type":"Feature","properties":{"kind":"blob","cls":4,"id":44},"geometry":{"type":"Polygon","coordinates":[[[-43.75,-32.62],[-42.0,-32.62],[-40.88,-31.5],[-40.88,-30.0],[-42.25,-28.38],[-43.0,-28.12],[-45.0,-28.38],[-46.12,-29.75],[-46.12,-30.5],[-45.12,-32.0],[-43.75,-32.62]]]}},{"type":"Feature","properties":{"kind":"blob","cls":6,"id":45},"geometry":{"type":"MultiPolygon","coordinates":[[[[-76.38,-8.5],[-76.25,-8.88],[-76.12,-8.75],[-76.38,-8.5]]],[[[-76.38,-8.25],[-76.5,-8.12],[-76.62,-8.25],[-76.38,-8.25]]],[[[-75.25,-10.38],[-73.75,-10.38],[-72.75,-9.88],[-72.12,-8.75],[-72.38,-7.5],[-74.5,-6.12],[-76.0,-6.62],[-76.62,-7.75],[-75.88,-8.0],[-75.25,-10.38]]],[[[-76.62,-8.0],[-76.75,-7.88],[-76.88,-8.0],[-76.62,-8.0]]]]}},{"type":"Feature","properties":{"kind":"blob","cls":3,"id":46},"geometry":{"type":"Polygon","coordinates":[[[58.75,28.62],[60.12,28.5],[59.5,30.62],[58.38,29.75],[58.75,28.62]]]}},{"type":"Feature","properties":{"kind":"blob","cls":3,"id":47},"geometry":{"type":"Polygon","coordinates":[[[72.75,28.88],[74.12,29.5],[74.62,30.25],[74.62,31.5],[74.0,32.38],[72.25,32.38],[70.12,31.5],[69.88,29.5],[72.75,28.88]]]}},{"type":"Feature","properties":{"kind":"blob","cls":0,"id":48},"geometry":{"type":"Polygon","coordinates":[[[-93.75,11.38],[-92.38,12.25],[-95.38,12.0],[-93.75,11.38]]]}},{"type":"Feature","properties":{"kind":"blob","cls":1,"id":49},"geometry":{"type":"Polygon","coordinates":[[[48.75,29.88],[50.38,30.75],[48.75,32.88],[47.25,32.88],[46.5,33.38],[46.12,32.75],[46.12,31.25],[46.75,30.38],[48.75,29.88]]]}},{"type":"Feature","properties":{"kind":"blob","cls":1,"id":50},"geometry":{"type":"Polygon","coordinates":[[[57.75,28.38],[58.12,28.5],[57.75,28.88],[57.75,28.38]]]}},{"type":"Feature","properties":{"kind":"blob","cls":4,"id":51},"geometry":{"type":"Polygon","coordinates":[[[-64.0,70.62],[-59.25,70.62],[-53.62,72.5],[-57.75,74.38],[-59.5,75.88],[-60.0,75.88],[-64.0,75.12],[-65.5,74.12],[-67.25,73.62],[-68.38,72.5],[-68.38,72.0],[-67.25,71.12],[-64.0,70.62]]]}},{"type":"Feature","properties":{"kind":"blob","cls":0,"id":52},"geometry":{"type":"Polygon","coordinates":[[[-76.12,-9.25],[-76.0,-9.38],[-75.88,-9.25],[-76.12,-9.25]]]}},{"type":"Feature","properties":{"kind":"blob","cls":3,"id":53},"geometry":{"type":"Polygon","coordinates":[[[61.12,30.0],[60.75,30.62],[60.62,30.25],[61.12,30.0]]]}},{"type":"Feature","properties":{"kind":"blob","cls":3,"id":54},"geometry":{"type":"Polygon","coordinates":[[[117.12,51.0],[117.25,50.88],[117.38,51.0],[117.12,51.0]]]}},{"type":"Feature","properties":{"kind":"blob","cls":4,"id":55},"geometry":{"type":"Polygon","coordinates":[[[0.0,34.62],[1.5,35.38],[2.5,35.12],[3.12,35.75],[3.12,37.5],[1.5,38.62],[0.5,38.62],[-1.75,37.62],[-2.38,37.0],[-2.38,35.5],[-1.75,34.88],[0.0,34.62]]]}},{"type":"Feature","properties":{"kind":"blob","cls":3,"id":56},"geometry":{"type":"Polygon","coordinates":[[[161.5,29.12],[162.12,29.5],[162.62,30.25],[162.62,31.25],[162.0,32.12],[160.25,32.62],[158.88,32.0],[158.38,31.25],[158.38,30.25],[159.0,29.62],[161.5,29.12]]]}},{"type":"Feature","properties":{"kind":"blob","cls":4,"id":57},"geometry":{"type":"Polygon","coordinates":[[[-67.0,-30.12],[-65.5,-30.12],[-64.38,-28.75],[-64.62,-27.5],[-64.12,-26.5],[-64.75,-25.38],[-65.12,-25.75],[-64.88,-26.25],[-65.38,-26.0],[-65.38,-26.75],[-65.88,-27.25],[-65.38,-28.5],[-66.38,-28.75],[-66.25,-27.62],[-67.12,-28.25],[-66.62,-28.75],[-67.38,-29.75],[-67.0,-30.12]]]}},{"type":"Feature","properties":{"kind":"blob","cls":5,"id":58},"geometry":{"type":"MultiPolygon","coordinates":[[[[105.5,28.38],[105.38,28.25],[105.5,28.12],[105.5,28.38]]],[[[107.38,29.0],[107.5,28.62],[108.12,29.5],[107.38,29.0]]],[[[105.75,28.38],[106.25,27.62],[106.62,28.0],[106.12,28.5],[106.75,28.38],[108.38,30.25],[107.25,31.62],[106.38,31.25],[105.75,28.38]]]]}},{"type":"Feature","properties":{"kind":"blob","cls":4,"id":59},"geometry":{"type":"Polygon","coordinates":[[[-49.25,34.38],[-47.5,34.12],[-46.5,34.62],[-45.88,35.25],[-45.88,37.0],[-47.5,38.12],[-49.0,38.12],[-50.0,37.62],[-50.62,37.0],[-50.62,35.25],[-49.25,34.38]]]}},{"type":"Feature","properties":{"kind":"blob","cls":4,"id":60},"geometry":{"type":"Polygon","coordinates":[[[-68.75,-33.12],[-68.0,-32.88],[-67.38,-32.0],[-67.5,-31.38],[-68.12,-31.5],[-67.62,-31.0],[-68.25,-30.12],[-68.62,-30.5],[-68.75,-33.12]]]}},{"type":"Feature","properties":{"kind":"blob","cls":4,"id":61},"geometry":{"type":"Polygon","coordinates":[[[-71.25,-32.62],[-70.62,-32.75],[-71.12,-32.0],[-71.0,-30.12],[-71.62,-31.0],[-71.25,-32.62]]]}},{"type":"Feature","properties":{"kind":"blob","cls":4,"id":62},"geometry":{"type":"Polygon","coordinates":[[[-64.0,-21.38],[-63.62,-21.25],[-64.0,-20.62],[-64.0,-21.38]]]}},{"type":"Feature","properties":{"kind":"blob","cls":4,"id":63},"geometry":{"type":"Polygon","coordinates":[[[37.0,-40.12],[38.12,-38.75],[37.88,-37.75],[37.0,-36.88],[35.75,-36.38],[33.5,-36.62],[32.62,-37.5],[32.38,-38.5],[33.75,-40.12],[37.0,-40.12]]]}},{"type":"Feature","properties":{"kind":"blob","cls":4,"id":64},"geometry":{"type":"Polygon","coordinates":[[[-25.25,66.62],[-23.75,67.12],[-22.88,68.0],[-22.88,68.5],[-23.75,69.38],[-25.5,69.62],[-26.25,68.88],[-30.5,68.62],[-32.38,67.75],[-31.75,67.12],[-30.25,66.62],[-25.25,66.62]]]}},{"type":"Feature","properties":{"kind":"blob","cls":4,"id":65},"geometry":{"type":"Polygon","coordinates":[[[-28.0,69.88],[-27.12,70.0],[-27.25,70.12],[-28.0,69.88]]]}},{"type":"Feature","properties":{"kind":"center","id":1,"lat":18.5,"lon":141.0,"mslp":947.3,"hvtl":89.7,"hvtu":256.7,"hb":2.5,"idx":2.4,"cls":0,"psfc":947.3,"terrain":false,"radius_km":200,"name":"sym deep warm","track":"T06"},"geometry":{"type":"Point","coordinates":[141.0,18.5]}},{"type":"Feature","properties":{"kind":"center","id":2,"lat":-66.25,"lon":-169.25,"mslp":951.2,"hvtl":-140.1,"hvtu":-396.9,"hb":95.4,"idx":-2.8,"cls":4,"psfc":951.3,"terrain":false,"radius_km":200,"name":"asym cold","track":"T09"},"geometry":{"type":"Point","coordinates":[-169.25,-66.25]}},{"type":"Feature","properties":{"kind":"center","id":3,"lat":-60.5,"lon":64.75,"mslp":952.1,"hvtl":27.0,"hvtu":2.6,"hb":-16.7,"idx":0.6,"cls":0,"psfc":952.1,"terrain":false,"radius_km":200,"name":"sym deep warm","track":"T07"},"geometry":{"type":"Point","coordinates":[64.75,-60.5]}},{"type":"Feature","properties":{"kind":"center","id":4,"lat":-62.5,"lon":89.0,"mslp":953.2,"hvtl":192.2,"hvtu":-113.4,"hb":12.7,"idx":1.1,"cls":3,"psfc":953.2,"terrain":false,"radius_km":200,"name":"asym shallow warm"},"geometry":{"type":"Point","coordinates":[89.0,-62.5]}},{"type":"Feature","properties":{"kind":"center","id":5,"lat":-59.75,"lon":-123.25,"mslp":956.8,"hvtl":14.2,"hvtu":-53.8,"hb":-0.0,"idx":-0.2,"cls":1,"psfc":956.8,"terrain":false,"radius_km":200,"name":"sym shallow warm","track":"T11"},"geometry":{"type":"Point","coordinates":[-123.25,-59.75]}},{"type":"Feature","properties":{"kind":"center","id":6,"lat":16.25,"lon":160.25,"mslp":956.8,"hvtl":102.0,"hvtu":237.7,"hb":4.9,"idx":2.5,"cls":0,"psfc":956.8,"terrain":false,"radius_km":200,"name":"sym deep warm","track":"T12"},"geometry":{"type":"Point","coordinates":[160.25,16.25]}},{"type":"Feature","properties":{"kind":"center","id":7,"lat":-65.5,"lon":161.0,"mslp":956.9,"hvtl":-28.7,"hvtu":-180.5,"hb":63.3,"idx":-1.5,"cls":4,"psfc":956.9,"terrain":false,"radius_km":200,"name":"asym cold","track":"T15"},"geometry":{"type":"Point","coordinates":[161.0,-65.5]}},{"type":"Feature","properties":{"kind":"center","id":8,"lat":-73.0,"lon":-119.75,"mslp":963.1,"hvtl":26.0,"hvtu":-66.9,"hb":29.9,"idx":-0.1,"cls":3,"psfc":963.1,"terrain":false,"radius_km":200,"name":"asym shallow warm","track":"T29"},"geometry":{"type":"Point","coordinates":[-119.75,-73.0]}},{"type":"Feature","properties":{"kind":"center","id":9,"lat":-62.75,"lon":-23.5,"mslp":964.0,"hvtl":97.3,"hvtu":-55.9,"hb":-1.7,"idx":1.0,"cls":1,"psfc":964.0,"terrain":false,"radius_km":200,"name":"sym shallow warm","track":"T28"},"geometry":{"type":"Point","coordinates":[-23.5,-62.75]}},{"type":"Feature","properties":{"kind":"center","id":10,"lat":62.5,"lon":-173.25,"mslp":967.4,"hvtl":67.4,"hvtu":7.1,"hb":6.3,"idx":1.2,"cls":0,"psfc":967.4,"terrain":false,"radius_km":200,"name":"sym deep warm","track":"T02"},"geometry":{"type":"Point","coordinates":[-173.25,62.5]}},{"type":"Feature","properties":{"kind":"center","id":11,"lat":-59.5,"lon":135.75,"mslp":967.9,"hvtl":109.4,"hvtu":37.3,"hb":-4.2,"idx":2.0,"cls":0,"psfc":967.9,"terrain":false,"radius_km":200,"name":"sym deep warm","track":"T22"},"geometry":{"type":"Point","coordinates":[135.75,-59.5]}},{"type":"Feature","properties":{"kind":"center","id":12,"lat":-75.75,"lon":-163.5,"mslp":968.8,"hvtl":-8.8,"hvtu":-80.5,"hb":28.2,"idx":-0.8,"cls":4,"psfc":968.8,"terrain":false,"radius_km":200,"name":"asym cold"},"geometry":{"type":"Point","coordinates":[-163.5,-75.75]}},{"type":"Feature","properties":{"kind":"center","id":13,"lat":-62.0,"lon":118.0,"mslp":971.3,"hvtl":-23.2,"hvtu":-282.8,"hb":17.6,"idx":-1.4,"cls":4,"psfc":971.3,"terrain":false,"radius_km":200,"name":"asym cold","track":"T26"},"geometry":{"type":"Point","coordinates":[118.0,-62.0]}},{"type":"Feature","properties":{"kind":"center","id":14,"lat":-74.5,"lon":-169.5,"mslp":971.5,"hvtl":142.5,"hvtu":-237.2,"hb":-3.1,"idx":0.8,"cls":1,"psfc":971.5,"terrain":false,"radius_km":200,"name":"sym shallow warm"},"geometry":{"type":"Point","coordinates":[-169.5,-74.5]}},{"type":"Feature","properties":{"kind":"center","id":15,"lat":55.25,"lon":-46.75,"mslp":974.9,"hvtl":37.2,"hvtu":-178.8,"hb":18.6,"idx":-0.2,"cls":3,"psfc":974.9,"terrain":false,"radius_km":200,"name":"asym shallow warm","track":"T49"},"geometry":{"type":"Point","coordinates":[-46.75,55.25]}},{"type":"Feature","properties":{"kind":"center","id":16,"lat":-66.0,"lon":129.0,"mslp":976.9,"hvtl":-244.1,"hvtu":-42.2,"hb":43.7,"idx":-2.4,"cls":4,"psfc":976.9,"terrain":false,"radius_km":200,"name":"asym cold","track":"T18"},"geometry":{"type":"Point","coordinates":[129.0,-66.0]}},{"type":"Feature","properties":{"kind":"center","id":17,"lat":-67.75,"lon":-0.25,"mslp":980.6,"hvtl":-127.6,"hvtu":-85.8,"hb":50.5,"idx":-2.4,"cls":4,"psfc":980.6,"terrain":false,"radius_km":200,"name":"asym cold"},"geometry":{"type":"Point","coordinates":[-0.25,-67.75]}},{"type":"Feature","properties":{"kind":"center","id":18,"lat":-45.5,"lon":-135.5,"mslp":982.8,"hvtl":-205.3,"hvtu":-275.2,"hb":38.5,"idx":-2.9,"cls":4,"psfc":982.8,"terrain":false,"radius_km":200,"name":"asym cold"},"geometry":{"type":"Point","coordinates":[-135.5,-45.5]}},{"type":"Feature","properties":{"kind":"center","id":19,"lat":-82.25,"lon":174.25,"mslp":983.6,"hvtl":219.7,"hvtu":-171.4,"hb":54.3,"idx":1.0,"cls":3,"psfc":976.2,"terrain":false,"radius_km":200,"name":"asym shallow warm"},"geometry":{"type":"Point","coordinates":[174.25,-82.25]}},{"type":"Feature","properties":{"kind":"center","id":20,"lat":-77.5,"lon":166.0,"mslp":983.8,"hvtl":100.2,"hvtu":-103.9,"hb":-18.1,"idx":0.7,"cls":1,"psfc":979.7,"terrain":false,"radius_km":200,"name":"sym shallow warm"},"geometry":{"type":"Point","coordinates":[166.0,-77.5]}},{"type":"Feature","properties":{"kind":"center","id":21,"lat":-74.0,"lon":168.75,"mslp":983.8,"hvtl":106.1,"hvtu":-126.6,"hb":-3.4,"idx":0.7,"cls":1,"psfc":983.8,"terrain":false,"radius_km":200,"name":"sym shallow warm","track":"T46"},"geometry":{"type":"Point","coordinates":[168.75,-74.0]}},{"type":"Feature","properties":{"kind":"center","id":22,"lat":-69.0,"lon":37.5,"mslp":984.1,"hvtl":-44.3,"hvtu":-88.7,"hb":14.6,"idx":-1.5,"cls":4,"psfc":984.1,"terrain":false,"radius_km":200,"name":"asym cold","track":"T52"},"geometry":{"type":"Point","coordinates":[37.5,-69.0]}},{"type":"Feature","properties":{"kind":"center","id":23,"lat":66.25,"lon":5.0,"mslp":984.7,"hvtl":132.4,"hvtu":-48.4,"hb":-4.9,"idx":1.3,"cls":1,"psfc":984.7,"terrain":false,"radius_km":200,"name":"sym shallow warm","track":"T57"},"geometry":{"type":"Point","coordinates":[5.0,66.25]}},{"type":"Feature","properties":{"kind":"center","id":24,"lat":-81.5,"lon":169.0,"mslp":985.0,"hvtl":218.2,"hvtu":-166.5,"hb":40.6,"idx":1.0,"cls":3,"psfc":978.1,"terrain":false,"radius_km":200,"name":"asym shallow warm"},"geometry":{"type":"Point","coordinates":[169.0,-81.5]}},{"type":"Feature","properties":{"kind":"center","id":25,"lat":-38.5,"lon":-5.25,"mslp":988.1,"hvtl":-198.5,"hvtu":-365.3,"hb":66.4,"idx":-2.9,"cls":4,"psfc":988.1,"terrain":false,"radius_km":200,"name":"asym cold","track":"T33"},"geometry":{"type":"Point","coordinates":[-5.25,-38.5]}},{"type":"Feature","properties":{"kind":"center","id":26,"lat":-79.25,"lon":-33.0,"mslp":989.0,"hvtl":-209.5,"hvtu":-121.1,"hb":32.6,"idx":-2.8,"cls":4,"psfc":970.1,"terrain":false,"radius_km":200,"name":"asym cold"},"geometry":{"type":"Point","coordinates":[-33.0,-79.25]}},{"type":"Feature","properties":{"kind":"center","id":27,"lat":61.5,"lon":21.5,"mslp":989.6,"hvtl":-5.6,"hvtu":-115.5,"hb":35.0,"idx":-0.9,"cls":4,"psfc":989.0,"terrain":false,"radius_km":200,"name":"asym cold","track":"T77"},"geometry":{"type":"Point","coordinates":[21.5,61.5]}},{"type":"Feature","properties":{"kind":"center","id":28,"lat":53.5,"lon":-100.0,"mslp":990.9,"hvtl":-176.4,"hvtu":-225.4,"hb":121.4,"idx":-2.9,"cls":4,"psfc":960.5,"terrain":false,"radius_km":200,"name":"asym cold","track":"T72"},"geometry":{"type":"Point","coordinates":[-100.0,53.5]}},{"type":"Feature","properties":{"kind":"center","id":29,"lat":82.25,"lon":8.75,"mslp":992.4,"hvtl":92.7,"hvtu":-41.0,"hb":32.1,"idx":1.1,"cls":3,"psfc":992.4,"terrain":false,"radius_km":200,"name":"asym shallow warm"},"geometry":{"type":"Point","coordinates":[8.75,82.25]}},{"type":"Feature","properties":{"kind":"center","id":30,"lat":-48.0,"lon":-87.75,"mslp":992.7,"hvtl":77.9,"hvtu":-49.2,"hb":0.3,"idx":0.8,"cls":1,"psfc":992.7,"terrain":false,"radius_km":200,"name":"sym shallow warm","track":"T74"},"geometry":{"type":"Point","coordinates":[-87.75,-48.0]}},{"type":"Feature","properties":{"kind":"center","id":31,"lat":64.0,"lon":46.25,"mslp":994.4,"hvtl":-163.9,"hvtu":-7.7,"hb":36.8,"idx":-1.9,"cls":4,"psfc":975.1,"terrain":false,"radius_km":200,"name":"asym cold","track":"T81"},"geometry":{"type":"Point","coordinates":[46.25,64.0]}},{"type":"Feature","properties":{"kind":"center","id":32,"lat":44.25,"lon":-100.75,"mslp":994.7,"hvtl":-76.5,"hvtu":-192.8,"hb":34.3,"idx":-2.2,"cls":4,"psfc":932.2,"terrain":false,"radius_km":200,"name":"asym cold"},"geometry":{"type":"Point","coordinates":[-100.75,44.25]}},{"type":"Feature","properties":{"kind":"center","id":33,"lat":73.75,"lon":16.75,"mslp":995.5,"hvtl":69.7,"hvtu":-153.5,"hb":38.2,"idx":0.3,"cls":3,"psfc":995.5,"terrain":false,"radius_km":200,"name":"asym shallow warm"},"geometry":{"type":"Point","coordinates":[16.75,73.75]}},{"type":"Feature","properties":{"kind":"center","id":34,"lat":26.5,"lon":-124.5,"mslp":997.4,"hvtl":61.3,"hvtu":-62.4,"hb":24.5,"idx":0.5,"cls":3,"psfc":997.4,"terrain":false,"radius_km":200,"name":"asym shallow warm","track":"T42"},"geometry":{"type":"Point","coordinates":[-124.5,26.5]}},{"type":"Feature","properties":{"kind":"center","id":35,"lat":14.0,"lon":-102.75,"mslp":1001.2,"hvtl":67.8,"hvtu":9.9,"hb":8.7,"idx":1.3,"cls":0,"psfc":1001.2,"terrain":false,"radius_km":200,"name":"sym deep warm","track":"T104"},"geometry":{"type":"Point","coordinates":[-102.75,14.0]}},{"type":"Feature","properties":{"kind":"center","id":36,"lat":35.75,"lon":-116.75,"mslp":1002.0,"hvtl":36.4,"hvtu":-263.1,"hb":39.0,"idx":-0.3,"cls":3,"psfc":930.4,"terrain":false,"radius_km":200,"name":"asym shallow warm"},"geometry":{"type":"Point","coordinates":[-116.75,35.75]}},{"type":"Feature","properties":{"kind":"center","id":37,"lat":71.0,"lon":74.75,"mslp":1002.0,"hvtl":-5.9,"hvtu":-210.2,"hb":48.9,"idx":-1.1,"cls":4,"psfc":998.0,"terrain":false,"radius_km":200,"name":"asym cold"},"geometry":{"type":"Point","coordinates":[74.75,71.0]}},{"type":"Feature","properties":{"kind":"center","id":38,"lat":52.25,"lon":120.75,"mslp":1002.3,"hvtl":-41.3,"hvtu":-220.9,"hb":40.8,"idx":-1.8,"cls":4,"psfc":931.4,"terrain":false,"radius_km":200,"name":"asym cold","track":"T101"},"geometry":{"type":"Point","coordinates":[120.75,52.25]}},{"type":"Feature","properties":{"kind":"center","id":39,"lat":30.0,"lon":177.75,"mslp":1002.4,"hvtl":51.0,"hvtu":-117.6,"hb":11.2,"idx":0.1,"cls":3,"psfc":1002.4,"terrain":false,"radius_km":200,"name":"asym shallow warm","track":"T70"},"geometry":{"type":"Point","coordinates":[177.75,30.0]}},{"type":"Feature","properties":{"kind":"center","id":40,"lat":77.25,"lon":-72.0,"mslp":1004.9,"hvtl":-94.8,"hvtu":-115.8,"hb":32.1,"idx":-2.3,"cls":4,"psfc":1004.9,"terrain":false,"radius_km":200,"name":"asym cold","track":"T112"},"geometry":{"type":"Point","coordinates":[-72.0,77.25]}},{"type":"Feature","properties":{"kind":"center","id":41,"lat":36.0,"lon":-119.0,"mslp":1005.0,"hvtl":59.4,"hvtu":-259.6,"hb":45.1,"idx":0.1,"cls":3,"psfc":983.8,"terrain":false,"radius_km":200,"name":"asym shallow warm"},"geometry":{"type":"Point","coordinates":[-119.0,36.0]}},{"type":"Feature","properties":{"kind":"center","id":42,"lat":61.5,"lon":-71.0,"mslp":1005.2,"hvtl":-5.3,"hvtu":-248.5,"hb":15.6,"idx":-1.1,"cls":4,"psfc":1005.2,"terrain":false,"radius_km":200,"name":"asym cold","track":"T109"},"geometry":{"type":"Point","coordinates":[-71.0,61.5]}},{"type":"Feature","properties":{"kind":"center","id":43,"lat":15.0,"lon":-94.25,"mslp":1005.3,"hvtl":20.9,"hvtu":51.0,"hb":13.7,"idx":0.9,"cls":2,"psfc":1005.3,"terrain":false,"radius_km":200,"name":"asym deep warm","track":"T108"},"geometry":{"type":"Point","coordinates":[-94.25,15.0]}},{"type":"Feature","properties":{"kind":"center","id":44,"lat":-30.25,"lon":-43.75,"mslp":1005.9,"hvtl":-66.1,"hvtu":-184.9,"hb":53.9,"idx":-2.1,"cls":4,"psfc":1005.9,"terrain":false,"radius_km":200,"name":"asym cold"},"geometry":{"type":"Point","coordinates":[-43.75,-30.25]}},{"type":"Feature","properties":{"kind":"center","id":45,"lat":-8.25,"lon":-74.75,"mslp":1006.0,"hvtl":-23.0,"hvtu":27.1,"hb":-8.8,"idx":-0.2,"cls":6,"psfc":987.9,"terrain":false,"radius_km":200,"name":"shallow cold"},"geometry":{"type":"Point","coordinates":[-74.75,-8.25]}},{"type":"Feature","properties":{"kind":"center","id":46,"lat":30.0,"lon":59.0,"mslp":1006.4,"hvtl":59.9,"hvtu":-83.7,"hb":18.6,"idx":0.4,"cls":3,"psfc":969.1,"terrain":false,"radius_km":200,"name":"asym shallow warm","track":"T114"},"geometry":{"type":"Point","coordinates":[59.0,30.0]}},{"type":"Feature","properties":{"kind":"center","id":47,"lat":30.5,"lon":71.5,"mslp":1006.9,"hvtl":16.6,"hvtu":-95.2,"hb":22.1,"idx":-0.4,"cls":3,"psfc":991.8,"terrain":false,"radius_km":200,"name":"asym shallow warm","track":"T106"},"geometry":{"type":"Point","coordinates":[71.5,30.5]}},{"type":"Feature","properties":{"kind":"center","id":48,"lat":12.25,"lon":-93.75,"mslp":1007.2,"hvtl":18.7,"hvtu":51.0,"hb":-10.2,"idx":0.8,"cls":0,"psfc":1007.2,"terrain":false,"radius_km":200,"name":"sym deep warm"},"geometry":{"type":"Point","coordinates":[-93.75,12.25]}},{"type":"Feature","properties":{"kind":"center","id":49,"lat":30.5,"lon":49.75,"mslp":1007.8,"hvtl":1.6,"hvtu":-81.0,"hb":9.6,"idx":-0.6,"cls":1,"psfc":1004.1,"terrain":false,"radius_km":200,"name":"sym shallow warm"},"geometry":{"type":"Point","coordinates":[49.75,30.5]}},{"type":"Feature","properties":{"kind":"center","id":50,"lat":28.5,"lon":57.75,"mslp":1008.8,"hvtl":36.6,"hvtu":-67.6,"hb":-1.9,"idx":0.1,"cls":1,"psfc":939.2,"terrain":false,"radius_km":200,"name":"sym shallow warm","track":"T119"},"geometry":{"type":"Point","coordinates":[57.75,28.5]}},{"type":"Feature","properties":{"kind":"center","id":51,"lat":72.25,"lon":-61.5,"mslp":1008.9,"hvtl":-190.5,"hvtu":-186.9,"hb":86.4,"idx":-2.9,"cls":4,"psfc":1008.9,"terrain":false,"radius_km":200,"name":"asym cold"},"geometry":{"type":"Point","coordinates":[-61.5,72.25]}},{"type":"Feature","properties":{"kind":"center","id":52,"lat":-9.25,"lon":-76.0,"mslp":1009.5,"hvtl":1.9,"hvtu":28.2,"hb":-28.0,"idx":0.3,"cls":0,"psfc":900.4,"terrain":true,"radius_km":200,"name":"sym deep warm"},"geometry":{"type":"Point","coordinates":[-76.0,-9.25]}},{"type":"Feature","properties":{"kind":"center","id":53,"lat":30.25,"lon":61.0,"mslp":1010.0,"hvtl":57.2,"hvtu":-79.9,"hb":19.0,"idx":0.4,"cls":3,"psfc":954.4,"terrain":false,"radius_km":200,"name":"asym shallow warm","track":"T121"},"geometry":{"type":"Point","coordinates":[61.0,30.25]}},{"type":"Feature","properties":{"kind":"center","id":54,"lat":51.0,"lon":117.25,"mslp":1010.8,"hvtl":12.2,"hvtu":-313.6,"hb":24.3,"idx":-0.8,"cls":3,"psfc":900.0,"terrain":true,"radius_km":200,"name":"asym shallow warm"},"geometry":{"type":"Point","coordinates":[117.25,51.0]}},{"type":"Feature","properties":{"kind":"center","id":55,"lat":36.25,"lon":0.0,"mslp":1011.1,"hvtl":-22.7,"hvtu":-205.1,"hb":32.0,"idx":-1.4,"cls":4,"psfc":1011.0,"terrain":false,"radius_km":200,"name":"asym cold"},"geometry":{"type":"Point","coordinates":[0.0,36.25]}},{"type":"Feature","properties":{"kind":"center","id":56,"lat":30.5,"lon":160.5,"mslp":1011.4,"hvtl":198.1,"hvtu":-131.6,"hb":28.0,"idx":1.1,"cls":3,"psfc":1011.4,"terrain":false,"radius_km":200,"name":"asym shallow warm","track":"T44"},"geometry":{"type":"Point","coordinates":[160.5,30.5]}},{"type":"Feature","properties":{"kind":"center","id":57,"lat":-28.25,"lon":-66.5,"mslp":1012.1,"hvtl":-51.1,"hvtu":-222.6,"hb":19.3,"idx":-1.9,"cls":4,"psfc":928.6,"terrain":false,"radius_km":200,"name":"asym cold"},"geometry":{"type":"Point","coordinates":[-66.5,-28.25]}},{"type":"Feature","properties":{"kind":"center","id":58,"lat":30.0,"lon":106.25,"mslp":1012.4,"hvtl":-72.1,"hvtu":-127.2,"hb":0.0,"idx":-2.1,"cls":5,"psfc":979.0,"terrain":false,"radius_km":200,"name":"sym cold"},"geometry":{"type":"Point","coordinates":[106.25,30.0]}},{"type":"Feature","properties":{"kind":"center","id":59,"lat":36.25,"lon":-48.25,"mslp":1012.8,"hvtl":-58.8,"hvtu":-157.1,"hb":23.4,"idx":-2.0,"cls":4,"psfc":1012.8,"terrain":false,"radius_km":200,"name":"asym cold"},"geometry":{"type":"Point","coordinates":[-48.25,36.25]}},{"type":"Feature","properties":{"kind":"center","id":60,"lat":-30.25,"lon":-68.25,"mslp":1013.4,"hvtl":-52.0,"hvtu":-216.8,"hb":26.2,"idx":-1.9,"cls":4,"psfc":920.2,"terrain":true,"radius_km":200,"name":"asym cold"},"geometry":{"type":"Point","coordinates":[-68.25,-30.25]}},{"type":"Feature","properties":{"kind":"center","id":61,"lat":-30.75,"lon":-71.0,"mslp":1015.6,"hvtl":-156.8,"hvtu":-233.9,"hb":48.5,"idx":-2.8,"cls":4,"psfc":934.9,"terrain":false,"radius_km":200,"name":"asym cold","track":"T127"},"geometry":{"type":"Point","coordinates":[-71.0,-30.75]}},{"type":"Feature","properties":{"kind":"center","id":62,"lat":-21.0,"lon":-63.75,"mslp":1015.9,"hvtl":-145.5,"hvtu":-185.1,"hb":42.3,"idx":-2.7,"cls":4,"psfc":926.3,"terrain":false,"radius_km":200,"name":"asym cold","track":"T132"},"geometry":{"type":"Point","coordinates":[-63.75,-21.0]}},{"type":"Feature","properties":{"kind":"center","id":63,"lat":-37.75,"lon":33.5,"mslp":1016.0,"hvtl":-285.8,"hvtu":-255.0,"hb":88.3,"idx":-3.0,"cls":4,"psfc":1016.0,"terrain":false,"radius_km":200,"name":"asym cold"},"geometry":{"type":"Point","coordinates":[33.5,-37.75]}},{"type":"Feature","properties":{"kind":"center","id":64,"lat":68.0,"lon":-28.25,"mslp":1016.8,"hvtl":-45.9,"hvtu":-269.1,"hb":40.5,"idx":-1.8,"cls":4,"psfc":1016.8,"terrain":false,"radius_km":200,"name":"asym cold","track":"T65"},"geometry":{"type":"Point","coordinates":[-28.25,68.0]}},{"type":"Feature","properties":{"kind":"center","id":65,"lat":70.0,"lon":-27.25,"mslp":1021.1,"hvtl":-85.6,"hvtu":-186.9,"hb":31.5,"idx":-2.3,"cls":4,"psfc":934.1,"terrain":false,"radius_km":200,"name":"asym cold"},"geometry":{"type":"Point","coordinates":[-27.25,70.0]}}]}