{"type":"FeatureCollection","features":[{"type":"Feature","properties":{"kind":"blob","cls":0,"id":1},"geometry":{"type":"Polygon","coordinates":[[[140.0,17.12],[140.62,17.75],[140.88,19.25],[140.0,20.38],[138.75,20.62],[137.38,19.75],[137.12,18.25],[137.5,17.62],[138.5,17.88],[140.0,17.12]]]}},{"type":"Feature","properties":{"kind":"blob","cls":3,"id":2},"geometry":{"type":"Polygon","coordinates":[[[-155.75,-67.88],[-153.5,-67.38],[-152.38,-66.75],[-152.25,-65.12],[-151.0,-65.88],[-149.5,-66.12],[-146.0,-65.88],[-144.38,-65.0],[-144.12,-64.0],[-144.5,-63.38],[-146.0,-62.62],[-149.5,-62.38],[-152.5,-63.38],[-152.88,-64.0],[-152.75,-65.12],[-154.75,-64.12],[-160.0,-63.88],[-162.25,-64.38],[-163.62,-65.5],[-163.62,-66.0],[-162.75,-66.88],[-161.0,-67.62],[-155.75,-67.88]]]}},{"type":"Feature","properties":{"kind":"blob","cls":0,"id":3},"geometry":{"type":"Polygon","coordinates":[[[160.5,16.62],[161.38,17.75],[161.12,19.25],[159.75,20.12],[158.5,19.88],[157.62,18.75],[158.12,17.0],[160.5,16.62]]]}},{"type":"Feature","properties":{"kind":"blob","cls":3,"id":4},"geometry":{"type":"Polygon","coordinates":[[[102.25,-63.62],[104.12,-62.25],[104.12,-61.75],[101.75,-60.12],[97.0,-60.12],[95.12,-61.5],[97.25,-61.88],[97.5,-62.38],[95.62,-62.75],[97.0,-63.62],[102.25,-63.62]]]}},{"type":"Feature","properties":{"kind":"blob","cls":1,"id":5},"geometry":{"type":"Polygon","coordinates":[[[89.25,-64.62],[91.25,-64.12],[92.38,-63.25],[92.38,-62.5],[86.88,-61.75],[90.62,-61.25],[89.25,-60.88],[85.75,-61.12],[83.88,-62.25],[83.88,-63.25],[84.5,-63.88],[89.25,-64.62]]]}},{"type":"Feature","properties":{"kind":"blob","cls":4,"id":6},"geometry":{"type":"Polygon","coordinates":[[[-107.0,-69.38],[-104.5,-68.38],[-103.38,-67.0],[-103.38,-66.5],[-104.25,-65.62],[-105.5,-65.12],[-111.75,-64.62],[-114.75,-65.38],[-116.38,-66.75],[-116.38,-67.5],[-115.75,-68.38],[-113.5,-69.38],[-107.0,-69.38]]]}},{"type":"Feature","properties":{"kind":"blob","cls":5,"id":7},"geometry":{"type":"Polygon","coordinates":[[[-117.0,-62.88],[-114.88,-61.5],[-114.88,-60.25],[-116.75,-58.88],[-118.75,-58.38],[-121.0,-58.38],[-122.75,-58.88],[-124.62,-60.25],[-124.62,-61.5],[-122.75,-62.88],[-117.0,-62.88]]]}},{"type":"Feature","properties":{"kind":"blob","cls":3,"id":8},"geometry":{"type":"Polygon","coordinates":[[[163.75,-67.62],[169.0,-67.62],[170.75,-66.88],[171.12,-65.75],[169.5,-64.38],[166.25,-63.62],[161.75,-63.88],[160.5,-64.38],[159.38,-65.5],[159.38,-66.0],[160.75,-67.12],[163.75,-67.62]]]}},{"type":"Feature","properties":{"kind":"blob","cls":3,"id":9},"geometry":{"type":"Polygon","coordinates":[[[120.25,-66.62],[121.5,-66.12],[122.38,-65.0],[120.75,-63.38],[116.25,-62.88],[114.0,-63.38],[112.38,-65.0],[113.75,-66.38],[120.25,-66.62]]]}},{"type":"Feature","properties":{"kind":"blob","cls":4,"id":10},"geometry":{"type":"Polygon","coordinates":[[[-134.5,-75.12],[-133.62,-75.0],[-133.75,-74.88],[-134.5,-75.12]]]}},{"type":"Feature","properties":{"kind":"blob","cls":3,"id":11},"geometry":{"type":"Polygon","coordinates":[[[2.25,-45.38],[3.5,-44.88],[4.12,-44.25],[4.12,-42.75],[3.25,-41.88],[2.0,-41.38],[0.5,-41.38],[-0.75,-41.88],[-1.38,-42.75],[-1.38,-44.25],[-0.75,-44.88],[2.25,-45.38]]]}},{"type":"Feature","properties":{"kind":"blob","cls":1,"id":12},"geometry":{"type":"Polygon","coordinates":[[[-13.75,-59.88],[-10.25,-59.12],[-8.38,-58.0],[-8.12,-57.0],[-8.75,-56.12],[-10.75,-55.38],[-16.75,-55.62],[-18.38,-56.75],[-18.62,-58.0],[-18.0,-58.88],[-13.75,-59.88]],[[-12.75,-58.12],[-14.12,-57.5],[-14.12,-57.0],[-13.25,-56.38],[-12.25,-56.62],[-11.62,-57.5],[-12.75,-58.12]]]}},{"type":"Feature","properties":{"kind":"blob","cls":4,"id":13},"geometry":{"type":"Polygon","coordinates":[[[-42.0,56.12],[-38.25,56.12],[-36.38,57.5],[-36.38,58.75],[-38.5,60.38],[-42.25,60.38],[-44.38,59.0],[-42.5,59.12],[-42.12,58.75],[-42.5,58.38],[-44.25,58.38],[-44.5,58.88],[-44.62,57.5],[-43.75,56.62],[-42.0,56.12]]]}},{"type":"Feature","properties":{"kind":"blob","cls":1,"id":14},"geometry":{"type":"Polygon","coordinates":[[[138.0,-62.12],[139.75,-61.62],[140.88,-60.75],[141.12,-59.5],[139.75,-58.12],[138.0,-57.62],[135.75,-57.62],[134.0,-58.12],[132.62,-59.5],[132.62,-60.0],[134.0,-61.38],[138.0,-62.12]]]}},{"type":"Feature","properties":{"kind":"blob","cls":1,"id":15},"geometry":{"type":"Polygon","coordinates":[[[-171.5,61.62],[-169.5,62.12],[-168.38,63.0],[-168.12,64.0],[-169.5,65.12],[-171.5,65.62],[-173.75,65.62],[-176.25,64.88],[-174.0,64.38],[-173.88,64.0],[-177.0,63.62],[-176.88,63.0],[-175.75,62.12],[-171.5,61.62]]]}},{"type":"Feature","properties":{"kind":"blob","cls":4,"id":16},"geometry":{"type":"MultiPolygon","coordinates":[[[[50.25,-67.38],[51.62,-67.25],[51.25,-66.38],[50.25,-67.38]]],[[[62.75,-67.88],[63.38,-66.75],[61.5,-65.38],[59.25,-64.88],[54.0,-65.12],[51.38,-66.25],[55.25,-66.12],[55.88,-66.5],[56.0,-67.12],[62.75,-67.88]]]]}},{"type":"Feature","properties":{"kind":"blob","cls":1,"id":17},"geometry":{"type":"Polygon","coordinates":[[[164.5,-75.12],[166.0,-75.38],[167.75,-74.88],[168.88,-74.0],[168.88,-73.5],[168.25,-72.88],[166.75,-73.12],[165.75,-73.88],[165.0,-73.62],[164.5,-75.12]]]}},{"type":"Feature","properties":{"kind":"blob","cls":5,"id":18},"geometry":{"type":"Polygon","coordinates":[[[-130.0,-44.88],[-128.0,-45.12],[-126.25,-44.38],[-125.62,-43.5],[-125.88,-41.5],[-127.75,-39.88],[-130.0,-39.62],[-131.75,-40.62],[-132.12,-41.25],[-132.12,-42.75],[-131.38,-44.25],[-130.0,-44.88]]]}},{"type":"Feature","properties":{"kind":"blob","cls":4,"id":19},"geometry":{"type":"MultiPolygon","coordinates":[[[[-18.0,-74.38],[-18.12,-74.5],[-17.75,-74.62],[-18.0,-74.38]]],[[[-17.62,-74.25],[-13.88,-73.75],[-15.5,-73.62],[-17.62,-74.25]]],[[[-13.75,-73.38],[-13.88,-73.5],[-12.88,-73.5],[-13.75,-73.38]]]]}},{"type":"Feature","properties":{"kind":"blob","cls":4,"id":20},"geometry":{"type":"Polygon","coordinates":[[[48.0,63.62],[51.0,64.12],[52.25,64.62],[53.12,65.5],[53.12,66.0],[50.75,67.62],[48.75,68.12],[43.0,68.12],[40.25,67.62],[38.38,66.75],[38.12,65.5],[39.0,64.62],[40.75,63.88],[48.0,63.62]]]}},{"type":"Feature","properties":{"kind":"blob","cls":1,"id":21},"geometry":{"type":"Polygon","coordinates":[[[10.5,64.38],[12.25,65.12],[12.38,65.5],[8.75,68.12],[5.5,67.88],[3.38,66.75],[3.75,65.12],[5.5,64.38],[10.5,64.38]]]}},{"type":"Feature","properties":{"kind":"blob","cls":3,"id":22},"geometry":{"type":"Polygon","coordinates":[[[-12.25,-73.38],[-11.12,-73.25],[-11.25,-73.12],[-12.25,-73.38]]]}},{"type":"Feature","properties":{"kind":"blob","cls":4,"id":23},"geometry":{"type":"Polygon","coordinates":[[[21.5,-70.38],[26.5,-70.62],[26.88,-70.25],[24.25,-70.12],[21.5,-70.38]]]}},{"type":"Feature","properties":{"kind":"blob","cls":4,"id":24},"geometry":{"type":"Polygon","coordinates":[[[19.62,-70.75],[19.75,-70.88],[19.88,-70.75],[19.62,-70.75]]]}},{"type":"Feature","properties":{"kind":"blob","cls":6,"id":25},"geometry":{"type":"Polygon","coordinates":[[[22.5,80.12],[29.0,80.62],[32.5,81.62],[32.25,82.88],[50.5,83.62],[55.5,84.38],[56.38,85.0],[54.25,85.88],[47.0,86.62],[17.75,86.88],[-0.75,85.62],[-5.5,84.62],[-6.62,83.75],[-5.75,83.12],[-1.75,82.38],[5.75,82.12],[6.5,81.38],[9.5,80.62],[22.5,80.12]],[[10.0,81.88],[8.62,82.25],[9.25,82.62],[13.5,83.12],[26.38,83.0],[26.0,82.62],[21.25,82.12],[10.0,81.88]]]}},{"type":"Feature","properties":{"kind":"blob","cls":5,"id":26},"geometry":{"type":"Polygon","coordinates":[[[-82.0,-52.12],[-80.0,-51.38],[-79.12,-50.25],[-79.38,-49.0],[-81.5,-47.88],[-83.0,-47.88],[-84.75,-48.62],[-85.38,-49.25],[-85.62,-50.25],[-84.5,-51.62],[-82.0,-52.12]]]}},{"type":"Feature","properties":{"kind":"blob","cls":4,"id":27},"geometry":{"type":"Polygon","coordinates":[[[-92.75,51.62],[-90.75,52.38],[-89.88,53.5],[-90.12,54.5],[-93.25,55.88],[-95.5,55.62],[-97.0,54.88],[-97.62,54.0],[-97.38,53.0],[-95.5,51.88],[-92.75,51.62]]]}},{"type":"Feature","properties":{"kind":"blob","cls":4,"id":28},"geometry":{"type":"Polygon","coordinates":[[[-97.75,42.62],[-94.5,43.38],[-93.62,44.5],[-93.88,46.75],[-95.0,47.62],[-96.75,47.88],[-98.0,47.38],[-98.75,46.38],[-99.75,46.12],[-100.88,44.5],[-100.0,43.12],[-97.75,42.62]]]}},{"type":"Feature","properties":{"kind":"blob","cls":4,"id":29},"geometry":{"type":"Polygon","coordinates":[[[-50.0,-66.12],[-47.75,-65.62],[-45.88,-64.25],[-45.88,-63.75],[-46.75,-62.88],[-48.5,-62.12],[-51.75,-61.88],[-53.75,-62.38],[-55.62,-63.75],[-55.0,-65.12],[-53.5,-65.88],[-50.0,-66.12]]]}},{"type":"Feature","properties":{"kind":"blob","cls":4,"id":30},"geometry":{"type":"Polygon","coordinates":[[[-82.5,49.38],[-81.0,49.88],[-79.88,51.25],[-79.88,52.5],[-80.75,53.38],[-82.25,53.88],[-85.25,53.38],[-86.38,52.25],[-86.38,50.75],[-85.5,49.88],[-82.5,49.38]]]}},{"type":"Feature","properties":{"kind":"blob","cls":3,"id":31},"geometry":{"type":"Polygon","coordinates":[[[-121.75,24.88],[-120.62,26.0],[-120.38,27.5],[-121.5,28.88],[-123.5,29.12],[-125.38,27.75],[-125.62,27.0],[-125.12,25.75],[-124.25,24.88],[-121.75,24.88]]]}},{"type":"Feature","properties":{"kind":"blob","cls":4,"id":32},"geometry":{"type":"Polygon","coordinates":[[[88.75,70.38],[91.0,71.12],[91.88,72.0],[91.88,72.75],[91.25,73.62],[90.25,74.12],[86.5,74.88],[80.25,74.62],[76.88,73.25],[76.62,72.0],[77.25,71.38],[80.0,70.38],[88.75,70.38]]]}},{"type":"Feature","properties":{"kind":"blob","cls":2,"id":33},"geometry":{"type":"MultiPolygon","coordinates":[[[[-94.75,13.38],[-94.88,13.25],[-94.5,13.12],[-94.75,13.38]]],[[[-94.38,13.5],[-93.75,13.38],[-93.38,13.75],[-94.38,13.5]]],[[[-93.5,14.62],[-93.25,13.88],[-92.88,15.5],[-93.75,16.62],[-94.5,16.88],[-95.75,16.62],[-96.88,15.5],[-96.75,14.88],[-95.25,15.12],[-93.5,14.62]]]]}},{"type":"Feature","properties":{"kind":"blob","cls":1,"id":34},"geometry":{"type":"MultiPolygon","coordinates":[[[[-101.25,36.88],[-101.38,36.75],[-101.25,36.62],[-101.25,36.88]]],[[[-101.0,36.88],[-100.38,37.75],[-100.75,38.88],[-101.12,38.75],[-101.0,36.88]]]]}},{"type":"Feature","properties":{"kind":"blob","cls":1,"id":35},"geometry":{"type":"Polygon","coordinates":[[[-65.25,59.38],[-63.62,60.5],[-63.62,61.75],[-65.75,63.12],[-67.75,63.62],[-72.0,63.38],[-73.88,62.0],[-73.62,61.0],[-73.0,60.38],[-70.75,59.38],[-65.25,59.38]]]}},{"type":"Feature","properties":{"kind":"blob","cls":1,"id":36},"geometry":{"type":"Polygon","coordinates":[[[-113.25,29.62],[-112.12,30.75],[-112.12,31.75],[-112.75,32.62],[-114.5,33.12],[-115.75,32.62],[-115.88,32.0],[-115.12,31.0],[-115.25,30.38],[-116.38,31.75],[-116.38,30.75],[-115.88,30.0],[-113.25,29.62]]]}},{"type":"Feature","properties":{"kind":"blob","cls":4,"id":37},"geometry":{"type":"MultiPolygon","coordinates":[[[[-116.0,34.62],[-114.62,34.5],[-116.5,35.62],[-116.88,35.25],[-116.0,34.62]]],[[[-117.0,35.88],[-117.12,35.75],[-116.75,35.62],[-117.0,35.88]]]]}},{"type":"Feature","properties":{"kind":"blob","cls":4,"id":38},"geometry":{"type":"Polygon","coordinates":[[[-38.75,-34.12],[-37.12,-33.25],[-36.88,-31.0],[-38.0,-29.62],[-40.25,-29.12],[-41.5,-29.62],[-42.38,-30.75],[-42.12,-33.0],[-41.5,-33.62],[-38.75,-34.12]]]}},{"type":"Feature","properties":{"kind":"blob","cls":5,"id":39},"geometry":{"type":"Polygon","coordinates":[[[75.25,28.88],[76.38,30.0],[76.38,31.5],[75.75,32.12],[72.5,32.38],[71.38,31.25],[71.38,30.25],[72.0,29.38],[75.25,28.88]]]}},{"type":"Feature","properties":{"kind":"blob","cls":3,"id":40},"geometry":{"type":"Polygon","coordinates":[[[178.25,27.12],[179.88,29.0],[179.62,30.0],[178.5,31.12],[175.75,31.12],[174.62,29.75],[174.88,28.25],[176.0,27.12],[178.25,27.12]]]}},{"type":"Feature","properties":{"kind":"blob","cls":3,"id":41},"geometry":{"type":"Polygon","coordinates":[[[58.75,28.88],[59.88,29.5],[59.5,30.62],[58.38,30.0],[58.75,28.88]]]}},{"type":"Feature","properties":{"kind":"blob","cls":4,"id":42},"geometry":{"type":"Polygon","coordinates":[[[128.5,50.62],[130.0,51.12],[131.12,52.25],[131.12,53.25],[130.0,54.38],[127.75,55.12],[126.5,55.12],[125.5,54.88],[125.25,54.38],[124.25,54.38],[123.12,53.25],[123.12,52.25],[124.5,51.12],[128.5,50.62]]]}},{"type":"Feature","properties":{"kind":"blob","cls":3,"id":43},"geometry":{"type":"Polygon","coordinates":[[[-33.5,-34.62],[-31.88,-33.75],[-31.62,-32.25],[-32.25,-31.38],[-34.0,-30.88],[-35.62,-31.75],[-35.62,-33.75],[-33.5,-34.62]]]}},{"type":"Feature","properties":{"kind":"blob","cls":4,"id":44},"geometry":{"type":"Polygon","coordinates":[[[129.75,-31.62],[131.0,-31.12],[132.12,-29.75],[131.88,-28.75],[131.0,-27.88],[128.75,-27.12],[126.0,-27.12],[124.88,-28.5],[125.12,-29.5],[126.5,-30.88],[129.75,-31.62]]]}},{"type":"Feature","properties":{"kind":"blob","cls":3,"id":45},"geometry":{"type":"MultiPolygon","coordinates":[[[[106.38,27.5],[106.75,27.12],[107.62,28.0],[107.25,28.12],[106.38,27.5]]],[[[107.38,28.75],[107.75,28.12],[108.38,29.5],[108.0,29.62],[107.38,28.75]]],[[[105.75,28.38],[106.25,27.62],[106.62,28.0],[106.12,28.5],[107.0,28.62],[108.12,30.0],[107.25,30.88],[106.38,30.75],[105.75,28.38]]]]}},{"type":"Feature","properties":{"kind":"blob","cls":5,"id":46},"geometry":{"type":"Polygon","coordinates":[[[97.0,23.38],[97.38,23.75],[95.5,25.62],[94.25,24.62],[93.75,24.88],[93.38,25.25],[94.38,26.25],[93.75,26.62],[90.75,26.88],[90.38,26.5],[91.0,25.38],[92.38,25.5],[91.25,25.38],[91.5,24.88],[93.25,24.88],[93.5,24.38],[94.12,24.25],[94.25,23.62],[97.0,23.38]],[[92.75,25.12],[92.62,25.25],[92.75,25.38],[92.75,25.12]]]}},{"type":"Feature","properties":{"kind":"blob","cls":3,"id":47},"geometry":{"type":"MultiPolygon","coordinates":[[[[61.25,33.38],[61.12,33.25],[61.25,33.12],[61.25,33.38]]],[[[61.5,33.62],[61.38,33.5],[61.5,33.38],[61.5,33.62]]]]}},{"type":"Feature","properties":{"kind":"blob","cls":4,"id":48},"geometry":{"type":"Polygon","coordinates":[[[-66.38,-28.75],[-66.25,-27.62],[-67.12,-28.25],[-66.38,-28.75]]]}},{"type":"Feature","properties":{"kind":"blob","cls":4,"id":49},"geometry":{"type":"Polygon","coordinates":[[[-64.38,-22.5],[-64.25,-22.88],[-63.38,-22.0],[-63.38,-21.0],[-64.0,-20.62],[-64.12,-21.25],[-63.62,-21.5],[-64.38,-22.5]]]}},{"type":"Feature","properties":{"kind":"blob","cls":4,"id":50},"geometry":{"type":"MultiPolygon","coordinates":[[[[-65.75,-28.38],[-65.88,-28.5],[-65.75,-28.62],[-65.75,-28.38]]],[[[-65.5,-28.38],[-64.62,-27.0],[-65.25,-26.12],[-65.88,-27.25],[-65.5,-28.38]]]]}},{"type":"Feature","properties":{"kind":"blob","cls":4,"id":51},"geometry":{"type":"Polygon","coordinates":[[[47.75,-42.38],[50.0,-42.38],[51.12,-41.25],[51.12,-40.25],[49.5,-38.62],[46.75,-37.88],[44.5,-38.12],[43.75,-37.38],[42.0,-36.62],[40.0,-36.88],[38.88,-38.25],[39.12,-39.25],[40.25,-40.38],[42.0,-40.88],[43.75,-40.62],[44.5,-41.38],[47.75,-42.38]]]}},{"type":"Feature","properties":{"kind":"center","id":1,"lat":18.75,"lon":139.0,"mslp":938.8,"hvtl":110.6,"hvtu":248.9,"hb":1.8,"idx":2.6,"cls":0,"psfc":938.8,"terrain":false,"radius_km":200,"name":"sym deep warm","track":"T06"},"geometry":{"type":"Point","coordinates":[139.0,18.75]}},{"type":"Feature","properties":{"kind":"center","id":2,"lat":-66.0,"lon":-158.0,"mslp":946.0,"hvtl":12.1,"hvtu":-191.2,"hb":61.9,"idx":-0.7,"cls":3,"psfc":946.0,"terrain":false,"radius_km":200,"name":"asym shallow warm","track":"T09"},"geometry":{"type":"Point","coordinates":[-158.0,-66.0]}},{"type":"Feature","properties":{"kind":"center","id":3,"lat":18.25,"lon":159.5,"mslp":947.6,"hvtl":79.8,"hvtu":311.9,"hb":3.7,"idx":2.3,"cls":0,"psfc":947.6,"terrain":false,"radius_km":200,"name":"sym deep warm","track":"T12"},"geometry":{"type":"Point","coordinates":[159.5,18.25]}},{"type":"Feature","properties":{"kind":"center","id":4,"lat":-62.0,"lon":99.5,"mslp":950.2,"hvtl":138.9,"hvtu":-71.7,"hb":11.6,"idx":1.2,"cls":3,"psfc":950.2,"terrain":false,"radius_km":200,"name":"asym shallow warm"},"geometry":{"type":"Point","coordinates":[99.5,-62.0]}},{"type":"Feature","properties":{"kind":"center","id":5,"lat":-62.75,"lon":88.25,"mslp":951.4,"hvtl":178.6,"hvtu":-66.3,"hb":-28.2,"idx":1.3,"cls":1,"psfc":951.4,"terrain":false,"radius_km":200,"name":"sym shallow warm"},"geometry":{"type":"Point","coordinates":[88.25,-62.75]}},{"type":"Feature","properties":{"kind":"center","id":6,"lat":-67.25,"lon":-109.75,"mslp":958.3,"hvtl":-135.8,"hvtu":-108.7,"hb":18.1,"idx":-2.5,"cls":4,"psfc":958.3,"terrain":false,"radius_km":200,"name":"asym cold"},"geometry":{"type":"Point","coordinates":[-109.75,-67.25]}},{"type":"Feature","properties":{"kind":"center","id":7,"lat":-60.75,"lon":-119.25,"mslp":959.8,"hvtl":-33.0,"hvtu":-51.3,"hb":3.0,"idx":-1.1,"cls":5,"psfc":959.8,"terrain":false,"radius_km":200,"name":"sym cold","track":"T11"},"geometry":{"type":"Point","coordinates":[-119.25,-60.75]}},{"type":"Feature","properties":{"kind":"center","id":8,"lat":-65.75,"lon":165.0,"mslp":962.7,"hvtl":2.8,"hvtu":-190.4,"hb":58.9,"idx":-0.9,"cls":3,"psfc":962.6,"terrain":false,"radius_km":200,"name":"asym shallow warm","track":"T15"},"geometry":{"type":"Point","coordinates":[165.0,-65.75]}},{"type":"Feature","properties":{"kind":"center","id":9,"lat":-65.0,"lon":117.25,"mslp":963.7,"hvtl":73.0,"hvtu":-205.5,"hb":37.4,"idx":0.3,"cls":3,"psfc":963.7,"terrain":false,"radius_km":200,"name":"asym shallow warm","track":"T26"},"geometry":{"type":"Point","coordinates":[117.25,-65.0]}},{"type":"Feature","properties":{"kind":"center","id":10,"lat":-75.0,"lon":-133.75,"mslp":964.0,"hvtl":-252.6,"hvtu":-45.2,"hb":45.1,"idx":-2.4,"cls":4,"psfc":907.0,"terrain":false,"radius_km":200,"name":"asym cold","track":"T29"},"geometry":{"type":"Point","coordinates":[-133.75,-75.0]}},{"type":"Feature","properties":{"kind":"center","id":11,"lat":-43.25,"lon":1.25,"mslp":964.0,"hvtl":131.6,"hvtu":-212.3,"hb":38.8,"idx":0.8,"cls":3,"psfc":964.0,"terrain":false,"radius_km":200,"name":"asym shallow warm","track":"T33"},"geometry":{"type":"Point","coordinates":[1.25,-43.25]}},{"type":"Feature","properties":{"kind":"center","id":12,"lat":-57.75,"lon":-14.5,"mslp":967.6,"hvtl":90.1,"hvtu":-40.6,"hb":-11.1,"idx":1.0,"cls":1,"psfc":967.6,"terrain":false,"radius_km":200,"name":"sym shallow warm"},"geometry":{"type":"Point","coordinates":[-14.5,-57.75]}},{"type":"Feature","properties":{"kind":"center","id":13,"lat":58.0,"lon":-40.5,"mslp":972.0,"hvtl":-24.6,"hvtu":-83.9,"hb":18.6,"idx":-1.2,"cls":4,"psfc":972.0,"terrain":false,"radius_km":200,"name":"asym cold","track":"T49"},"geometry":{"type":"Point","coordinates":[-40.5,58.0]}},{"type":"Feature","properties":{"kind":"center","id":14,"lat":-59.75,"lon":136.75,"mslp":974.0,"hvtl":62.5,"hvtu":-172.5,"hb":-2.7,"idx":0.2,"cls":1,"psfc":974.1,"terrain":false,"radius_km":200,"name":"sym shallow warm","track":"T22"},"geometry":{"type":"Point","coordinates":[136.75,-59.75]}},{"type":"Feature","properties":{"kind":"center","id":15,"lat":63.5,"lon":-172.5,"mslp":974.7,"hvtl":40.7,"hvtu":-114.8,"hb":0.0,"idx":-0.0,"cls":1,"psfc":974.7,"terrain":false,"radius_km":200,"name":"sym shallow warm","track":"T02"},"geometry":{"type":"Point","coordinates":[-172.5,63.5]}},{"type":"Feature","properties":{"kind":"center","id":16,"lat":-67.25,"lon":60.25,"mslp":980.5,"hvtl":-57.1,"hvtu":-72.5,"hb":38.6,"idx":-1.7,"cls":4,"psfc":979.0,"terrain":false,"radius_km":200,"name":"asym cold","track":"T52"},"geometry":{"type":"Point","coordinates":[60.25,-67.25]}},{"type":"Feature","properties":{"kind":"center","id":17,"lat":-75.25,"lon":166.0,"mslp":984.9,"hvtl":52.0,"hvtu":-105.3,"hb":-7.7,"idx":0.2,"cls":1,"psfc":984.9,"terrain":false,"radius_km":200,"name":"sym shallow warm","track":"T46"},"geometry":{"type":"Point","coordinates":[166.0,-75.25]}},{"type":"Feature","properties":{"kind":"center","id":18,"lat":-42.0,"lon":-129.5,"mslp":986.8,"hvtl":-21.8,"hvtu":-233.2,"hb":2.3,"idx":-1.4,"cls":5,"psfc":986.8,"terrain":false,"radius_km":200,"name":"sym cold"},"geometry":{"type":"Point","coordinates":[-129.5,-42.0]}},{"type":"Feature","properties":{"kind":"center","id":19,"lat":-73.75,"lon":-14.5,"mslp":990.4,"hvtl":-33.0,"hvtu":-127.6,"hb":10.0,"idx":-1.5,"cls":4,"psfc":941.7,"terrain":false,"radius_km":200,"name":"asym cold"},"geometry":{"type":"Point","coordinates":[-14.5,-73.75]}},{"type":"Feature","properties":{"kind":"center","id":20,"lat":65.75,"lon":45.25,"mslp":990.9,"hvtl":-18.0,"hvtu":-22.2,"hb":30.5,"idx":-0.6,"cls":4,"psfc":986.0,"terrain":false,"radius_km":200,"name":"asym cold","track":"T81"},"geometry":{"type":"Point","coordinates":[45.25,65.75]}},{"type":"Feature","properties":{"kind":"center","id":21,"lat":66.0,"lon":8.0,"mslp":991.2,"hvtl":136.7,"hvtu":-62.5,"hb":-4.0,"idx":1.2,"cls":1,"psfc":991.2,"terrain":false,"radius_km":200,"name":"sym shallow warm","track":"T57"},"geometry":{"type":"Point","coordinates":[8.0,66.0]}},{"type":"Feature","properties":{"kind":"center","id":22,"lat":-73.25,"lon":-12.25,"mslp":991.2,"hvtl":18.7,"hvtu":-115.2,"hb":12.1,"idx":-0.4,"cls":3,"psfc":925.8,"terrain":false,"radius_km":200,"name":"asym shallow warm"},"geometry":{"type":"Point","coordinates":[-12.25,-73.25]}},{"type":"Feature","properties":{"kind":"center","id":23,"lat":-70.5,"lon":21.5,"mslp":992.6,"hvtl":-86.9,"hvtu":-190.6,"hb":50.7,"idx":-2.4,"cls":4,"psfc":977.6,"terrain":false,"radius_km":200,"name":"asym cold"},"geometry":{"type":"Point","coordinates":[21.5,-70.5]}},{"type":"Feature","properties":{"kind":"center","id":24,"lat":-70.75,"lon":19.75,"mslp":992.9,"hvtl":-66.8,"hvtu":-192.4,"hb":49.4,"idx":-2.1,"cls":4,"psfc":982.6,"terrain":false,"radius_km":200,"name":"asym cold"},"geometry":{"type":"Point","coordinates":[19.75,-70.75]}},{"type":"Feature","properties":{"kind":"center","id":25,"lat":84.75,"lon":25.5,"mslp":995.2,"hvtl":-23.8,"hvtu":14.0,"hb":8.0,"idx":-0.3,"cls":6,"psfc":995.2,"terrain":false,"radius_km":200,"name":"shallow cold","track":"T50"},"geometry":{"type":"Point","coordinates":[25.5,84.75]}},{"type":"Feature","properties":{"kind":"center","id":26,"lat":-50.0,"lon":-82.25,"mslp":995.7,"hvtl":-4.8,"hvtu":-6.4,"hb":-2.1,"idx":-0.2,"cls":5,"psfc":995.7,"terrain":false,"radius_km":200,"name":"sym cold","track":"T74"},"geometry":{"type":"Point","coordinates":[-82.25,-50.0]}},{"type":"Feature","properties":{"kind":"center","id":27,"lat":53.75,"lon":-94.0,"mslp":996.0,"hvtl":-271.8,"hvtu":-276.6,"hb":109.7,"idx":-3.0,"cls":4,"psfc":966.9,"terrain":false,"radius_km":200,"name":"asym cold","track":"T72"},"geometry":{"type":"Point","coordinates":[-94.0,53.75]}},{"type":"Feature","properties":{"kind":"center","id":28,"lat":45.0,"lon":-96.5,"mslp":997.0,"hvtl":-173.4,"hvtu":-214.3,"hb":48.4,"idx":-2.9,"cls":4,"psfc":953.9,"terrain":false,"radius_km":200,"name":"asym cold"},"geometry":{"type":"Point","coordinates":[-96.5,45.0]}},{"type":"Feature","properties":{"kind":"center","id":29,"lat":-64.5,"lon":-51.0,"mslp":997.7,"hvtl":-170.7,"hvtu":-210.6,"hb":51.9,"idx":-2.8,"cls":4,"psfc":997.7,"terrain":false,"radius_km":200,"name":"asym cold"},"geometry":{"type":"Point","coordinates":[-51.0,-64.5]}},{"type":"Feature","properties":{"kind":"center","id":30,"lat":52.25,"lon":-85.5,"mslp":997.8,"hvtl":-426.0,"hvtu":-169.4,"hb":114.2,"idx":-2.9,"cls":4,"psfc":976.2,"terrain":false,"radius_km":200,"name":"asym cold"},"geometry":{"type":"Point","coordinates":[-85.5,52.25]}},{"type":"Feature","properties":{"kind":"center","id":31,"lat":27.0,"lon":-123.0,"mslp":1000.8,"hvtl":94.3,"hvtu":-81.9,"hb":19.6,"idx":0.8,"cls":3,"psfc":1000.8,"terrain":false,"radius_km":200,"name":"asym shallow warm","track":"T42"},"geometry":{"type":"Point","coordinates":[-123.0,27.0]}},{"type":"Feature","properties":{"kind":"center","id":32,"lat":72.5,"lon":84.5,"mslp":1001.4,"hvtl":-40.3,"hvtu":-179.5,"hb":33.5,"idx":-1.7,"cls":4,"psfc":993.8,"terrain":false,"radius_km":200,"name":"asym cold"},"geometry":{"type":"Point","coordinates":[84.5,72.5]}},{"type":"Feature","properties":{"kind":"center","id":33,"lat":15.0,"lon":-94.75,"mslp":1002.5,"hvtl":124.6,"hvtu":23.8,"hb":10.8,"idx":1.9,"cls":2,"psfc":1002.5,"terrain":false,"radius_km":200,"name":"asym deep warm","track":"T108"},"geometry":{"type":"Point","coordinates":[-94.75,15.0]}},{"type":"Feature","properties":{"kind":"center","id":34,"lat":38.75,"lon":-101.0,"mslp":1002.5,"hvtl":51.3,"hvtu":-248.1,"hb":-17.0,"idx":-0.0,"cls":1,"psfc":901.5,"terrain":true,"radius_km":200,"name":"sym shallow warm"},"geometry":{"type":"Point","coordinates":[-101.0,38.75]}},{"type":"Feature","properties":{"kind":"center","id":35,"lat":61.25,"lon":-68.5,"mslp":1002.6,"hvtl":10.9,"hvtu":-406.8,"hb":7.5,"idx":-0.8,"cls":1,"psfc":1002.6,"terrain":false,"radius_km":200,"name":"sym shallow warm","track":"T109"},"geometry":{"type":"Point","coordinates":[-68.5,61.25]}},{"type":"Feature","properties":{"kind":"center","id":36,"lat":31.25,"lon":-114.25,"mslp":1002.8,"hvtl":27.3,"hvtu":-183.9,"hb":-2.2,"idx":-0.4,"cls":1,"psfc":1002.8,"terrain":false,"radius_km":200,"name":"sym shallow warm"},"geometry":{"type":"Point","coordinates":[-114.25,31.25]}},{"type":"Feature","properties":{"kind":"center","id":37,"lat":34.5,"lon":-115.5,"mslp":1003.0,"hvtl":-14.3,"hvtu":-330.1,"hb":23.9,"idx":-1.3,"cls":4,"psfc":969.9,"terrain":false,"radius_km":200,"name":"asym cold"},"geometry":{"type":"Point","coordinates":[-115.5,34.5]}},{"type":"Feature","properties":{"kind":"center","id":38,"lat":-31.5,"lon":-39.5,"mslp":1004.5,"hvtl":-46.4,"hvtu":-211.5,"hb":61.5,"idx":-1.8,"cls":4,"psfc":1004.5,"terrain":false,"radius_km":200,"name":"asym cold"},"geometry":{"type":"Point","coordinates":[-39.5,-31.5]}},{"type":"Feature","properties":{"kind":"center","id":39,"lat":31.0,"lon":74.25,"mslp":1004.6,"hvtl":-42.2,"hvtu":-73.8,"hb":5.2,"idx":-1.4,"cls":5,"psfc":982.7,"terrain":false,"radius_km":200,"name":"sym cold","track":"T106"},"geometry":{"type":"Point","coordinates":[74.25,31.0]}},{"type":"Feature","properties":{"kind":"center","id":40,"lat":29.25,"lon":177.0,"mslp":1005.6,"hvtl":76.3,"hvtu":-110.5,"hb":11.7,"idx":0.5,"cls":3,"psfc":1005.6,"terrain":false,"radius_km":200,"name":"asym shallow warm","track":"T70"},"geometry":{"type":"Point","coordinates":[177.0,29.25]}},{"type":"Feature","properties":{"kind":"center","id":41,"lat":29.75,"lon":59.0,"mslp":1005.6,"hvtl":120.8,"hvtu":-54.1,"hb":10.6,"idx":1.2,"cls":3,"psfc":970.5,"terrain":false,"radius_km":200,"name":"asym shallow warm","track":"T114"},"geometry":{"type":"Point","coordinates":[59.0,29.75]}},{"type":"Feature","properties":{"kind":"center","id":42,"lat":53.0,"lon":126.75,"mslp":1007.1,"hvtl":-94.5,"hvtu":-281.4,"hb":43.2,"idx":-2.5,"cls":4,"psfc":970.8,"terrain":false,"radius_km":200,"name":"asym cold","track":"T101"},"geometry":{"type":"Point","coordinates":[126.75,53.0]}},{"type":"Feature","properties":{"kind":"center","id":43,"lat":-32.75,"lon":-33.75,"mslp":1007.2,"hvtl":18.5,"hvtu":-167.0,"hb":60.4,"idx":-0.6,"cls":3,"psfc":1007.2,"terrain":false,"radius_km":200,"name":"asym shallow warm"},"geometry":{"type":"Point","coordinates":[-33.75,-32.75]}},{"type":"Feature","properties":{"kind":"center","id":44,"lat":-29.5,"lon":129.0,"mslp":1007.7,"hvtl":-197.5,"hvtu":-246.4,"hb":76.8,"idx":-2.9,"cls":4,"psfc":984.3,"terrain":false,"radius_km":200,"name":"asym cold"},"geometry":{"type":"Point","coordinates":[129.0,-29.5]}},{"type":"Feature","properties":{"kind":"center","id":45,"lat":29.0,"lon":106.0,"mslp":1008.2,"hvtl":24.4,"hvtu":-131.8,"hb":11.5,"idx":-0.4,"cls":3,"psfc":969.8,"terrain":false,"radius_km":200,"name":"asym shallow warm"},"geometry":{"type":"Point","coordinates":[106.0,29.0]}},{"type":"Feature","properties":{"kind":"center","id":46,"lat":24.25,"lon":96.5,"mslp":1008.3,"hvtl":-57.2,"hvtu":-117.4,"hb":8.9,"idx":-1.9,"cls":5,"psfc":992.6,"terrain":false,"radius_km":200,"name":"sym cold"},"geometry":{"type":"Point","coordinates":[96.5,24.25]}},{"type":"Feature","properties":{"kind":"center","id":47,"lat":33.25,"lon":61.25,"mslp":1011.9,"hvtl":270.3,"hvtu":-137.6,"hb":89.2,"idx":1.1,"cls":3,"psfc":914.4,"terrain":true,"radius_km":200,"name":"asym shallow warm"},"geometry":{"type":"Point","coordinates":[61.25,33.25]}},{"type":"Feature","properties":{"kind":"center","id":48,"lat":-28.25,"lon":-66.5,"mslp":1014.2,"hvtl":-124.6,"hvtu":-272.9,"hb":23.6,"idx":-2.7,"cls":4,"psfc":930.1,"terrain":false,"radius_km":200,"name":"asym cold"},"geometry":{"type":"Point","coordinates":[-66.5,-28.25]}},{"type":"Feature","properties":{"kind":"center","id":49,"lat":-21.0,"lon":-63.75,"mslp":1015.5,"hvtl":-161.6,"hvtu":-150.0,"hb":41.0,"idx":-2.8,"cls":4,"psfc":926.0,"terrain":false,"radius_km":200,"name":"asym cold","track":"T132"},"geometry":{"type":"Point","coordinates":[-63.75,-21.0]}},{"type":"Feature","properties":{"kind":"center","id":50,"lat":-28.5,"lon":-65.75,"mslp":1015.9,"hvtl":-93.8,"hvtu":-272.3,"hb":19.8,"idx":-2.5,"cls":4,"psfc":936.3,"terrain":false,"radius_km":200,"name":"asym cold","track":"T127"},"geometry":{"type":"Point","coordinates":[-65.75,-28.5]}},{"type":"Feature","properties":{"kind":"center","id":51,"lat":-38.5,"lon":41.25,"mslp":1016.7,"hvtl":-216.0,"hvtu":-256.4,"hb":79.5,"idx":-2.9,"cls":4,"psfc":1016.7,"terrain":false,"radius_km":200,"name":"asym cold"},"geometry":{"type":"Point","coordinates":[41.25,-38.5]}}]}