{"type":"FeatureCollection","features":[{"type":"Feature","properties":{"kind":"blob","cls":3,"id":1},"geometry":{"type":"Polygon","coordinates":[[[141.25,-64.38],[144.0,-63.38],[144.62,-62.5],[144.12,-60.5],[142.5,-59.38],[141.25,-59.12],[139.0,-59.12],[136.75,-59.88],[135.62,-61.0],[135.38,-62.5],[137.0,-62.38],[137.38,-63.0],[136.5,-63.62],[141.25,-64.38]]]}},{"type":"Feature","properties":{"kind":"blob","cls":1,"id":2},"geometry":{"type":"Polygon","coordinates":[[[5.5,-61.62],[7.25,-61.12],[8.38,-60.0],[8.38,-59.25],[7.25,-58.12],[5.5,-57.62],[3.5,-57.62],[1.75,-58.12],[0.62,-59.25],[0.62,-60.0],[1.75,-61.12],[5.5,-61.62]]]}},{"type":"Feature","properties":{"kind":"blob","cls":0,"id":3},"geometry":{"type":"Polygon","coordinates":[[[145.25,24.88],[146.38,26.5],[146.12,27.5],[144.5,28.62],[143.0,28.38],[141.88,26.75],[143.25,24.88],[145.25,24.88]],[[142.38,26.5],[142.75,27.12],[143.38,26.75],[143.38,26.25],[142.38,26.5]]]}},{"type":"Feature","properties":{"kind":"blob","cls":3,"id":4},"geometry":{"type":"Polygon","coordinates":[[[16.25,-65.12],[18.62,-63.75],[18.62,-62.75],[17.5,-61.88],[14.25,-61.12],[11.5,-61.12],[12.12,-61.75],[12.0,-62.38],[10.75,-62.38],[9.25,-61.62],[8.75,-61.88],[8.12,-62.5],[8.12,-64.0],[9.25,-64.88],[16.25,-65.12]]]}},{"type":"Feature","properties":{"kind":"blob","cls":3,"id":5},"geometry":{"type":"Polygon","coordinates":[[[94.75,-55.38],[96.75,-54.62],[97.62,-53.25],[97.38,-52.75],[96.5,-51.88],[95.0,-51.38],[92.0,-51.88],[90.88,-53.5],[91.5,-54.62],[94.75,-55.38]]]}},{"type":"Feature","properties":{"kind":"blob","cls":3,"id":6},"geometry":{"type":"Polygon","coordinates":[[[-145.75,-77.12],[-145.12,-76.75],[-145.25,-75.88],[-140.75,-75.88],[-140.12,-74.75],[-141.25,-73.88],[-143.25,-73.38],[-150.25,-73.12],[-154.5,-73.88],[-156.12,-75.25],[-155.75,-75.88],[-154.0,-76.62],[-145.75,-77.12]]]}},{"type":"Feature","properties":{"kind":"blob","cls":0,"id":7},"geometry":{"type":"Polygon","coordinates":[[[-130.75,-60.38],[-129.12,-59.25],[-129.12,-58.25],[-129.75,-57.62],[-131.75,-56.88],[-133.25,-56.88],[-135.25,-57.62],[-135.88,-58.25],[-135.88,-59.25],[-134.25,-60.38],[-130.75,-60.38]]]}},{"type":"Feature","properties":{"kind":"blob","cls":4,"id":8},"geometry":{"type":"Polygon","coordinates":[[[-161.25,-69.88],[-156.0,-69.88],[-154.5,-69.38],[-153.38,-68.0],[-154.25,-66.88],[-157.5,-65.88],[-161.5,-66.12],[-164.62,-67.5],[-164.88,-68.5],[-164.0,-69.38],[-161.25,-69.88]]]}},{"type":"Feature","properties":{"kind":"blob","cls":3,"id":9},"geometry":{"type":"Polygon","coordinates":[[[-123.0,-65.12],[-121.75,-64.62],[-120.88,-63.5],[-122.0,-62.12],[-124.5,-61.38],[-126.5,-61.38],[-129.0,-62.12],[-129.88,-63.5],[-129.62,-64.0],[-128.5,-64.88],[-123.0,-65.12]]]}},{"type":"Feature","properties":{"kind":"blob","cls":4,"id":10},"geometry":{"type":"Polygon","coordinates":[[[-153.75,-65.88],[-150.75,-65.12],[-149.25,-64.38],[-148.12,-63.25],[-148.12,-62.25],[-149.25,-61.12],[-151.25,-60.62],[-155.25,-61.12],[-157.75,-62.38],[-159.12,-63.75],[-159.12,-64.25],[-158.25,-65.12],[-157.25,-65.62],[-153.75,-65.88]]]}},{"type":"Feature","properties":{"kind":"blob","cls":4,"id":11},"geometry":{"type":"Polygon","coordinates":[[[-103.5,-71.62],[-99.25,-70.62],[-97.88,-69.5],[-97.88,-68.25],[-99.0,-67.38],[-100.5,-66.88],[-105.25,-66.62],[-108.25,-67.38],[-110.12,-69.25],[-110.12,-69.75],[-109.0,-70.88],[-103.5,-71.62]]]}},{"type":"Feature","properties":{"kind":"blob","cls":4,"id":12},"geometry":{"type":"Polygon","coordinates":[[[-24.25,-75.88],[-21.75,-76.12],[-19.0,-74.62],[-14.62,-73.75],[-15.5,-73.38],[-12.0,-73.38],[-10.75,-72.88],[-10.38,-72.25],[-13.75,-71.62],[-20.0,-72.12],[-22.25,-73.62],[-24.5,-74.12],[-25.12,-75.25],[-24.25,-75.88]]]}},{"type":"Feature","properties":{"kind":"blob","cls":0,"id":13},"geometry":{"type":"Polygon","coordinates":[[[-115.25,18.62],[-114.38,19.75],[-114.62,21.25],[-116.0,22.12],[-117.25,21.88],[-118.12,20.75],[-117.88,19.25],[-117.5,18.88],[-117.0,19.88],[-116.25,19.88],[-115.25,18.62]]]}},{"type":"Feature","properties":{"kind":"blob","cls":4,"id":14},"geometry":{"type":"Polygon","coordinates":[[[89.5,-66.62],[92.0,-66.88],[101.75,-66.12],[105.75,-66.38],[106.12,-65.25],[105.25,-63.88],[103.75,-63.12],[97.75,-63.12],[96.0,-62.62],[92.5,-62.62],[89.5,-63.62],[88.38,-64.75],[88.38,-65.75],[89.5,-66.62]]]}},{"type":"Feature","properties":{"kind":"blob","cls":3,"id":15},"geometry":{"type":"Polygon","coordinates":[[[17.75,69.38],[21.5,70.12],[23.12,71.25],[23.12,72.25],[22.0,73.12],[19.5,73.88],[13.5,74.12],[10.0,73.38],[9.0,72.88],[8.12,71.75],[8.75,70.62],[9.75,70.12],[17.75,69.38]]]}},{"type":"Feature","properties":{"kind":"blob","cls":0,"id":16},"geometry":{"type":"Polygon","coordinates":[[[176.25,24.62],[177.38,26.25],[176.25,27.88],[175.5,28.12],[174.25,27.88],[173.12,26.25],[174.25,24.62],[176.25,24.62]]]}},{"type":"Feature","properties":{"kind":"blob","cls":1,"id":17},"geometry":{"type":"Polygon","coordinates":[[[4.75,63.88],[8.5,64.62],[10.88,66.5],[10.88,67.0],[10.0,67.88],[8.75,68.38],[3.25,68.62],[1.0,68.12],[-1.38,66.75],[-1.62,65.75],[-1.25,65.12],[1.0,64.12],[4.75,63.88]]]}},{"type":"Feature","properties":{"kind":"blob","cls":3,"id":18},"geometry":{"type":"Polygon","coordinates":[[[52.0,80.12],[57.75,80.88],[59.5,81.38],[60.62,82.25],[60.0,82.88],[58.5,83.38],[46.0,82.88],[34.5,81.62],[27.62,80.25],[52.0,80.12]]]}},{"type":"Feature","properties":{"kind":"blob","cls":1,"id":19},"geometry":{"type":"Polygon","coordinates":[[[20.75,81.12],[42.12,84.25],[32.25,84.38],[21.75,83.62],[18.5,82.88],[17.62,82.25],[17.75,81.62],[20.75,81.12]]]}},{"type":"Feature","properties":{"kind":"blob","cls":4,"id":20},"geometry":{"type":"Polygon","coordinates":[[[-91.0,-62.88],[-89.12,-61.5],[-89.12,-60.5],[-90.0,-59.62],[-92.25,-58.88],[-94.25,-58.88],[-96.5,-59.62],[-97.38,-60.5],[-97.38,-61.5],[-95.25,-62.88],[-91.0,-62.88]]]}},{"type":"Feature","properties":{"kind":"blob","cls":4,"id":21},"geometry":{"type":"Polygon","coordinates":[[[-154.0,54.38],[-152.75,55.12],[-151.38,56.75],[-152.5,58.12],[-153.75,58.62],[-158.25,58.62],[-160.38,56.5],[-159.0,54.62],[-154.0,54.38]],[[-155.0,58.12],[-155.12,58.25],[-155.0,58.38],[-155.0,58.12]]]}},{"type":"Feature","properties":{"kind":"blob","cls":4,"id":22},"geometry":{"type":"Polygon","coordinates":[[[-102.0,-54.62],[-100.5,-54.12],[-99.62,-53.25],[-99.62,-51.75],[-101.5,-50.12],[-103.5,-49.88],[-105.0,-50.38],[-106.12,-51.5],[-106.12,-53.0],[-105.0,-54.12],[-102.0,-54.62]]]}},{"type":"Feature","properties":{"kind":"blob","cls":4,"id":23},"geometry":{"type":"Polygon","coordinates":[[[-36.0,-45.88],[-34.12,-44.25],[-33.88,-42.25],[-34.5,-41.38],[-35.75,-40.88],[-38.0,-40.88],[-39.25,-41.38],[-40.12,-42.25],[-40.38,-44.25],[-39.0,-45.62],[-36.0,-45.88]]]}},{"type":"Feature","properties":{"kind":"blob","cls":4,"id":24},"geometry":{"type":"Polygon","coordinates":[[[-122.25,65.12],[-118.5,65.12],[-117.25,65.62],[-116.38,66.5],[-116.38,67.0],[-117.25,67.88],[-118.5,68.38],[-122.0,68.62],[-124.25,68.12],[-125.62,67.0],[-125.62,66.5],[-124.75,65.62],[-122.25,65.12]]]}},{"type":"Feature","properties":{"kind":"blob","cls":4,"id":25},"geometry":{"type":"Polygon","coordinates":[[[69.75,59.12],[71.75,59.62],[74.25,60.88],[75.12,61.75],[75.12,62.25],[74.25,63.12],[72.0,63.88],[69.75,63.88],[66.5,63.12],[64.38,61.75],[64.38,60.5],[66.0,59.38],[69.75,59.12]]]}},{"type":"Feature","properties":{"kind":"blob","cls":5,"id":26},"geometry":{"type":"Polygon","coordinates":[[[66.75,52.62],[70.75,52.62],[73.12,54.5],[73.12,55.5],[71.25,56.88],[69.5,56.62],[69.25,57.12],[67.75,57.12],[66.0,56.62],[64.38,55.5],[64.12,54.5],[65.0,53.12],[66.75,52.62]]]}},{"type":"Feature","properties":{"kind":"blob","cls":4,"id":27},"geometry":{"type":"Polygon","coordinates":[[[-60.25,-21.62],[-58.75,-21.62],[-57.88,-20.5],[-58.12,-19.0],[-59.5,-18.12],[-60.75,-18.38],[-61.62,-19.5],[-61.38,-21.0],[-60.25,-21.62]]]}},{"type":"Feature","properties":{"kind":"blob","cls":4,"id":28},"geometry":{"type":"Polygon","coordinates":[[[-67.5,49.38],[-66.0,49.88],[-65.12,50.75],[-65.12,52.25],[-66.0,53.12],[-67.5,53.62],[-70.0,53.12],[-70.88,52.25],[-70.88,50.75],[-70.0,49.88],[-67.5,49.38]]]}},{"type":"Feature","properties":{"kind":"blob","cls":4,"id":29},"geometry":{"type":"MultiPolygon","coordinates":[[[[137.5,43.88],[139.25,43.62],[140.5,44.12],[141.88,45.75],[141.62,46.75],[140.75,47.62],[139.5,48.12],[137.75,47.88],[138.12,47.5],[137.62,47.25],[137.75,46.88],[136.5,46.88],[135.88,46.0],[136.12,44.75],[137.5,43.88]],[[136.88,46.0],[136.5,45.88],[136.38,46.25],[136.75,46.38],[136.88,46.0]]],[[[137.5,47.62],[137.38,47.5],[137.5,47.38],[137.5,47.62]]]]}},{"type":"Feature","properties":{"kind":"blob","cls":4,"id":30},"geometry":{"type":"Polygon","coordinates":[[[-31.25,63.38],[-30.0,63.88],[-29.12,65.0],[-30.75,66.62],[-34.0,67.12],[-40.38,64.25],[-38.75,63.38],[-31.25,63.38]]]}},{"type":"Feature","properties":{"kind":"blob","cls":1,"id":31},"geometry":{"type":"Polygon","coordinates":[[[-57.0,-54.38],[-54.88,-53.5],[-57.5,-52.88],[-58.12,-52.25],[-57.75,-51.62],[-54.25,-51.62],[-54.12,-51.25],[-55.0,-50.38],[-57.5,-49.38],[-59.25,-49.38],[-60.75,-49.88],[-61.62,-50.75],[-61.62,-52.0],[-60.0,-53.88],[-57.0,-54.38]]]}},{"type":"Feature","properties":{"kind":"blob","cls":4,"id":32},"geometry":{"type":"Polygon","coordinates":[[[-83.12,-41.25],[-84.12,-39.5],[-84.0,-38.88],[-83.0,-38.88],[-81.0,-41.12],[-80.0,-40.88],[-77.62,-38.5],[-77.62,-37.0],[-79.25,-35.88],[-80.25,-35.88],[-82.5,-36.88],[-84.25,-36.88],[-84.38,-35.5],[-86.0,-34.38],[-87.5,-34.38],[-88.5,-34.88],[-89.38,-35.75],[-89.38,-37.5],[-87.75,-38.62],[-86.75,-38.62],[-86.88,-39.5],[-85.75,-40.88],[-83.12,-41.25]]]}},{"type":"Feature","properties":{"kind":"blob","cls":4,"id":33},"geometry":{"type":"Polygon","coordinates":[[[-66.0,-16.38],[-65.12,-15.25],[-65.38,-13.75],[-66.75,-12.88],[-68.0,-13.12],[-68.62,-13.75],[-67.88,-15.25],[-66.0,-16.38]]]}},{"type":"Feature","properties":{"kind":"blob","cls":4,"id":34},"geometry":{"type":"Polygon","coordinates":[[[-63.75,-19.12],[-63.25,-19.38],[-62.88,-19.0],[-63.12,-17.5],[-63.75,-16.88],[-65.5,-16.62],[-65.5,-17.12],[-64.0,-17.62],[-63.38,-18.25],[-63.75,-19.12]]]}},{"type":"Feature","properties":{"kind":"blob","cls":3,"id":35},"geometry":{"type":"Polygon","coordinates":[[[-24.0,69.88],[-22.25,69.88],[-20.62,71.0],[-20.62,71.5],[-22.25,72.62],[-24.75,72.88],[-24.5,72.38],[-22.62,71.5],[-23.0,71.12],[-25.75,71.12],[-26.0,70.62],[-27.88,70.0],[-25.5,70.38],[-23.38,70.0],[-24.0,69.88]]]}},{"type":"Feature","properties":{"kind":"blob","cls":4,"id":36},"geometry":{"type":"Polygon","coordinates":[[[-25.25,69.38],[-24.88,69.5],[-25.0,69.62],[-25.25,69.38]]]}},{"type":"Feature","properties":{"kind":"blob","cls":5,"id":37},"geometry":{"type":"Polygon","coordinates":[[[-54.5,68.12],[-52.25,69.12],[-51.62,70.5],[-53.5,71.88],[-57.25,72.62],[-61.5,72.38],[-63.25,71.88],[-64.12,71.0],[-64.12,70.0],[-63.25,69.12],[-60.75,68.12],[-54.5,68.12]],[[-53.25,69.62],[-53.88,70.0],[-52.62,69.75],[-53.25,69.62]],[[-52.88,70.5],[-52.12,70.5],[-52.25,70.38],[-52.88,70.5]]]}},{"type":"Feature","properties":{"kind":"blob","cls":1,"id":38},"geometry":{"type":"Polygon","coordinates":[[[68.5,25.38],[69.38,26.25],[70.25,28.62],[71.75,28.62],[72.88,29.5],[73.38,30.25],[73.38,31.75],[72.75,32.38],[70.5,31.88],[69.75,29.62],[68.75,29.62],[68.0,30.12],[67.38,29.75],[66.88,27.0],[65.62,26.75],[65.62,26.25],[66.5,25.38],[68.5,25.38]]]}},{"type":"Feature","properties":{"kind":"blob","cls":6,"id":39},"geometry":{"type":"Polygon","coordinates":[[[173.5,10.38],[175.0,10.38],[175.88,11.5],[175.62,13.0],[174.25,13.88],[173.0,13.62],[172.12,12.5],[172.38,11.0],[173.5,10.38]]]}},{"type":"Feature","properties":{"kind":"blob","cls":4,"id":40},"geometry":{"type":"MultiPolygon","coordinates":[[[[-64.75,-26.38],[-64.38,-26.0],[-64.5,-24.62],[-65.12,-25.75],[-64.75,-26.38]]],[[[-64.75,-24.38],[-64.88,-24.5],[-64.75,-24.62],[-64.75,-24.38]]]]}},{"type":"Feature","properties":{"kind":"blob","cls":4,"id":41},"geometry":{"type":"Polygon","coordinates":[[[-65.25,-26.88],[-65.25,-26.12],[-65.38,-26.25],[-65.25,-26.88]]]}},{"type":"Feature","properties":{"kind":"blob","cls":1,"id":42},"geometry":{"type":"Polygon","coordinates":[[[51.75,27.88],[52.38,28.5],[52.12,29.25],[51.12,30.0],[51.38,30.25],[49.88,31.25],[49.5,32.38],[47.62,31.0],[47.62,30.0],[49.5,27.88],[51.75,27.88]]]}},{"type":"Feature","properties":{"kind":"blob","cls":0,"id":43},"geometry":{"type":"Polygon","coordinates":[[[40.0,14.88],[42.12,15.0],[41.25,15.38],[40.0,14.88]]]}},{"type":"Feature","properties":{"kind":"blob","cls":5,"id":44},"geometry":{"type":"Polygon","coordinates":[[[86.5,24.88],[87.38,25.75],[87.38,27.0],[83.75,27.88],[82.88,26.5],[84.0,24.88],[86.5,24.88]]]}},{"type":"Feature","properties":{"kind":"blob","cls":3,"id":45},"geometry":{"type":"Polygon","coordinates":[[[97.25,22.38],[98.0,22.62],[98.12,23.25],[97.5,23.38],[96.75,22.62],[97.38,24.0],[95.5,25.62],[94.88,25.0],[94.88,23.5],[95.75,22.62],[97.25,22.38]]]}},{"type":"Feature","properties":{"kind":"blob","cls":1,"id":46},"geometry":{"type":"Polygon","coordinates":[[[65.5,28.12],[65.5,28.88],[65.38,28.75],[65.5,28.12]]]}},{"type":"Feature","properties":{"kind":"blob","cls":4,"id":47},"geometry":{"type":"Polygon","coordinates":[[[100.5,55.88],[101.88,56.75],[102.12,57.75],[101.25,58.88],[99.25,59.62],[97.25,59.62],[95.25,58.88],[94.62,58.0],[94.88,57.0],[96.75,55.88],[100.5,55.88]]]}},{"type":"Feature","properties":{"kind":"blob","cls":1,"id":48},"geometry":{"type":"Polygon","coordinates":[[[65.88,29.25],[65.75,29.88],[65.62,29.5],[65.88,29.25]]]}},{"type":"Feature","properties":{"kind":"blob","cls":1,"id":49},"geometry":{"type":"Polygon","coordinates":[[[98.38,23.25],[98.5,23.12],[98.62,23.25],[98.38,23.25]]]}},{"type":"Feature","properties":{"kind":"center","id":1,"lat":-62.0,"lon":140.0,"mslp":937.6,"hvtl":219.9,"hvtu":-107.8,"hb":54.3,"idx":1.2,"cls":3,"psfc":937.5,"terrain":false,"radius_km":200,"name":"asym shallow warm","track":"T04"},"geometry":{"type":"Point","coordinates":[140.0,-62.0]}},{"type":"Feature","properties":{"kind":"center","id":2,"lat":-59.5,"lon":4.5,"mslp":939.7,"hvtl":269.1,"hvtu":-70.3,"hb":-10.6,"idx":1.4,"cls":1,"psfc":939.7,"terrain":false,"radius_km":200,"name":"sym shallow warm"},"geometry":{"type":"Point","coordinates":[4.5,-59.5]}},{"type":"Feature","properties":{"kind":"center","id":3,"lat":26.75,"lon":144.25,"mslp":941.2,"hvtl":141.8,"hvtu":211.8,"hb":-0.4,"idx":2.7,"cls":0,"psfc":941.2,"terrain":false,"radius_km":200,"name":"sym deep warm","track":"T02"},"geometry":{"type":"Point","coordinates":[144.25,26.75]}},{"type":"Feature","properties":{"kind":"center","id":4,"lat":-63.25,"lon":13.25,"mslp":941.5,"hvtl":154.9,"hvtu":-22.1,"hb":34.6,"idx":1.6,"cls":3,"psfc":941.5,"terrain":false,"radius_km":200,"name":"asym shallow warm","track":"T05"},"geometry":{"type":"Point","coordinates":[13.25,-63.25]}},{"type":"Feature","properties":{"kind":"center","id":5,"lat":-53.25,"lon":94.25,"mslp":950.6,"hvtl":145.8,"hvtu":-241.2,"hb":13.6,"idx":0.8,"cls":3,"psfc":950.6,"terrain":false,"radius_km":200,"name":"asym shallow warm","track":"T14"},"geometry":{"type":"Point","coordinates":[94.25,-53.25]}},{"type":"Feature","properties":{"kind":"center","id":6,"lat":-75.0,"lon":-148.0,"mslp":953.3,"hvtl":43.2,"hvtu":-19.8,"hb":50.1,"idx":0.6,"cls":3,"psfc":953.3,"terrain":false,"radius_km":200,"name":"asym shallow warm","track":"T03"},"geometry":{"type":"Point","coordinates":[-148.0,-75.0]}},{"type":"Feature","properties":{"kind":"center","id":7,"lat":-58.75,"lon":-132.5,"mslp":955.1,"hvtl":324.4,"hvtu":52.9,"hb":-15.5,"idx":2.5,"cls":0,"psfc":955.1,"terrain":false,"radius_km":200,"name":"sym deep warm","track":"T10"},"geometry":{"type":"Point","coordinates":[-132.5,-58.75]}},{"type":"Feature","properties":{"kind":"center","id":8,"lat":-68.0,"lon":-159.0,"mslp":963.4,"hvtl":-249.3,"hvtu":-270.3,"hb":75.3,"idx":-3.0,"cls":4,"psfc":963.4,"terrain":false,"radius_km":200,"name":"asym cold","track":"T31"},"geometry":{"type":"Point","coordinates":[-159.0,-68.0]}},{"type":"Feature","properties":{"kind":"center","id":9,"lat":-63.5,"lon":-125.5,"mslp":964.6,"hvtl":52.3,"hvtu":-17.1,"hb":24.2,"idx":0.8,"cls":3,"psfc":964.6,"terrain":false,"radius_km":200,"name":"asym shallow warm","track":"T25"},"geometry":{"type":"Point","coordinates":[-125.5,-63.5]}},{"type":"Feature","properties":{"kind":"center","id":10,"lat":-63.25,"lon":-153.0,"mslp":965.6,"hvtl":-270.7,"hvtu":-237.3,"hb":72.0,"idx":-3.0,"cls":4,"psfc":965.5,"terrain":false,"radius_km":200,"name":"asym cold","track":"T39"},"geometry":{"type":"Point","coordinates":[-153.0,-63.25]}},{"type":"Feature","properties":{"kind":"center","id":11,"lat":-69.0,"lon":-104.0,"mslp":973.6,"hvtl":-175.4,"hvtu":-218.7,"hb":69.4,"idx":-2.9,"cls":4,"psfc":973.6,"terrain":false,"radius_km":200,"name":"asym cold","track":"T45"},"geometry":{"type":"Point","coordinates":[-104.0,-69.0]}},{"type":"Feature","properties":{"kind":"center","id":12,"lat":-74.5,"lon":-19.0,"mslp":973.8,"hvtl":-121.3,"hvtu":-151.7,"hb":47.5,"idx":-2.6,"cls":4,"psfc":966.3,"terrain":false,"radius_km":200,"name":"asym cold","track":"T24"},"geometry":{"type":"Point","coordinates":[-19.0,-74.5]}},{"type":"Feature","properties":{"kind":"center","id":13,"lat":20.25,"lon":-116.25,"mslp":974.7,"hvtl":75.6,"hvtu":222.7,"hb":3.9,"idx":2.3,"cls":0,"psfc":974.7,"terrain":false,"radius_km":200,"name":"sym deep warm","track":"T42"},"geometry":{"type":"Point","coordinates":[-116.25,20.25]}},{"type":"Feature","properties":{"kind":"center","id":14,"lat":-65.25,"lon":101.0,"mslp":975.6,"hvtl":-137.3,"hvtu":-192.1,"hb":18.1,"idx":-2.7,"cls":4,"psfc":975.1,"terrain":false,"radius_km":200,"name":"asym cold"},"geometry":{"type":"Point","coordinates":[101.0,-65.25]}},{"type":"Feature","properties":{"kind":"center","id":15,"lat":71.75,"lon":16.5,"mslp":977.5,"hvtl":25.0,"hvtu":-120.9,"hb":18.4,"idx":-0.3,"cls":3,"psfc":977.5,"terrain":false,"radius_km":200,"name":"asym shallow warm","track":"T50"},"geometry":{"type":"Point","coordinates":[16.5,71.75]}},{"type":"Feature","properties":{"kind":"center","id":16,"lat":26.25,"lon":175.25,"mslp":978.3,"hvtl":108.0,"hvtu":240.9,"hb":-3.6,"idx":2.6,"cls":0,"psfc":978.3,"terrain":false,"radius_km":200,"name":"sym deep warm","track":"T44"},"geometry":{"type":"Point","coordinates":[175.25,26.25]}},{"type":"Feature","properties":{"kind":"center","id":17,"lat":66.5,"lon":4.5,"mslp":979.3,"hvtl":30.0,"hvtu":-324.4,"hb":5.7,"idx":-0.4,"cls":1,"psfc":979.3,"terrain":false,"radius_km":200,"name":"sym shallow warm","track":"T59"},"geometry":{"type":"Point","coordinates":[4.5,66.5]}},{"type":"Feature","properties":{"kind":"center","id":18,"lat":82.0,"lon":42.75,"mslp":981.6,"hvtl":71.3,"hvtu":-158.7,"hb":12.2,"idx":0.3,"cls":3,"psfc":981.6,"terrain":false,"radius_km":200,"name":"asym shallow warm","track":"T63"},"geometry":{"type":"Point","coordinates":[42.75,82.0]}},{"type":"Feature","properties":{"kind":"center","id":19,"lat":82.5,"lon":29.5,"mslp":982.9,"hvtl":212.3,"hvtu":-111.5,"hb":-16.8,"idx":1.1,"cls":1,"psfc":982.9,"terrain":false,"radius_km":200,"name":"sym shallow warm"},"geometry":{"type":"Point","coordinates":[29.5,82.5]}},{"type":"Feature","properties":{"kind":"center","id":20,"lat":-61.0,"lon":-93.25,"mslp":985.0,"hvtl":-97.2,"hvtu":-87.3,"hb":18.1,"idx":-2.2,"cls":4,"psfc":985.0,"terrain":false,"radius_km":200,"name":"asym cold"},"geometry":{"type":"Point","coordinates":[-93.25,-61.0]}},{"type":"Feature","properties":{"kind":"center","id":21,"lat":56.5,"lon":-156.25,"mslp":989.0,"hvtl":-20.7,"hvtu":-164.8,"hb":10.5,"idx":-1.3,"cls":4,"psfc":989.0,"terrain":false,"radius_km":200,"name":"asym cold","track":"T40"},"geometry":{"type":"Point","coordinates":[-156.25,56.5]}},{"type":"Feature","properties":{"kind":"center","id":22,"lat":-52.5,"lon":-103.0,"mslp":990.3,"hvtl":-165.0,"hvtu":-196.3,"hb":36.6,"idx":-2.8,"cls":4,"psfc":990.3,"terrain":false,"radius_km":200,"name":"asym cold","track":"T68"},"geometry":{"type":"Point","coordinates":[-103.0,-52.5]}},{"type":"Feature","properties":{"kind":"center","id":23,"lat":-43.0,"lon":-37.25,"mslp":991.7,"hvtl":-54.0,"hvtu":-267.3,"hb":53.1,"idx":-2.0,"cls":4,"psfc":991.6,"terrain":false,"radius_km":200,"name":"asym cold","track":"T20"},"geometry":{"type":"Point","coordinates":[-37.25,-43.0]}},{"type":"Feature","properties":{"kind":"center","id":24,"lat":66.75,"lon":-121.0,"mslp":995.1,"hvtl":-51.7,"hvtu":-59.3,"hb":29.7,"idx":-1.5,"cls":4,"psfc":975.7,"terrain":false,"radius_km":200,"name":"asym cold"},"geometry":{"type":"Point","coordinates":[-121.0,66.75]}},{"type":"Feature","properties":{"kind":"center","id":25,"lat":61.25,"lon":69.25,"mslp":999.3,"hvtl":-132.4,"hvtu":-211.3,"hb":42.5,"idx":-2.7,"cls":4,"psfc":994.9,"terrain":false,"radius_km":200,"name":"asym cold","track":"T92"},"geometry":{"type":"Point","coordinates":[69.25,61.25]}},{"type":"Feature","properties":{"kind":"center","id":26,"lat":55.0,"lon":69.0,"mslp":999.5,"hvtl":-55.4,"hvtu":-28.8,"hb":7.8,"idx":-1.3,"cls":5,"psfc":985.8,"terrain":false,"radius_km":200,"name":"sym cold","track":"T84"},"geometry":{"type":"Point","coordinates":[69.0,55.0]}},{"type":"Feature","properties":{"kind":"center","id":27,"lat":-20.0,"lon":-59.75,"mslp":999.7,"hvtl":-64.8,"hvtu":-14.0,"hb":43.7,"idx":-1.3,"cls":4,"psfc":983.9,"terrain":false,"radius_km":200,"name":"asym cold","track":"T99"},"geometry":{"type":"Point","coordinates":[-59.75,-20.0]}},{"type":"Feature","properties":{"kind":"center","id":28,"lat":51.75,"lon":-68.25,"mslp":999.8,"hvtl":-122.9,"hvtu":-268.4,"hb":41.6,"idx":-2.7,"cls":4,"psfc":942.6,"terrain":false,"radius_km":200,"name":"asym cold","track":"T61"},"geometry":{"type":"Point","coordinates":[-68.25,51.75]}},{"type":"Feature","properties":{"kind":"center","id":29,"lat":46.0,"lon":139.0,"mslp":999.9,"hvtl":-147.2,"hvtu":-370.3,"hb":61.2,"idx":-2.8,"cls":4,"psfc":999.9,"terrain":false,"radius_km":200,"name":"asym cold","track":"T94"},"geometry":{"type":"Point","coordinates":[139.0,46.0]}},{"type":"Feature","properties":{"kind":"center","id":30,"lat":65.0,"lon":-36.0,"mslp":1000.2,"hvtl":-116.8,"hvtu":-112.2,"hb":17.2,"idx":-2.5,"cls":4,"psfc":1000.2,"terrain":false,"radius_km":200,"name":"asym cold","track":"T62"},"geometry":{"type":"Point","coordinates":[-36.0,65.0]}},{"type":"Feature","properties":{"kind":"center","id":31,"lat":-51.75,"lon":-58.0,"mslp":1000.4,"hvtl":62.1,"hvtu":-5.7,"hb":-12.5,"idx":1.0,"cls":1,"psfc":995.4,"terrain":false,"radius_km":200,"name":"sym shallow warm","track":"T86"},"geometry":{"type":"Point","coordinates":[-58.0,-51.75]}},{"type":"Feature","properties":{"kind":"center","id":32,"lat":-36.5,"lon":-87.0,"mslp":1000.4,"hvtl":-26.3,"hvtu":-74.7,"hb":15.0,"idx":-1.1,"cls":4,"psfc":1000.4,"terrain":false,"radius_km":200,"name":"asym cold","track":"T93"},"geometry":{"type":"Point","coordinates":[-87.0,-36.5]}},{"type":"Feature","properties":{"kind":"center","id":33,"lat":-16.0,"lon":-65.75,"mslp":1000.9,"hvtl":-124.0,"hvtu":-111.1,"hb":10.5,"idx":-2.5,"cls":4,"psfc":978.2,"terrain":false,"radius_km":200,"name":"asym cold","track":"T89"},"geometry":{"type":"Point","coordinates":[-65.75,-16.0]}},{"type":"Feature","properties":{"kind":"center","id":34,"lat":-16.75,"lon":-65.5,"mslp":1001.1,"hvtl":-171.5,"hvtu":-119.8,"hb":22.0,"idx":-2.7,"cls":4,"psfc":970.7,"terrain":false,"radius_km":200,"name":"asym cold"},"geometry":{"type":"Point","coordinates":[-65.5,-16.75]}},{"type":"Feature","properties":{"kind":"center","id":35,"lat":71.0,"lon":-20.75,"mslp":1002.5,"hvtl":26.2,"hvtu":-58.2,"hb":10.5,"idx":-0.0,"cls":3,"psfc":1002.5,"terrain":false,"radius_km":200,"name":"asym shallow warm"},"geometry":{"type":"Point","coordinates":[-20.75,71.0]}},{"type":"Feature","properties":{"kind":"center","id":36,"lat":69.5,"lon":-25.0,"mslp":1003.5,"hvtl":-45.3,"hvtu":-44.9,"hb":20.0,"idx":-1.3,"cls":4,"psfc":917.9,"terrain":false,"radius_km":200,"name":"asym cold","track":"T80"},"geometry":{"type":"Point","coordinates":[-25.0,69.5]}},{"type":"Feature","properties":{"kind":"center","id":37,"lat":70.25,"lon":-58.0,"mslp":1003.9,"hvtl":-102.1,"hvtu":-115.2,"hb":9.5,"idx":-2.4,"cls":5,"psfc":1003.9,"terrain":false,"radius_km":200,"name":"sym cold","track":"T69"},"geometry":{"type":"Point","coordinates":[-58.0,70.25]}},{"type":"Feature","properties":{"kind":"center","id":38,"lat":30.75,"lon":70.75,"mslp":1004.4,"hvtl":24.7,"hvtu":-110.1,"hb":9.4,"idx":-0.3,"cls":1,"psfc":987.5,"terrain":false,"radius_km":200,"name":"sym shallow warm","track":"T103"},"geometry":{"type":"Point","coordinates":[70.75,30.75]}},{"type":"Feature","properties":{"kind":"center","id":39,"lat":12.0,"lon":174.0,"mslp":1004.9,"hvtl":-9.7,"hvtu":17.4,"hb":-5.7,"idx":-0.0,"cls":6,"psfc":1004.8,"terrain":false,"radius_km":200,"name":"shallow cold"},"geometry":{"type":"Point","coordinates":[174.0,12.0]}},{"type":"Feature","properties":{"kind":"center","id":40,"lat":-24.5,"lon":-64.75,"mslp":1005.6,"hvtl":-153.4,"hvtu":-92.4,"hb":24.9,"idx":-2.5,"cls":4,"psfc":921.0,"terrain":false,"radius_km":200,"name":"asym cold","track":"T95"},"geometry":{"type":"Point","coordinates":[-64.75,-24.5]}},{"type":"Feature","properties":{"kind":"center","id":41,"lat":-26.25,"lon":-65.25,"mslp":1008.1,"hvtl":-78.7,"hvtu":-102.3,"hb":33.5,"idx":-2.1,"cls":4,"psfc":913.9,"terrain":true,"radius_km":200,"name":"asym cold"},"geometry":{"type":"Point","coordinates":[-65.25,-26.25]}},{"type":"Feature","properties":{"kind":"center","id":42,"lat":29.5,"lon":50.75,"mslp":1008.7,"hvtl":77.6,"hvtu":-108.9,"hb":6.8,"idx":0.5,"cls":1,"psfc":1006.4,"terrain":false,"radius_km":200,"name":"sym shallow warm"},"geometry":{"type":"Point","coordinates":[50.75,29.5]}},{"type":"Feature","properties":{"kind":"center","id":43,"lat":15.0,"lon":41.0,"mslp":1009.7,"hvtl":111.5,"hvtu":6.7,"hb":0.5,"idx":1.7,"cls":0,"psfc":1009.7,"terrain":false,"radius_km":200,"name":"sym deep warm"},"geometry":{"type":"Point","coordinates":[41.0,15.0]}},{"type":"Feature","properties":{"kind":"center","id":44,"lat":25.75,"lon":83.25,"mslp":1009.8,"hvtl":-31.4,"hvtu":-110.0,"hb":9.1,"idx":-1.4,"cls":5,"psfc":1000.9,"terrain":false,"radius_km":200,"name":"sym cold"},"geometry":{"type":"Point","coordinates":[83.25,25.75]}},{"type":"Feature","properties":{"kind":"center","id":45,"lat":23.0,"lon":95.5,"mslp":1010.6,"hvtl":2.9,"hvtu":-67.5,"hb":10.8,"idx":-0.5,"cls":3,"psfc":995.3,"terrain":false,"radius_km":200,"name":"asym shallow warm","track":"T122"},"geometry":{"type":"Point","coordinates":[95.5,23.0]}},{"type":"Feature","properties":{"kind":"center","id":46,"lat":28.5,"lon":65.5,"mslp":1010.9,"hvtl":79.3,"hvtu":-70.9,"hb":0.3,"idx":0.7,"cls":1,"psfc":930.7,"terrain":false,"radius_km":200,"name":"sym shallow warm","track":"T130"},"geometry":{"type":"Point","coordinates":[65.5,28.5]}},{"type":"Feature","properties":{"kind":"center","id":47,"lat":57.75,"lon":98.25,"mslp":1011.4,"hvtl":-99.2,"hvtu":-268.7,"hb":53.7,"idx":-2.5,"cls":4,"psfc":972.4,"terrain":false,"radius_km":200,"name":"asym cold"},"geometry":{"type":"Point","coordinates":[98.25,57.75]}},{"type":"Feature","properties":{"kind":"center","id":48,"lat":29.25,"lon":65.5,"mslp":1012.5,"hvtl":76.0,"hvtu":-75.6,"hb":2.1,"idx":0.6,"cls":1,"psfc":914.7,"terrain":true,"radius_km":200,"name":"sym shallow warm"},"geometry":{"type":"Point","coordinates":[65.5,29.25]}},{"type":"Feature","properties":{"kind":"center","id":49,"lat":23.25,"lon":98.5,"mslp":1014.7,"hvtl":102.8,"hvtu":-70.0,"hb":-13.7,"idx":0.9,"cls":1,"psfc":904.9,"terrain":true,"radius_km":200,"name":"sym shallow warm"},"geometry":{"type":"Point","coordinates":[98.5,23.25]}}]}