{"type":"FeatureCollection","features":[{"type":"Feature","properties":{"kind":"blob","cls":0,"id":1},"geometry":{"type":"Polygon","coordinates":[[[179.75,59.62],[180.0,63.62],[177.0,63.38],[176.75,62.88],[175.75,62.62],[175.12,62.0],[175.12,61.5],[176.25,60.38],[177.25,59.88],[179.75,59.62]],[[177.88,61.25],[178.0,61.62],[179.62,61.75],[179.25,61.12],[177.88,61.25]]]}},{"type":"Feature","properties":{"kind":"blob","cls":0,"id":1},"geometry":{"type":"Polygon","coordinates":[[[-179.75,63.62],[-180.0,59.62],[-177.75,60.38],[-176.62,61.5],[-176.62,62.0],[-177.5,62.88],[-179.75,63.62]]]}},{"type":"Feature","properties":{"kind":"blob","cls":1,"id":2},"geometry":{"type":"Polygon","coordinates":[[[-135.25,-64.38],[-133.25,-63.88],[-133.88,-62.75],[-133.25,-62.38],[-132.25,-62.62],[-132.12,-62.0],[-133.25,-60.88],[-135.75,-60.12],[-138.75,-60.38],[-140.75,-61.38],[-141.12,-62.0],[-140.88,-63.25],[-139.25,-64.12],[-135.25,-64.38]]]}},{"type":"Feature","properties":{"kind":"blob","cls":3,"id":3},"geometry":{"type":"Polygon","coordinates":[[[122.0,-60.38],[125.0,-60.38],[127.12,-59.0],[127.12,-58.0],[126.25,-57.12],[124.25,-56.38],[121.0,-56.62],[119.38,-57.75],[119.38,-59.0],[120.25,-59.88],[122.0,-60.38]]]}},{"type":"Feature","properties":{"kind":"blob","cls":3,"id":4},"geometry":{"type":"Polygon","coordinates":[[[45.25,-67.62],[47.5,-67.12],[49.38,-65.75],[49.38,-65.25],[47.75,-63.88],[45.5,-63.38],[42.0,-63.62],[40.12,-64.75],[39.88,-65.75],[41.0,-66.88],[45.25,-67.62]]]}},{"type":"Feature","properties":{"kind":"blob","cls":4,"id":5},"geometry":{"type":"Polygon","coordinates":[[[40.75,-59.38],[44.75,-59.38],[46.38,-58.25],[46.62,-56.75],[44.5,-54.88],[40.0,-54.88],[37.88,-56.75],[37.88,-57.5],[39.0,-58.88],[40.75,-59.38]]]}},{"type":"Feature","properties":{"kind":"blob","cls":4,"id":6},"geometry":{"type":"Polygon","coordinates":[[[117.75,-55.88],[120.5,-55.88],[122.0,-55.12],[122.75,-54.12],[125.25,-55.38],[127.75,-55.38],[129.75,-54.62],[130.38,-53.5],[129.75,-52.38],[126.5,-51.12],[123.75,-51.38],[122.5,-52.38],[120.25,-51.62],[118.0,-51.62],[115.25,-52.62],[114.62,-53.5],[114.62,-54.25],[115.25,-55.12],[117.75,-55.88]]]}},{"type":"Feature","properties":{"kind":"blob","cls":3,"id":7},"geometry":{"type":"Polygon","coordinates":[[[24.5,-62.12],[28.75,-62.12],[31.5,-60.88],[32.62,-59.25],[31.5,-57.88],[29.75,-57.38],[28.25,-57.38],[25.5,-58.12],[22.5,-59.38],[21.88,-60.0],[21.88,-61.0],[22.5,-61.62],[24.5,-62.12]]]}},{"type":"Feature","properties":{"kind":"blob","cls":4,"id":8},"geometry":{"type":"MultiPolygon","coordinates":[[[[-69.0,-71.62],[-69.12,-71.75],[-69.0,-71.88],[-69.0,-71.62]]],[[[-73.25,-73.38],[-70.5,-72.88],[-69.12,-72.0],[-71.38,-71.5],[-69.62,-71.0],[-70.12,-70.5],[-69.62,-70.25],[-70.25,-69.88],[-78.0,-68.12],[-81.0,-68.12],[-83.75,-68.62],[-84.75,-69.12],[-85.38,-70.0],[-84.75,-71.12],[-81.5,-72.62],[-73.25,-73.38]]]]}},{"type":"Feature","properties":{"kind":"blob","cls":4,"id":9},"geometry":{"type":"Polygon","coordinates":[[[-67.75,-70.62],[-67.12,-70.75],[-67.88,-70.0],[-67.5,-69.62],[-66.38,-69.25],[-66.75,-68.62],[-67.5,-68.62],[-68.38,-69.5],[-67.75,-70.62]]]}},{"type":"Feature","properties":{"kind":"blob","cls":4,"id":10},"geometry":{"type":"Polygon","coordinates":[[[-113.75,-74.88],[-113.0,-74.88],[-106.25,-74.38],[-99.25,-74.38],[-97.88,-73.75],[-101.5,-72.38],[-107.5,-72.12],[-112.0,-72.88],[-113.25,-73.38],[-113.75,-74.88]]]}},{"type":"Feature","properties":{"kind":"blob","cls":4,"id":11},"geometry":{"type":"Polygon","coordinates":[[[-60.5,-71.38],[-59.0,-70.88],[-58.12,-70.0],[-58.12,-69.5],[-59.0,-68.62],[-62.25,-67.88],[-64.25,-67.88],[-65.62,-68.5],[-63.0,-69.38],[-62.62,-70.5],[-60.5,-71.38]]]}},{"type":"Feature","properties":{"kind":"blob","cls":4,"id":12},"geometry":{"type":"Polygon","coordinates":[[[142.75,-59.12],[144.5,-58.62],[146.38,-56.75],[145.25,-55.38],[144.0,-54.88],[139.5,-54.88],[137.62,-56.25],[137.38,-57.25],[138.25,-58.38],[142.75,-59.12]]]}},{"type":"Feature","properties":{"kind":"blob","cls":4,"id":13},"geometry":{"type":"Polygon","coordinates":[[[71.5,-65.88],[74.0,-65.12],[74.88,-64.25],[74.88,-63.75],[73.0,-62.38],[71.5,-62.12],[62.0,-62.38],[60.5,-62.62],[58.88,-63.5],[58.62,-64.5],[59.0,-65.12],[60.5,-65.88],[71.5,-65.88]]]}},{"type":"Feature","properties":{"kind":"blob","cls":1,"id":14},"geometry":{"type":"Polygon","coordinates":[[[-17.75,65.62],[-18.62,66.25],[-18.25,66.62],[-16.25,66.62],[-15.5,65.88],[-14.25,66.12],[-12.0,67.12],[-11.12,68.0],[-11.12,68.5],[-12.0,69.38],[-13.5,69.88],[-18.0,70.12],[-21.0,69.38],[-23.12,68.0],[-23.12,67.0],[-22.75,66.62],[-21.0,65.88],[-17.75,65.62]]]}},{"type":"Feature","properties":{"kind":"blob","cls":6,"id":15},"geometry":{"type":"Polygon","coordinates":[[[-60.25,-81.12],[-49.5,-81.38],[-47.75,-80.88],[-39.88,-80.5],[-51.5,-80.12],[-60.25,-81.12]]]}},{"type":"Feature","properties":{"kind":"blob","cls":6,"id":16},"geometry":{"type":"Polygon","coordinates":[[[-34.38,-79.0],[-34.0,-79.38],[-32.62,-79.0],[-33.0,-78.62],[-34.0,-78.62],[-34.38,-79.0]]]}},{"type":"Feature","properties":{"kind":"blob","cls":6,"id":17},"geometry":{"type":"Polygon","coordinates":[[[-32.25,-78.88],[-31.38,-78.75],[-31.5,-78.62],[-32.25,-78.88]]]}},{"type":"Feature","properties":{"kind":"blob","cls":0,"id":18},"geometry":{"type":"Polygon","coordinates":[[[161.25,13.38],[162.62,14.25],[161.62,15.0],[162.75,15.38],[162.88,15.75],[162.0,16.88],[161.25,17.12],[160.0,16.88],[159.12,15.75],[159.38,14.25],[161.25,13.38]]]}},{"type":"Feature","properties":{"kind":"blob","cls":4,"id":19},"geometry":{"type":"Polygon","coordinates":[[[-0.5,-71.12],[0.75,-71.38],[4.0,-70.88],[9.12,-70.75],[6.25,-70.12],[3.5,-70.12],[-0.5,-71.12]]]}},{"type":"Feature","properties":{"kind":"blob","cls":4,"id":20},"geometry":{"type":"Polygon","coordinates":[[[-78.5,-79.38],[-77.5,-79.38],[-76.38,-78.5],[-77.0,-77.88],[-78.0,-77.62],[-78.62,-78.75],[-78.5,-79.38]]]}},{"type":"Feature","properties":{"kind":"blob","cls":4,"id":21},"geometry":{"type":"MultiPolygon","coordinates":[[[[169.5,-72.38],[169.38,-72.5],[169.75,-72.62],[169.5,-72.38]]],[[[170.0,-72.38],[171.75,-72.38],[173.5,-71.88],[174.38,-71.0],[174.38,-70.0],[172.75,-68.38],[169.5,-67.62],[161.5,-68.12],[158.75,-68.62],[157.62,-69.25],[159.5,-69.62],[162.25,-71.62],[162.62,-71.25],[162.25,-70.62],[164.5,-71.12],[164.75,-70.62],[166.0,-70.62],[170.62,-71.75],[170.0,-72.38]]]]}},{"type":"Feature","properties":{"kind":"blob","cls":4,"id":22},"geometry":{"type":"Polygon","coordinates":[[[179.75,-82.88],[180.0,-78.88],[167.25,-78.62],[162.12,-79.25],[163.75,-80.38],[168.25,-81.62],[174.5,-82.62],[179.75,-82.88]]]}},{"type":"Feature","properties":{"kind":"blob","cls":4,"id":22},"geometry":{"type":"Polygon","coordinates":[[[-179.75,-78.88],[-180.0,-82.88],[-159.0,-83.38],[-151.5,-83.12],[-149.88,-82.75],[-151.25,-81.88],[-155.25,-81.12],[-170.25,-80.12],[-179.75,-78.88]]]}},{"type":"Feature","properties":{"kind":"blob","cls":1,"id":23},"geometry":{"type":"Polygon","coordinates":[[[51.0,74.38],[56.0,75.12],[59.25,76.12],[60.25,76.62],[60.88,77.5],[60.25,78.38],[59.25,78.88],[55.5,79.62],[47.0,79.88],[41.62,79.0],[41.75,78.62],[44.75,78.12],[45.38,77.75],[45.25,77.38],[42.25,77.12],[39.75,77.62],[37.88,77.5],[37.88,77.0],[38.75,76.12],[39.75,75.62],[44.75,74.62],[51.0,74.38]]]}},{"type":"Feature","properties":{"kind":"blob","cls":4,"id":24},"geometry":{"type":"Polygon","coordinates":[[[-95.75,-57.38],[-94.0,-56.88],[-93.12,-56.0],[-93.38,-53.75],[-95.75,-52.62],[-97.5,-52.62],[-99.5,-53.38],[-100.12,-54.25],[-100.12,-55.5],[-98.75,-56.88],[-95.75,-57.38]]]}},{"type":"Feature","properties":{"kind":"blob","cls":3,"id":25},"geometry":{"type":"Polygon","coordinates":[[[-94.25,-45.88],[-93.0,-45.38],[-92.12,-44.25],[-92.38,-42.25],[-94.0,-41.38],[-96.25,-41.38],[-97.5,-41.88],[-98.12,-42.75],[-98.12,-44.5],[-97.25,-45.38],[-94.25,-45.88]]]}},{"type":"Feature","properties":{"kind":"blob","cls":0,"id":26},"geometry":{"type":"Polygon","coordinates":[[[-127.0,21.88],[-125.75,21.62],[-124.12,22.75],[-124.12,24.25],[-125.25,25.38],[-126.5,25.62],[-127.62,25.0],[-126.38,23.75],[-126.38,22.75],[-127.0,21.88]]]}},{"type":"Feature","properties":{"kind":"blob","cls":1,"id":27},"geometry":{"type":"Polygon","coordinates":[[[-174.25,28.12],[-173.12,29.5],[-173.38,30.75],[-174.25,31.62],[-176.5,31.62],[-177.62,30.25],[-177.38,29.0],[-176.5,28.12],[-174.25,28.12]]]}},{"type":"Feature","properties":{"kind":"blob","cls":3,"id":28},"geometry":{"type":"Polygon","coordinates":[[[-128.0,50.12],[-126.12,51.0],[-127.12,51.5],[-127.12,52.5],[-128.38,53.25],[-128.12,53.5],[-128.5,54.12],[-130.5,53.88],[-131.88,52.75],[-131.88,51.75],[-130.75,50.62],[-128.0,50.12]]]}},{"type":"Feature","properties":{"kind":"blob","cls":3,"id":29},"geometry":{"type":"Polygon","coordinates":[[[37.25,59.38],[38.88,60.5],[38.88,61.75],[37.75,62.88],[35.5,63.62],[33.25,63.62],[29.5,62.88],[27.88,61.75],[27.88,60.5],[29.5,59.38],[37.25,59.38]]]}},{"type":"Feature","properties":{"kind":"blob","cls":0,"id":30},"geometry":{"type":"MultiPolygon","coordinates":[[[[147.25,15.62],[147.12,15.5],[147.5,15.38],[147.25,15.62]]],[[[147.75,15.62],[148.12,16.0],[148.38,17.5],[147.5,18.62],[146.0,18.88],[144.62,18.0],[144.5,16.62],[146.5,16.62],[147.75,15.62]]]]}},{"type":"Feature","properties":{"kind":"blob","cls":4,"id":31},"geometry":{"type":"Polygon","coordinates":[[[146.0,72.38],[152.0,72.38],[155.5,73.38],[156.12,74.5],[153.75,75.88],[149.5,76.62],[142.0,76.38],[138.88,75.0],[138.88,74.5],[139.75,73.62],[141.5,72.88],[146.0,72.38]]]}},{"type":"Feature","properties":{"kind":"blob","cls":0,"id":32},"geometry":{"type":"Polygon","coordinates":[[[-80.75,55.88],[-77.25,55.88],[-75.88,56.75],[-75.38,57.5],[-75.38,58.5],[-77.0,59.62],[-79.0,59.88],[-77.25,59.38],[-75.62,58.25],[-76.5,57.38],[-78.75,57.38],[-80.5,58.38],[-81.5,59.62],[-83.12,58.5],[-83.38,57.5],[-82.5,56.38],[-80.75,55.88]]]}},{"type":"Feature","properties":{"kind":"blob","cls":4,"id":33},"geometry":{"type":"Polygon","coordinates":[[[-36.0,62.88],[-32.75,63.62],[-31.62,64.5],[-31.38,65.75],[-32.5,66.88],[-34.0,67.12],[-39.5,64.62],[-41.88,64.25],[-41.0,63.38],[-36.0,62.88]]]}},{"type":"Feature","properties":{"kind":"blob","cls":1,"id":34},"geometry":{"type":"Polygon","coordinates":[[[68.0,25.38],[69.25,25.88],[70.88,27.5],[71.25,28.38],[73.5,28.38],[75.12,30.25],[75.12,31.25],[74.62,32.0],[74.25,32.38],[72.5,32.38],[70.5,31.88],[69.75,29.62],[67.75,30.12],[67.38,29.75],[66.88,27.0],[65.62,26.75],[66.5,25.62],[68.0,25.38]]]}},{"type":"Feature","properties":{"kind":"blob","cls":1,"id":35},"geometry":{"type":"MultiPolygon","coordinates":[[[[179.75,81.38],[180.0,83.88],[173.75,83.62],[170.5,82.88],[169.88,82.25],[169.88,81.75],[170.75,81.12],[173.5,80.38],[179.75,81.38]]],[[[179.75,79.62],[180.0,80.12],[177.62,80.0],[178.5,79.62],[179.75,79.62]]]]}},{"type":"Feature","properties":{"kind":"blob","cls":1,"id":35},"geometry":{"type":"Polygon","coordinates":[[[-179.88,84.0],[-180.0,81.38],[-170.88,81.5],[-171.0,81.12],[-172.25,80.88],[-180.0,80.12],[-180.0,79.62],[-177.5,79.38],[-162.0,79.62],[-156.5,80.62],[-155.0,81.12],[-154.38,81.75],[-155.0,82.38],[-156.5,82.88],[-161.0,83.62],[-171.0,84.12],[-179.88,84.0]]]}},{"type":"Feature","properties":{"kind":"blob","cls":4,"id":36},"geometry":{"type":"MultiPolygon","coordinates":[[[[-124.5,49.88],[-123.88,50.0],[-125.25,50.62],[-124.5,49.88]]],[[[-125.5,50.88],[-125.62,50.75],[-125.5,50.62],[-125.5,50.88]]]]}},{"type":"Feature","properties":{"kind":"blob","cls":3,"id":37},"geometry":{"type":"Polygon","coordinates":[[[159.25,32.38],[160.88,33.25],[161.12,35.25],[160.5,36.12],[158.75,36.62],[157.5,36.12],[156.62,35.25],[156.62,33.25],[159.25,32.38]]]}},{"type":"Feature","properties":{"kind":"blob","cls":4,"id":38},"geometry":{"type":"Polygon","coordinates":[[[-62.25,35.12],[-60.5,34.88],[-59.5,35.38],[-58.88,36.0],[-58.88,37.5],[-60.5,38.62],[-62.0,38.62],[-63.0,38.12],[-63.62,37.5],[-63.62,36.0],[-62.25,35.12]]]}},{"type":"Feature","properties":{"kind":"blob","cls":0,"id":39},"geometry":{"type":"Polygon","coordinates":[[[-103.25,11.38],[-101.5,11.38],[-100.88,12.25],[-104.38,12.0],[-103.25,11.38]]]}},{"type":"Feature","properties":{"kind":"blob","cls":4,"id":40},"geometry":{"type":"Polygon","coordinates":[[[95.75,58.62],[98.25,59.12],[100.25,60.12],[101.12,61.0],[101.38,62.0],[100.25,63.12],[97.25,64.12],[96.88,64.0],[96.5,62.88],[95.25,62.38],[93.5,62.62],[92.0,63.62],[90.12,61.75],[90.12,60.75],[91.5,59.38],[95.75,58.62]]]}},{"type":"Feature","properties":{"kind":"blob","cls":4,"id":41},"geometry":{"type":"MultiPolygon","coordinates":[[[[147.25,-40.62],[148.75,-40.88],[150.38,-39.75],[150.62,-38.25],[149.5,-36.88],[148.5,-36.62],[148.0,-37.12],[147.5,-36.62],[147.5,-37.12],[145.88,-37.75],[145.62,-39.0],[147.25,-40.62]]],[[[146.75,-36.88],[146.62,-37.0],[146.75,-37.12],[146.75,-36.88]]]]}},{"type":"Feature","properties":{"kind":"blob","cls":1,"id":42},"geometry":{"type":"Polygon","coordinates":[[[-109.75,26.12],[-108.62,27.5],[-109.62,29.5],[-110.88,30.25],[-111.25,31.12],[-111.75,31.12],[-112.5,30.88],[-113.88,29.5],[-114.12,28.25],[-112.5,26.38],[-109.75,26.12]]]}},{"type":"Feature","properties":{"kind":"blob","cls":0,"id":43},"geometry":{"type":"MultiPolygon","coordinates":[[[[-104.0,14.62],[-104.12,14.5],[-104.0,14.38],[-104.0,14.62]]],[[[-103.88,14.75],[-101.38,14.75],[-102.25,15.12],[-103.88,14.75]]]]}},{"type":"Feature","properties":{"kind":"blob","cls":3,"id":44},"geometry":{"type":"Polygon","coordinates":[[[-8.0,74.62],[-1.5,74.62],[0.75,75.12],[2.12,76.25],[0.75,77.38],[-1.5,77.88],[-7.75,78.12],[-12.5,77.38],[-13.88,76.25],[-12.5,75.12],[-8.0,74.62]]]}},{"type":"Feature","properties":{"kind":"blob","cls":0,"id":45},"geometry":{"type":"Polygon","coordinates":[[[146.62,15.25],[146.75,15.12],[146.88,15.25],[146.62,15.25]]]}},{"type":"Feature","properties":{"kind":"blob","cls":4,"id":46},"geometry":{"type":"Polygon","coordinates":[[[-123.38,49.75],[-123.25,49.62],[-123.12,49.75],[-123.38,49.75]]]}},{"type":"Feature","properties":{"kind":"blob","cls":3,"id":47},"geometry":{"type":"Polygon","coordinates":[[[58.75,28.62],[59.88,29.25],[59.5,30.62],[58.12,29.75],[58.75,28.62]]]}},{"type":"Feature","properties":{"kind":"blob","cls":1,"id":48},"geometry":{"type":"Polygon","coordinates":[[[65.62,29.25],[65.75,29.12],[65.88,29.5],[65.62,29.25]]]}},{"type":"Feature","properties":{"kind":"blob","cls":4,"id":49},"geometry":{"type":"Polygon","coordinates":[[[96.0,23.62],[96.88,24.25],[95.25,25.62],[94.25,24.62],[93.62,24.75],[94.5,23.88],[96.0,23.62]]]}},{"type":"Feature","properties":{"kind":"blob","cls":5,"id":50},"geometry":{"type":"Polygon","coordinates":[[[93.5,25.38],[94.38,26.25],[92.25,26.88],[92.12,26.25],[93.5,25.38]]]}},{"type":"Feature","properties":{"kind":"blob","cls":4,"id":51},"geometry":{"type":"Polygon","coordinates":[[[-47.25,-39.12],[-41.0,-39.12],[-39.38,-38.0],[-39.12,-37.25],[-40.0,-35.88],[-41.0,-35.38],[-44.75,-35.38],[-46.0,-34.88],[-48.0,-34.88],[-49.62,-36.0],[-49.62,-37.75],[-48.75,-38.62],[-47.25,-39.12]]]}},{"type":"Feature","properties":{"kind":"blob","cls":4,"id":52},"geometry":{"type":"Polygon","coordinates":[[[-69.25,74.38],[-66.5,75.12],[-65.12,76.25],[-65.5,76.62],[-66.5,76.62],[-65.88,77.0],[-66.5,77.38],[-68.75,77.88],[-76.0,78.12],[-80.75,77.38],[-82.12,76.25],[-81.75,75.62],[-79.75,74.62],[-69.25,74.38]],[[-67.75,76.88],[-67.88,77.0],[-67.75,77.12],[-67.75,76.88]]]}},{"type":"Feature","properties":{"kind":"blob","cls":1,"id":53},"geometry":{"type":"Polygon","coordinates":[[[47.5,-18.12],[47.75,-17.62],[48.75,-17.62],[50.12,-15.5],[50.12,-14.5],[49.25,-13.38],[47.25,-13.38],[45.38,-15.75],[45.62,-17.25],[46.25,-17.88],[47.5,-18.12]],[[48.0,-16.88],[47.88,-16.75],[48.0,-16.62],[48.0,-16.88]],[[48.75,-16.88],[48.62,-16.75],[48.75,-16.62],[48.75,-16.88]],[[48.38,-14.5],[49.25,-13.88],[49.38,-14.75],[48.38,-14.5]]]}},{"type":"Feature","properties":{"kind":"blob","cls":4,"id":54},"geometry":{"type":"Polygon","coordinates":[[[167.25,-36.62],[168.5,-36.12],[169.38,-34.75],[169.12,-33.0],[167.25,-31.88],[165.0,-32.12],[163.88,-33.25],[164.12,-35.25],[164.75,-35.88],[167.25,-36.62]],[[165.38,-35.25],[165.75,-34.88],[166.62,-35.25],[166.25,-35.62],[165.38,-35.25]]]}},{"type":"Feature","properties":{"kind":"blob","cls":4,"id":55},"geometry":{"type":"MultiPolygon","coordinates":[[[[26.5,-33.62],[27.38,-32.75],[26.0,-32.62],[25.75,-32.12],[25.5,-32.62],[24.5,-32.12],[23.12,-32.25],[24.0,-33.38],[26.5,-33.62]]],[[[27.25,-32.12],[27.38,-32.5],[27.5,-32.62],[27.62,-32.0],[27.25,-32.12]]]]}},{"type":"Feature","properties":{"kind":"blob","cls":4,"id":56},"geometry":{"type":"Polygon","coordinates":[[[-66.75,-28.88],[-66.12,-28.25],[-66.25,-27.62],[-67.12,-28.0],[-66.75,-28.88]]]}},{"type":"Feature","properties":{"kind":"blob","cls":4,"id":57},"geometry":{"type":"Polygon","coordinates":[[[-65.5,-28.12],[-64.88,-27.0],[-65.25,-26.12],[-65.88,-27.25],[-65.5,-28.12]]]}},{"type":"Feature","properties":{"kind":"center","id":1,"lat":62.0,"lon":179.25,"mslp":937.5,"hvtl":141.5,"hvtu":88.7,"hb":-14.6,"idx":2.5,"cls":0,"psfc":937.5,"terrain":false,"radius_km":200,"name":"sym deep warm","track":"T02"},"geometry":{"type":"Point","coordinates":[179.25,62.0]}},{"type":"Feature","properties":{"kind":"center","id":2,"lat":-62.25,"lon":-136.5,"mslp":948.2,"hvtl":70.2,"hvtu":-94.7,"hb":-10.7,"idx":0.5,"cls":1,"psfc":948.2,"terrain":false,"radius_km":200,"name":"sym shallow warm","track":"T11"},"geometry":{"type":"Point","coordinates":[-136.5,-62.25]}},{"type":"Feature","properties":{"kind":"center","id":3,"lat":-58.5,"lon":123.25,"mslp":955.1,"hvtl":78.3,"hvtu":-65.7,"hb":51.7,"idx":0.7,"cls":3,"psfc":955.1,"terrain":false,"radius_km":200,"name":"asym shallow warm","track":"T18"},"geometry":{"type":"Point","coordinates":[123.25,-58.5]}},{"type":"Feature","properties":{"kind":"center","id":4,"lat":-65.5,"lon":44.5,"mslp":959.7,"hvtl":50.2,"hvtu":-275.0,"hb":62.8,"idx":-0.1,"cls":3,"psfc":959.7,"terrain":false,"radius_km":200,"name":"asym shallow warm","track":"T20"},"geometry":{"type":"Point","coordinates":[44.5,-65.5]}},{"type":"Feature","properties":{"kind":"center","id":5,"lat":-57.0,"lon":42.25,"mslp":960.5,"hvtl":-152.1,"hvtu":-355.0,"hb":74.2,"idx":-2.8,"cls":4,"psfc":960.5,"terrain":false,"radius_km":200,"name":"asym cold","track":"T07"},"geometry":{"type":"Point","coordinates":[42.25,-57.0]}},{"type":"Feature","properties":{"kind":"center","id":6,"lat":-53.25,"lon":125.75,"mslp":962.1,"hvtl":-66.7,"hvtu":-268.6,"hb":20.0,"idx":-2.2,"cls":4,"psfc":962.1,"terrain":false,"radius_km":200,"name":"asym cold","track":"T22"},"geometry":{"type":"Point","coordinates":[125.75,-53.25]}},{"type":"Feature","properties":{"kind":"center","id":7,"lat":-59.75,"lon":27.75,"mslp":964.3,"hvtl":45.4,"hvtu":-176.5,"hb":17.9,"idx":-0.1,"cls":3,"psfc":964.3,"terrain":false,"radius_km":200,"name":"asym shallow warm","track":"T24"},"geometry":{"type":"Point","coordinates":[27.75,-59.75]}},{"type":"Feature","properties":{"kind":"center","id":8,"lat":-71.25,"lon":-75.25,"mslp":967.6,"hvtl":-101.8,"hvtu":-284.7,"hb":41.9,"idx":-2.5,"cls":4,"psfc":967.5,"terrain":false,"radius_km":200,"name":"asym cold"},"geometry":{"type":"Point","coordinates":[-75.25,-71.25]}},{"type":"Feature","properties":{"kind":"center","id":9,"lat":-70.75,"lon":-67.5,"mslp":972.5,"hvtl":-72.7,"hvtu":-330.3,"hb":47.1,"idx":-2.2,"cls":4,"psfc":933.0,"terrain":false,"radius_km":200,"name":"asym cold"},"geometry":{"type":"Point","coordinates":[-67.5,-70.75]}},{"type":"Feature","properties":{"kind":"center","id":10,"lat":-74.5,"lon":-106.5,"mslp":974.3,"hvtl":-109.6,"hvtu":-225.7,"hb":22.1,"idx":-2.6,"cls":4,"psfc":974.2,"terrain":false,"radius_km":200,"name":"asym cold","track":"T29"},"geometry":{"type":"Point","coordinates":[-106.5,-74.5]}},{"type":"Feature","properties":{"kind":"center","id":11,"lat":-71.25,"lon":-61.5,"mslp":974.4,"hvtl":-193.7,"hvtu":-329.1,"hb":51.5,"idx":-2.9,"cls":4,"psfc":905.6,"terrain":false,"radius_km":200,"name":"asym cold"},"geometry":{"type":"Point","coordinates":[-61.5,-71.25]}},{"type":"Feature","properties":{"kind":"center","id":12,"lat":-57.0,"lon":141.25,"mslp":974.7,"hvtl":-227.8,"hvtu":-351.1,"hb":57.6,"idx":-3.0,"cls":4,"psfc":974.7,"terrain":false,"radius_km":200,"name":"asym cold","track":"T15"},"geometry":{"type":"Point","coordinates":[141.25,-57.0]}},{"type":"Feature","properties":{"kind":"center","id":13,"lat":-64.0,"lon":58.75,"mslp":974.8,"hvtl":-196.0,"hvtu":-259.5,"hb":87.8,"idx":-2.9,"cls":4,"psfc":974.8,"terrain":false,"radius_km":200,"name":"asym cold","track":"T41"},"geometry":{"type":"Point","coordinates":[58.75,-64.0]}},{"type":"Feature","properties":{"kind":"center","id":14,"lat":68.0,"lon":-17.0,"mslp":976.9,"hvtl":349.2,"hvtu":-77.4,"hb":-19.6,"idx":1.3,"cls":1,"psfc":976.9,"terrain":false,"radius_km":200,"name":"sym shallow warm"},"geometry":{"type":"Point","coordinates":[-17.0,68.0]}},{"type":"Feature","properties":{"kind":"center","id":15,"lat":-80.25,"lon":-50.25,"mslp":977.1,"hvtl":-170.4,"hvtu":3.9,"hb":48.5,"idx":-1.8,"cls":6,"psfc":917.9,"terrain":false,"radius_km":200,"name":"shallow cold"},"geometry":{"type":"Point","coordinates":[-50.25,-80.25]}},{"type":"Feature","properties":{"kind":"center","id":16,"lat":-78.75,"lon":-34.0,"mslp":977.5,"hvtl":-255.8,"hvtu":16.7,"hb":70.8,"idx":-1.8,"cls":6,"psfc":907.3,"terrain":false,"radius_km":200,"name":"shallow cold"},"geometry":{"type":"Point","coordinates":[-34.0,-78.75]}},{"type":"Feature","properties":{"kind":"center","id":17,"lat":-78.75,"lon":-32.25,"mslp":977.9,"hvtl":-256.2,"hvtu":14.1,"hb":69.2,"idx":-1.8,"cls":6,"psfc":901.0,"terrain":false,"radius_km":200,"name":"shallow cold","track":"T51"},"geometry":{"type":"Point","coordinates":[-32.25,-78.75]}},{"type":"Feature","properties":{"kind":"center","id":18,"lat":15.25,"lon":161.0,"mslp":979.6,"hvtl":121.9,"hvtu":134.6,"hb":1.0,"idx":2.6,"cls":0,"psfc":979.5,"terrain":false,"radius_km":200,"name":"sym deep warm","track":"T12"},"geometry":{"type":"Point","coordinates":[161.0,15.25]}},{"type":"Feature","properties":{"kind":"center","id":19,"lat":-70.75,"lon":9.0,"mslp":980.5,"hvtl":-84.0,"hvtu":-81.5,"hb":19.0,"idx":-2.0,"cls":4,"psfc":929.2,"terrain":false,"radius_km":200,"name":"asym cold","track":"T05"},"geometry":{"type":"Point","coordinates":[9.0,-70.75]}},{"type":"Feature","properties":{"kind":"center","id":20,"lat":-79.5,"lon":-78.25,"mslp":980.7,"hvtl":-206.7,"hvtu":-5.1,"hb":56.2,"idx":-2.0,"cls":4,"psfc":923.5,"terrain":false,"radius_km":200,"name":"asym cold","track":"T58"},"geometry":{"type":"Point","coordinates":[-78.25,-79.5]}},{"type":"Feature","properties":{"kind":"center","id":21,"lat":-71.5,"lon":172.5,"mslp":982.4,"hvtl":-109.0,"hvtu":-180.0,"hb":31.0,"idx":-2.5,"cls":4,"psfc":982.4,"terrain":false,"radius_km":200,"name":"asym cold","track":"T37"},"geometry":{"type":"Point","coordinates":[172.5,-71.5]}},{"type":"Feature","properties":{"kind":"center","id":22,"lat":-81.25,"lon":-155.5,"mslp":983.3,"hvtl":-54.0,"hvtu":-143.6,"hb":44.1,"idx":-1.9,"cls":4,"psfc":961.9,"terrain":false,"radius_km":200,"name":"asym cold","track":"T66"},"geometry":{"type":"Point","coordinates":[-155.5,-81.25]}},{"type":"Feature","properties":{"kind":"center","id":23,"lat":77.5,"lon":50.25,"mslp":985.3,"hvtl":0.5,"hvtu":-15.8,"hb":8.8,"idx":-0.1,"cls":1,"psfc":985.3,"terrain":false,"radius_km":200,"name":"sym shallow warm","track":"T50"},"geometry":{"type":"Point","coordinates":[50.25,77.5]}},{"type":"Feature","properties":{"kind":"center","id":24,"lat":-56.0,"lon":-98.0,"mslp":986.9,"hvtl":-150.3,"hvtu":-147.5,"hb":43.3,"idx":-2.7,"cls":4,"psfc":986.9,"terrain":false,"radius_km":200,"name":"asym cold","track":"T71"},"geometry":{"type":"Point","coordinates":[-98.0,-56.0]}},{"type":"Feature","properties":{"kind":"center","id":25,"lat":-43.5,"lon":-95.25,"mslp":990.4,"hvtl":83.2,"hvtu":-257.2,"hb":30.9,"idx":0.4,"cls":3,"psfc":990.3,"terrain":false,"radius_km":200,"name":"asym shallow warm","track":"T74"},"geometry":{"type":"Point","coordinates":[-95.25,-43.5]}},{"type":"Feature","properties":{"kind":"center","id":26,"lat":23.5,"lon":-126.25,"mslp":991.5,"hvtl":77.7,"hvtu":66.8,"hb":4.3,"idx":1.9,"cls":0,"psfc":991.5,"terrain":false,"radius_km":200,"name":"sym deep warm","track":"T42"},"geometry":{"type":"Point","coordinates":[-126.25,23.5]}},{"type":"Feature","properties":{"kind":"center","id":27,"lat":30.0,"lon":-175.5,"mslp":993.0,"hvtl":33.7,"hvtu":-108.6,"hb":9.1,"idx":-0.1,"cls":1,"psfc":993.0,"terrain":false,"radius_km":200,"name":"sym shallow warm","track":"T70"},"geometry":{"type":"Point","coordinates":[-175.5,30.0]}},{"type":"Feature","properties":{"kind":"center","id":28,"lat":52.0,"lon":-128.75,"mslp":993.5,"hvtl":81.7,"hvtu":-295.4,"hb":16.0,"idx":0.4,"cls":3,"psfc":993.5,"terrain":false,"radius_km":200,"name":"asym shallow warm","track":"T85"},"geometry":{"type":"Point","coordinates":[-128.75,52.0]}},{"type":"Feature","properties":{"kind":"center","id":29,"lat":61.25,"lon":31.75,"mslp":994.0,"hvtl":169.0,"hvtu":-138.4,"hb":45.5,"idx":1.0,"cls":3,"psfc":993.5,"terrain":false,"radius_km":200,"name":"asym shallow warm","track":"T81"},"geometry":{"type":"Point","coordinates":[31.75,61.25]}},{"type":"Feature","properties":{"kind":"center","id":30,"lat":17.0,"lon":146.25,"mslp":994.3,"hvtl":44.4,"hvtu":84.9,"hb":3.2,"idx":1.5,"cls":0,"psfc":994.3,"terrain":false,"radius_km":200,"name":"sym deep warm","track":"T06"},"geometry":{"type":"Point","coordinates":[146.25,17.0]}},{"type":"Feature","properties":{"kind":"center","id":31,"lat":74.5,"lon":147.5,"mslp":996.3,"hvtl":-52.1,"hvtu":-179.2,"hb":48.8,"idx":-1.9,"cls":4,"psfc":996.3,"terrain":false,"radius_km":200,"name":"asym cold","track":"T88"},"geometry":{"type":"Point","coordinates":[147.5,74.5]}},{"type":"Feature","properties":{"kind":"center","id":32,"lat":57.75,"lon":-79.5,"mslp":997.2,"hvtl":66.1,"hvtu":26.7,"hb":-9.7,"idx":1.4,"cls":0,"psfc":997.2,"terrain":false,"radius_km":200,"name":"sym deep warm","track":"T87"},"geometry":{"type":"Point","coordinates":[-79.5,57.75]}},{"type":"Feature","properties":{"kind":"center","id":33,"lat":65.0,"lon":-37.25,"mslp":998.1,"hvtl":-90.8,"hvtu":-92.6,"hb":18.7,"idx":-2.2,"cls":4,"psfc":998.1,"terrain":false,"radius_km":200,"name":"asym cold","track":"T65"},"geometry":{"type":"Point","coordinates":[-37.25,65.0]}},{"type":"Feature","properties":{"kind":"center","id":34,"lat":28.0,"lon":68.0,"mslp":1001.1,"hvtl":16.1,"hvtu":-46.6,"hb":-0.3,"idx":-0.1,"cls":1,"psfc":995.6,"terrain":false,"radius_km":200,"name":"sym shallow warm","track":"T103"},"geometry":{"type":"Point","coordinates":[68.0,28.0]}},{"type":"Feature","properties":{"kind":"center","id":35,"lat":81.5,"lon":-170.0,"mslp":1002.2,"hvtl":0.6,"hvtu":-94.5,"hb":5.4,"idx":-0.7,"cls":1,"psfc":1002.2,"terrain":false,"radius_km":200,"name":"sym shallow warm","track":"T96"},"geometry":{"type":"Point","coordinates":[-170.0,81.5]}},{"type":"Feature","properties":{"kind":"center","id":36,"lat":50.75,"lon":-125.5,"mslp":1002.4,"hvtl":-130.4,"hvtu":-260.7,"hb":53.5,"idx":-2.7,"cls":4,"psfc":915.8,"terrain":false,"radius_km":200,"name":"asym cold"},"geometry":{"type":"Point","coordinates":[-125.5,50.75]}},{"type":"Feature","properties":{"kind":"center","id":37,"lat":34.25,"lon":158.75,"mslp":1002.8,"hvtl":143.9,"hvtu":-88.2,"hb":48.1,"idx":1.1,"cls":3,"psfc":1002.7,"terrain":false,"radius_km":200,"name":"asym shallow warm","track":"T44"},"geometry":{"type":"Point","coordinates":[158.75,34.25]}},{"type":"Feature","properties":{"kind":"center","id":38,"lat":36.75,"lon":-61.25,"mslp":1003.3,"hvtl":-3.6,"hvtu":-266.9,"hb":31.5,"idx":-1.1,"cls":4,"psfc":1003.3,"terrain":false,"radius_km":200,"name":"asym cold","track":"T105"},"geometry":{"type":"Point","coordinates":[-61.25,36.75]}},{"type":"Feature","properties":{"kind":"center","id":39,"lat":12.0,"lon":-103.0,"mslp":1003.6,"hvtl":32.1,"hvtu":23.6,"hb":-9.5,"idx":0.9,"cls":0,"psfc":1003.6,"terrain":false,"radius_km":200,"name":"sym deep warm","track":"T115"},"geometry":{"type":"Point","coordinates":[-103.0,12.0]}},{"type":"Feature","properties":{"kind":"center","id":40,"lat":61.25,"lon":95.25,"mslp":1003.8,"hvtl":-67.3,"hvtu":-16.2,"hb":23.0,"idx":-1.3,"cls":4,"psfc":945.9,"terrain":false,"radius_km":200,"name":"asym cold","track":"T100"},"geometry":{"type":"Point","coordinates":[95.25,61.25]}},{"type":"Feature","properties":{"kind":"center","id":41,"lat":-39.75,"lon":148.25,"mslp":1003.8,"hvtl":-228.3,"hvtu":-97.0,"hb":52.6,"idx":-2.7,"cls":4,"psfc":1003.9,"terrain":false,"radius_km":200,"name":"asym cold"},"geometry":{"type":"Point","coordinates":[148.25,-39.75]}},{"type":"Feature","properties":{"kind":"center","id":42,"lat":28.5,"lon":-111.5,"mslp":1004.1,"hvtl":27.5,"hvtu":-185.9,"hb":0.2,"idx":-0.4,"cls":1,"psfc":1002.1,"terrain":false,"radius_km":200,"name":"sym shallow warm","track":"T107"},"geometry":{"type":"Point","coordinates":[-111.5,28.5]}},{"type":"Feature","properties":{"kind":"center","id":43,"lat":14.75,"lon":-102.75,"mslp":1004.8,"hvtl":36.6,"hvtu":22.3,"hb":3.2,"idx":0.9,"cls":0,"psfc":1004.8,"terrain":false,"radius_km":200,"name":"sym deep warm","track":"T104"},"geometry":{"type":"Point","coordinates":[-102.75,14.75]}},{"type":"Feature","properties":{"kind":"center","id":44,"lat":75.75,"lon":-7.0,"mslp":1004.8,"hvtl":136.3,"hvtu":-259.6,"hb":70.7,"idx":0.8,"cls":3,"psfc":1004.8,"terrain":false,"radius_km":200,"name":"asym shallow warm","track":"T57"},"geometry":{"type":"Point","coordinates":[-7.0,75.75]}},{"type":"Feature","properties":{"kind":"center","id":45,"lat":15.25,"lon":146.75,"mslp":1005.1,"hvtl":48.9,"hvtu":82.1,"hb":3.2,"idx":1.6,"cls":0,"psfc":1005.1,"terrain":false,"radius_km":200,"name":"sym deep warm"},"geometry":{"type":"Point","coordinates":[146.75,15.25]}},{"type":"Feature","properties":{"kind":"center","id":46,"lat":49.75,"lon":-123.25,"mslp":1006.1,"hvtl":-185.0,"hvtu":-223.7,"hb":85.4,"idx":-2.9,"cls":4,"psfc":903.2,"terrain":true,"radius_km":200,"name":"asym cold"},"geometry":{"type":"Point","coordinates":[-123.25,49.75]}},{"type":"Feature","properties":{"kind":"center","id":47,"lat":29.75,"lon":59.0,"mslp":1006.8,"hvtl":85.9,"hvtu":-24.6,"hb":18.3,"idx":1.2,"cls":3,"psfc":971.7,"terrain":false,"radius_km":200,"name":"asym shallow warm","track":"T114"},"geometry":{"type":"Point","coordinates":[59.0,29.75]}},{"type":"Feature","properties":{"kind":"center","id":48,"lat":29.5,"lon":65.75,"mslp":1007.6,"hvtl":16.5,"hvtu":-47.8,"hb":4.5,"idx":-0.1,"cls":1,"psfc":909.3,"terrain":true,"radius_km":200,"name":"sym shallow warm"},"geometry":{"type":"Point","coordinates":[65.75,29.5]}},{"type":"Feature","properties":{"kind":"center","id":49,"lat":24.25,"lon":96.5,"mslp":1008.2,"hvtl":-43.8,"hvtu":-98.3,"hb":12.0,"idx":-1.6,"cls":4,"psfc":992.5,"terrain":false,"radius_km":200,"name":"asym cold","track":"T122"},"geometry":{"type":"Point","coordinates":[96.5,24.25]}},{"type":"Feature","properties":{"kind":"center","id":50,"lat":26.75,"lon":92.5,"mslp":1008.8,"hvtl":-30.6,"hvtu":-79.4,"hb":4.4,"idx":-1.3,"cls":5,"psfc":999.8,"terrain":false,"radius_km":200,"name":"sym cold","track":"T124"},"geometry":{"type":"Point","coordinates":[92.5,26.75]}},{"type":"Feature","properties":{"kind":"center","id":51,"lat":-37.25,"lon":-46.25,"mslp":1008.9,"hvtl":-10.4,"hvtu":-297.6,"hb":99.8,"idx":-1.2,"cls":4,"psfc":1008.9,"terrain":false,"radius_km":200,"name":"asym cold","track":"T110"},"geometry":{"type":"Point","coordinates":[-46.25,-37.25]}},{"type":"Feature","properties":{"kind":"center","id":52,"lat":76.25,"lon":-74.0,"mslp":1009.3,"hvtl":-167.0,"hvtu":-116.8,"hb":58.0,"idx":-2.7,"cls":4,"psfc":1009.3,"terrain":false,"radius_km":200,"name":"asym cold","track":"T112"},"geometry":{"type":"Point","coordinates":[-74.0,76.25]}},{"type":"Feature","properties":{"kind":"center","id":53,"lat":-15.0,"lon":48.25,"mslp":1010.7,"hvtl":62.3,"hvtu":-134.3,"hb":-9.2,"idx":0.2,"cls":1,"psfc":989.1,"terrain":false,"radius_km":200,"name":"sym shallow warm"},"geometry":{"type":"Point","coordinates":[48.25,-15.0]}},{"type":"Feature","properties":{"kind":"center","id":54,"lat":-34.0,"lon":166.25,"mslp":1011.0,"hvtl":-79.9,"hvtu":-111.1,"hb":24.5,"idx":-2.1,"cls":4,"psfc":1011.0,"terrain":false,"radius_km":200,"name":"asym cold","track":"T120"},"geometry":{"type":"Point","coordinates":[166.25,-34.0]}},{"type":"Feature","properties":{"kind":"center","id":55,"lat":-32.25,"lon":25.75,"mslp":1013.0,"hvtl":-192.2,"hvtu":-34.0,"hb":79.5,"idx":-2.2,"cls":4,"psfc":904.3,"terrain":true,"radius_km":200,"name":"asym cold"},"geometry":{"type":"Point","coordinates":[25.75,-32.25]}},{"type":"Feature","properties":{"kind":"center","id":56,"lat":-28.25,"lon":-66.5,"mslp":1016.2,"hvtl":-93.5,"hvtu":-234.0,"hb":22.2,"idx":-2.4,"cls":4,"psfc":932.1,"terrain":false,"radius_km":200,"name":"asym cold","track":"T127"},"geometry":{"type":"Point","coordinates":[-66.5,-28.25]}},{"type":"Feature","properties":{"kind":"center","id":57,"lat":-26.25,"lon":-65.25,"mslp":1020.1,"hvtl":-83.7,"hvtu":-274.3,"hb":46.3,"idx":-2.4,"cls":4,"psfc":923.2,"terrain":true,"radius_km":200,"name":"asym cold"},"geometry":{"type":"Point","coordinates":[-65.25,-26.25]}}]}