{"type":"FeatureCollection","features":[{"type":"Feature","properties":{"kind":"blob","cls":0,"id":1},"geometry":{"type":"Polygon","coordinates":[[[179.75,59.62],[180.0,61.62],[178.5,61.38],[178.38,61.75],[180.0,62.12],[180.0,63.62],[177.25,63.38],[175.38,62.0],[175.62,61.0],[176.25,60.38],[177.25,59.88],[179.75,59.62]]]}},{"type":"Feature","properties":{"kind":"blob","cls":0,"id":1},"geometry":{"type":"Polygon","coordinates":[[[-179.75,63.62],[-180.0,62.12],[-179.38,62.0],[-180.0,61.62],[-180.0,59.62],[-177.5,60.38],[-176.38,61.5],[-176.38,62.0],[-177.25,62.88],[-179.75,63.62]]]}},{"type":"Feature","properties":{"kind":"blob","cls":1,"id":2},"geometry":{"type":"MultiPolygon","coordinates":[[[[-131.5,-63.38],[-131.62,-63.5],[-131.5,-63.62],[-131.5,-63.38]]],[[[-125.0,-65.38],[-123.75,-64.88],[-122.62,-63.5],[-123.75,-62.12],[-126.25,-61.38],[-128.25,-61.38],[-130.75,-62.12],[-130.12,-63.25],[-131.25,-63.62],[-131.38,-64.0],[-129.75,-65.12],[-125.0,-65.38]]],[[[-136.75,-63.12],[-132.5,-63.12],[-132.0,-62.12],[-130.88,-62.0],[-130.88,-60.75],[-132.75,-59.38],[-137.0,-59.38],[-138.88,-60.75],[-139.12,-61.5],[-138.25,-62.62],[-136.75,-63.12]]]]}},{"type":"Feature","properties":{"kind":"blob","cls":3,"id":3},"geometry":{"type":"Polygon","coordinates":[[[49.5,-62.12],[51.25,-61.62],[52.38,-60.75],[52.88,-59.25],[51.25,-57.62],[49.5,-57.12],[47.25,-57.12],[44.75,-57.88],[43.38,-59.25],[43.38,-60.0],[44.5,-61.38],[49.5,-62.12]]]}},{"type":"Feature","properties":{"kind":"blob","cls":2,"id":4},"geometry":{"type":"MultiPolygon","coordinates":[[[[123.5,-60.88],[125.25,-60.38],[126.12,-59.5],[126.12,-58.25],[124.5,-57.12],[123.75,-57.12],[122.0,-58.38],[120.25,-58.62],[120.12,-58.0],[121.12,-57.25],[120.25,-57.12],[118.62,-58.25],[118.62,-59.5],[119.5,-60.38],[123.5,-60.88]]],[[[121.25,-56.88],[121.12,-57.0],[121.5,-57.12],[121.25,-56.88]]]]}},{"type":"Feature","properties":{"kind":"blob","cls":3,"id":5},"geometry":{"type":"Polygon","coordinates":[[[44.0,-68.12],[46.0,-67.62],[47.38,-66.75],[47.38,-65.75],[45.25,-64.62],[41.5,-64.38],[39.5,-64.88],[38.12,-65.75],[38.12,-66.75],[38.5,-67.12],[40.25,-67.88],[44.0,-68.12]]]}},{"type":"Feature","properties":{"kind":"blob","cls":4,"id":6},"geometry":{"type":"Polygon","coordinates":[[[133.75,-58.62],[135.38,-57.25],[135.38,-56.75],[134.25,-55.62],[132.25,-55.12],[132.12,-53.5],[130.75,-52.62],[128.0,-52.38],[126.0,-53.12],[125.12,-54.25],[125.38,-55.5],[126.75,-56.38],[128.0,-56.62],[128.12,-57.25],[129.25,-58.38],[133.75,-58.62]]]}},{"type":"Feature","properties":{"kind":"blob","cls":4,"id":7},"geometry":{"type":"Polygon","coordinates":[[[146.75,-61.38],[148.5,-60.88],[149.62,-59.75],[149.62,-59.25],[148.0,-57.62],[144.25,-56.62],[140.75,-56.88],[139.12,-58.0],[139.12,-59.0],[139.75,-59.62],[142.25,-60.88],[146.75,-61.38]]]}},{"type":"Feature","properties":{"kind":"blob","cls":4,"id":8},"geometry":{"type":"Polygon","coordinates":[[[-71.75,-73.62],[-67.25,-73.12],[-66.38,-72.0],[-67.12,-71.5],[-67.12,-70.75],[-67.88,-69.75],[-67.0,-69.62],[-66.62,-69.0],[-67.5,-68.62],[-68.38,-69.5],[-68.25,-70.38],[-69.12,-70.25],[-68.62,-70.75],[-68.62,-71.5],[-69.25,-71.88],[-71.38,-71.5],[-69.75,-71.12],[-70.12,-70.5],[-69.75,-70.12],[-74.0,-70.62],[-75.88,-71.75],[-75.25,-72.88],[-71.75,-73.62]]]}},{"type":"Feature","properties":{"kind":"blob","cls":4,"id":9},"geometry":{"type":"Polygon","coordinates":[[[-60.5,-71.38],[-59.0,-70.88],[-58.12,-70.0],[-58.12,-69.5],[-59.0,-68.62],[-62.25,-67.88],[-64.25,-67.88],[-65.62,-68.5],[-63.0,-69.38],[-62.62,-70.5],[-60.5,-71.38]]]}},{"type":"Feature","properties":{"kind":"blob","cls":0,"id":10},"geometry":{"type":"Polygon","coordinates":[[[160.25,13.38],[161.75,13.38],[162.62,14.5],[161.75,14.38],[160.88,15.0],[162.38,15.75],[161.75,16.62],[161.0,16.88],[159.75,16.62],[158.88,15.5],[159.12,14.0],[160.25,13.38]]]}},{"type":"Feature","properties":{"kind":"blob","cls":4,"id":11},"geometry":{"type":"Polygon","coordinates":[[[-112.88,-74.5],[-112.5,-74.88],[-99.0,-74.38],[-98.5,-73.88],[-97.12,-73.75],[-102.0,-72.62],[-107.5,-72.62],[-111.5,-73.38],[-112.88,-74.5]]]}},{"type":"Feature","properties":{"kind":"blob","cls":4,"id":12},"geometry":{"type":"Polygon","coordinates":[[[-13.0,-73.12],[-11.75,-73.38],[-9.75,-72.12],[-7.75,-72.12],[-4.88,-71.5],[-9.25,-71.62],[-13.0,-73.12]]]}},{"type":"Feature","properties":{"kind":"blob","cls":5,"id":13},"geometry":{"type":"Polygon","coordinates":[[[-19.5,-58.88],[-17.5,-58.38],[-15.12,-56.75],[-15.12,-55.5],[-16.0,-54.62],[-17.75,-54.12],[-22.5,-54.62],[-24.12,-56.0],[-24.38,-57.25],[-23.25,-58.38],[-19.5,-58.88]]]}},{"type":"Feature","properties":{"kind":"blob","cls":1,"id":14},"geometry":{"type":"Polygon","coordinates":[[[-4.75,62.38],[-2.88,63.5],[-2.62,64.5],[-3.25,65.38],[-4.75,66.12],[-7.75,66.38],[-9.0,67.12],[-6.0,67.62],[-3.75,66.38],[0.25,66.12],[2.5,66.62],[3.5,67.12],[4.12,68.0],[3.5,68.88],[1.75,69.62],[-2.25,69.88],[-4.0,69.38],[-4.75,70.12],[-6.5,70.88],[-12.75,71.12],[-15.25,70.62],[-16.88,69.5],[-16.25,68.38],[-14.5,67.62],[-13.0,67.62],[-13.0,67.12],[-14.25,67.12],[-15.5,67.88],[-17.5,68.38],[-20.0,68.38],[-22.0,67.88],[-23.62,66.75],[-23.62,65.75],[-23.25,65.38],[-21.5,64.62],[-19.75,64.88],[-20.38,64.5],[-18.5,64.38],[-19.38,64.75],[-18.75,65.88],[-17.5,65.12],[-15.0,64.88],[-15.62,64.25],[-15.0,63.88],[-11.5,63.38],[-10.0,62.38],[-4.75,62.38]],[[-12.75,66.12],[-13.38,66.5],[-12.25,67.12],[-10.38,66.5],[-11.0,66.12],[-12.75,66.12]]]}},{"type":"Feature","properties":{"kind":"blob","cls":4,"id":15},"geometry":{"type":"Polygon","coordinates":[[[-3.62,-71.75],[-3.5,-71.88],[-3.38,-71.75],[-3.62,-71.75]]]}},{"type":"Feature","properties":{"kind":"blob","cls":4,"id":16},"geometry":{"type":"Polygon","coordinates":[[[-4.38,-71.5],[-4.25,-71.62],[-4.12,-71.5],[-4.38,-71.5]]]}},{"type":"Feature","properties":{"kind":"blob","cls":4,"id":17},"geometry":{"type":"Polygon","coordinates":[[[76.5,-65.62],[84.5,-64.88],[87.0,-64.12],[88.12,-63.25],[88.38,-62.25],[88.0,-61.62],[86.5,-60.88],[82.25,-60.62],[76.5,-61.62],[71.75,-61.88],[70.5,-62.38],[69.38,-63.5],[69.38,-64.0],[70.25,-64.88],[76.5,-65.62]]]}},{"type":"Feature","properties":{"kind":"blob","cls":6,"id":18},"geometry":{"type":"Polygon","coordinates":[[[-78.5,-79.38],[-77.5,-79.38],[-76.38,-78.5],[-77.75,-77.38],[-78.25,-77.38],[-78.5,-79.38]]]}},{"type":"Feature","properties":{"kind":"blob","cls":3,"id":19},"geometry":{"type":"Polygon","coordinates":[[[179.75,-82.88],[180.0,-78.88],[169.0,-78.62],[162.38,-79.5],[165.25,-80.88],[170.75,-82.12],[179.75,-82.88]]]}},{"type":"Feature","properties":{"kind":"blob","cls":3,"id":19},"geometry":{"type":"Polygon","coordinates":[[[-179.75,-78.88],[-180.0,-82.88],[-160.25,-83.38],[-158.5,-82.88],[-157.88,-82.25],[-158.5,-81.62],[-161.75,-80.88],[-179.75,-78.88]]]}},{"type":"Feature","properties":{"kind":"blob","cls":4,"id":20},"geometry":{"type":"Polygon","coordinates":[[[162.62,-71.5],[162.25,-70.62],[164.5,-71.12],[164.75,-70.62],[166.0,-70.62],[168.5,-71.38],[169.88,-70.0],[169.25,-69.12],[168.25,-68.62],[165.5,-68.12],[159.75,-68.38],[157.62,-69.25],[159.5,-69.62],[162.62,-71.5]]]}},{"type":"Feature","properties":{"kind":"blob","cls":1,"id":21},"geometry":{"type":"Polygon","coordinates":[[[54.5,75.38],[58.5,75.88],[61.75,77.12],[62.12,78.25],[61.25,79.12],[57.25,80.12],[46.75,80.38],[42.5,79.88],[40.62,79.25],[43.5,78.62],[43.88,78.25],[43.25,77.88],[39.12,78.0],[39.5,77.12],[41.25,76.38],[45.5,75.62],[54.5,75.38]]]}},{"type":"Feature","properties":{"kind":"blob","cls":3,"id":22},"geometry":{"type":"Polygon","coordinates":[[[-93.5,-47.38],[-92.25,-46.88],[-91.38,-46.0],[-91.12,-45.0],[-92.5,-43.12],[-95.0,-42.62],[-96.25,-43.12],[-97.12,-44.0],[-97.12,-46.25],[-96.5,-46.88],[-93.5,-47.38]]]}},{"type":"Feature","properties":{"kind":"blob","cls":0,"id":23},"geometry":{"type":"Polygon","coordinates":[[[147.0,16.38],[147.38,16.75],[147.38,17.75],[146.5,18.88],[144.5,18.88],[143.62,17.75],[143.75,16.88],[147.0,16.38]]]}},{"type":"Feature","properties":{"kind":"blob","cls":0,"id":24},"geometry":{"type":"Polygon","coordinates":[[[-125.75,21.88],[-124.62,23.0],[-124.62,24.75],[-125.5,25.62],[-127.0,25.88],[-127.88,25.5],[-127.38,24.75],[-127.38,23.25],[-128.12,22.25],[-125.75,21.88]]]}},{"type":"Feature","properties":{"kind":"blob","cls":1,"id":25},"geometry":{"type":"Polygon","coordinates":[[[-176.25,28.12],[-175.12,29.5],[-175.38,30.75],[-176.25,31.62],[-178.5,31.62],[-179.62,30.25],[-179.38,29.0],[-178.5,28.12],[-176.25,28.12]]]}},{"type":"Feature","properties":{"kind":"blob","cls":3,"id":26},"geometry":{"type":"Polygon","coordinates":[[[36.5,59.88],[40.25,60.38],[42.12,61.75],[42.12,62.5],[40.75,63.88],[38.75,64.38],[36.75,64.38],[33.75,63.62],[32.25,62.88],[31.38,62.0],[31.38,61.5],[33.25,60.12],[36.5,59.88]]]}},{"type":"Feature","properties":{"kind":"blob","cls":4,"id":27},"geometry":{"type":"Polygon","coordinates":[[[146.0,71.88],[156.0,71.88],[158.0,72.38],[159.12,73.25],[159.12,73.75],[158.25,74.62],[157.0,75.12],[152.75,75.88],[144.5,75.62],[142.75,75.12],[141.12,74.0],[141.12,73.25],[142.25,72.38],[146.0,71.88]]]}},{"type":"Feature","properties":{"kind":"blob","cls":4,"id":28},"geometry":{"type":"Polygon","coordinates":[[[-112.25,50.88],[-111.75,50.62],[-111.38,51.0],[-111.38,52.0],[-112.5,53.12],[-114.25,53.62],[-115.25,54.38],[-116.12,54.25],[-115.0,53.12],[-114.0,53.12],[-113.0,51.38],[-112.25,51.62],[-112.25,50.88]]]}},{"type":"Feature","properties":{"kind":"blob","cls":3,"id":29},"geometry":{"type":"Polygon","coordinates":[[[-116.75,54.38],[-116.38,54.75],[-118.0,55.38],[-119.12,55.25],[-118.75,54.62],[-116.75,54.38]]]}},{"type":"Feature","properties":{"kind":"blob","cls":1,"id":30},"geometry":{"type":"Polygon","coordinates":[[[-80.0,55.62],[-76.25,55.62],[-74.88,56.5],[-74.38,58.0],[-75.25,59.12],[-75.5,58.38],[-77.0,58.12],[-81.0,59.38],[-82.38,58.25],[-82.62,57.25],[-81.75,56.12],[-80.0,55.62]]]}},{"type":"Feature","properties":{"kind":"blob","cls":4,"id":31},"geometry":{"type":"Polygon","coordinates":[[[-151.25,56.62],[-149.25,57.38],[-148.62,58.0],[-148.62,59.5],[-149.5,60.38],[-150.5,59.62],[-150.12,60.5],[-151.25,60.88],[-152.5,60.88],[-153.25,60.12],[-153.75,60.62],[-154.5,60.38],[-155.62,59.25],[-155.62,58.0],[-154.0,56.88],[-151.25,56.62]]]}},{"type":"Feature","properties":{"kind":"blob","cls":4,"id":32},"geometry":{"type":"Polygon","coordinates":[[[11.5,57.62],[13.25,58.12],[14.38,59.25],[14.38,59.75],[12.5,61.12],[9.0,61.12],[8.62,60.75],[8.88,60.0],[8.0,59.62],[7.38,58.75],[8.0,58.12],[11.5,57.62]]]}},{"type":"Feature","properties":{"kind":"blob","cls":4,"id":33},"geometry":{"type":"Polygon","coordinates":[[[-36.5,60.12],[-33.75,60.88],[-32.62,62.0],[-32.62,64.0],[-31.88,65.0],[-32.12,65.5],[-33.0,66.38],[-34.5,66.88],[-39.5,64.62],[-41.75,64.38],[-41.88,63.5],[-43.12,62.75],[-43.12,61.5],[-41.25,60.38],[-36.5,60.12]]]}},{"type":"Feature","properties":{"kind":"blob","cls":4,"id":34},"geometry":{"type":"Polygon","coordinates":[[[-59.0,35.88],[-57.75,35.62],[-55.88,37.0],[-55.62,38.25],[-56.75,39.62],[-59.25,39.88],[-60.88,38.75],[-60.88,37.25],[-59.0,35.88]]]}},{"type":"Feature","properties":{"kind":"blob","cls":5,"id":35},"geometry":{"type":"Polygon","coordinates":[[[68.5,25.38],[70.62,27.5],[71.0,28.38],[74.5,28.38],[75.88,30.0],[75.88,31.0],[75.38,31.75],[74.75,32.38],[71.25,32.12],[70.12,31.5],[70.12,30.0],[69.75,29.62],[67.75,30.12],[67.38,29.75],[66.88,27.0],[65.62,26.75],[65.62,26.25],[66.5,25.38],[68.5,25.38]]]}},{"type":"Feature","properties":{"kind":"blob","cls":5,"id":36},"geometry":{"type":"MultiPolygon","coordinates":[[[[179.75,79.38],[180.0,80.12],[176.12,79.75],[177.25,79.38],[179.75,79.38]]],[[[179.75,81.12],[180.0,84.12],[169.5,83.62],[166.25,82.88],[165.62,82.25],[165.62,81.25],[166.75,80.62],[171.25,79.88],[173.25,79.88],[175.5,80.62],[179.75,81.12]]]]}},{"type":"Feature","properties":{"kind":"blob","cls":5,"id":36},"geometry":{"type":"Polygon","coordinates":[[[-179.75,84.12],[-180.0,81.12],[-169.62,81.25],[-172.5,80.62],[-180.0,80.12],[-180.0,79.38],[-165.25,79.62],[-159.5,80.62],[-157.62,81.75],[-158.25,82.38],[-160.25,83.12],[-165.0,83.88],[-179.75,84.12]]]}},{"type":"Feature","properties":{"kind":"blob","cls":4,"id":37},"geometry":{"type":"Polygon","coordinates":[[[-54.5,-26.12],[-53.62,-25.25],[-53.62,-23.75],[-55.25,-22.62],[-56.5,-22.88],[-57.38,-23.75],[-57.38,-25.25],[-56.5,-26.12],[-54.5,-26.12]]]}},{"type":"Feature","properties":{"kind":"blob","cls":3,"id":38},"geometry":{"type":"Polygon","coordinates":[[[161.25,33.12],[162.38,34.0],[162.62,35.5],[162.0,36.38],[160.0,36.88],[158.38,36.0],[158.12,34.25],[158.75,33.38],[161.25,33.12]]]}},{"type":"Feature","properties":{"kind":"blob","cls":4,"id":39},"geometry":{"type":"Polygon","coordinates":[[[97.75,59.12],[99.75,59.62],[102.62,61.5],[102.88,62.75],[101.75,63.88],[99.75,64.38],[98.62,64.25],[98.62,63.25],[98.0,62.62],[95.5,62.88],[93.75,64.12],[93.0,63.88],[91.62,62.5],[91.88,61.5],[93.25,59.88],[97.75,59.12]]]}},{"type":"Feature","properties":{"kind":"blob","cls":0,"id":40},"geometry":{"type":"MultiPolygon","coordinates":[[[[-104.25,14.38],[-104.38,14.25],[-104.25,14.12],[-104.25,14.38]]],[[[-103.88,14.75],[-104.0,14.38],[-100.62,14.5],[-102.0,15.38],[-103.88,14.75]]]]}},{"type":"Feature","properties":{"kind":"blob","cls":0,"id":41},"geometry":{"type":"Polygon","coordinates":[[[-101.5,11.38],[-100.62,12.25],[-104.12,11.75],[-101.5,11.38]]]}},{"type":"Feature","properties":{"kind":"blob","cls":2,"id":42},"geometry":{"type":"Polygon","coordinates":[[[42.0,11.38],[42.62,12.0],[42.88,14.0],[41.75,15.38],[40.5,15.62],[39.62,15.25],[40.12,13.25],[39.88,12.0],[42.0,11.38]]]}},{"type":"Feature","properties":{"kind":"blob","cls":3,"id":43},"geometry":{"type":"Polygon","coordinates":[[[59.75,28.12],[60.12,28.5],[59.75,31.12],[58.12,30.0],[58.38,29.0],[59.75,28.12]]]}},{"type":"Feature","properties":{"kind":"blob","cls":4,"id":44},"geometry":{"type":"Polygon","coordinates":[[[-64.25,71.62],[-61.0,72.12],[-59.5,72.88],[-59.12,73.75],[-60.0,74.62],[-61.25,75.12],[-66.25,75.62],[-66.12,76.25],[-67.0,77.12],[-70.25,78.12],[-79.0,78.12],[-80.0,77.62],[-81.25,77.62],[-82.25,77.12],[-82.88,76.25],[-82.5,75.62],[-80.75,75.38],[-80.5,74.88],[-73.75,74.38],[-73.88,73.5],[-72.0,72.38],[-64.25,71.62]],[[-67.75,76.88],[-67.88,77.0],[-67.75,77.12],[-67.75,76.88]]]}},{"type":"Feature","properties":{"kind":"blob","cls":4,"id":45},"geometry":{"type":"Polygon","coordinates":[[[-43.0,-38.88],[-42.0,-38.38],[-41.38,-37.75],[-41.38,-36.25],[-43.0,-35.12],[-44.25,-35.12],[-45.75,-34.38],[-47.25,-34.38],[-48.25,-34.88],[-48.88,-35.5],[-48.88,-37.25],[-46.75,-38.62],[-43.0,-38.88]]]}},{"type":"Feature","properties":{"kind":"blob","cls":4,"id":46},"geometry":{"type":"MultiPolygon","coordinates":[[[[-67.25,-29.62],[-67.38,-30.0],[-67.25,-30.12],[-66.88,-29.75],[-67.25,-29.62]]],[[[-66.75,-29.62],[-66.38,-29.25],[-66.5,-27.62],[-67.12,-28.25],[-66.62,-28.75],[-66.75,-29.62]]]]}},{"type":"Feature","properties":{"kind":"blob","cls":4,"id":47},"geometry":{"type":"MultiPolygon","coordinates":[[[[-64.25,-17.38],[-64.38,-17.5],[-64.25,-17.62],[-64.25,-17.38]]],[[[-65.5,-17.12],[-64.5,-17.38],[-64.38,-17.0],[-65.25,-15.88],[-66.5,-15.62],[-66.62,-16.0],[-65.5,-17.12]]]]}},{"type":"Feature","properties":{"kind":"blob","cls":4,"id":48},"geometry":{"type":"Polygon","coordinates":[[[167.0,-37.12],[168.5,-36.62],[169.62,-35.75],[169.88,-34.0],[168.75,-32.62],[166.5,-32.12],[165.25,-32.62],[164.38,-33.5],[164.38,-36.0],[167.0,-37.12]],[[166.25,-36.12],[165.62,-35.75],[166.5,-35.12],[166.88,-35.75],[166.25,-36.12]]]}},{"type":"Feature","properties":{"kind":"blob","cls":1,"id":49},"geometry":{"type":"Polygon","coordinates":[[[65.5,28.12],[65.5,28.88],[65.38,28.75],[65.5,28.12]]]}},{"type":"Feature","properties":{"kind":"blob","cls":1,"id":50},"geometry":{"type":"Polygon","coordinates":[[[59.12,28.0],[57.75,28.88],[57.38,28.25],[59.12,28.0]]]}},{"type":"Feature","properties":{"kind":"blob","cls":4,"id":51},"geometry":{"type":"Polygon","coordinates":[[[48.5,30.38],[49.75,30.88],[49.88,32.0],[48.75,32.88],[48.0,32.88],[47.75,33.38],[47.25,32.88],[46.5,33.38],[46.12,31.75],[46.75,30.88],[48.5,30.38]]]}},{"type":"Feature","properties":{"kind":"blob","cls":4,"id":52},"geometry":{"type":"Polygon","coordinates":[[[167.5,35.88],[170.25,36.62],[171.38,38.0],[171.12,39.0],[169.5,40.12],[166.0,39.88],[164.62,38.5],[164.38,37.5],[165.5,36.12],[167.5,35.88]]]}},{"type":"Feature","properties":{"kind":"blob","cls":5,"id":53},"geometry":{"type":"Polygon","coordinates":[[[93.25,25.12],[94.38,26.25],[93.25,26.88],[92.0,26.88],[92.12,26.0],[93.25,25.12]]]}},{"type":"Feature","properties":{"kind":"blob","cls":4,"id":54},"geometry":{"type":"Polygon","coordinates":[[[95.25,25.12],[95.62,25.5],[95.25,25.62],[95.25,25.12]]]}},{"type":"Feature","properties":{"kind":"blob","cls":1,"id":55},"geometry":{"type":"Polygon","coordinates":[[[65.88,29.25],[65.75,29.88],[65.62,29.5],[65.88,29.25]]]}},{"type":"Feature","properties":{"kind":"blob","cls":1,"id":56},"geometry":{"type":"Polygon","coordinates":[[[13.62,-17.25],[13.75,-17.38],[13.88,-17.0],[13.62,-17.25]]]}},{"type":"Feature","properties":{"kind":"blob","cls":4,"id":57},"geometry":{"type":"Polygon","coordinates":[[[-64.38,-22.5],[-64.25,-22.88],[-63.38,-22.0],[-63.38,-21.0],[-64.0,-20.62],[-64.12,-21.25],[-63.62,-21.75],[-64.38,-22.5]]]}},{"type":"Feature","properties":{"kind":"blob","cls":1,"id":58},"geometry":{"type":"Polygon","coordinates":[[[13.88,-19.25],[14.0,-19.38],[14.12,-19.25],[13.88,-19.25]]]}},{"type":"Feature","properties":{"kind":"blob","cls":3,"id":59},"geometry":{"type":"MultiPolygon","coordinates":[[[[61.0,30.12],[60.88,30.0],[61.0,29.88],[61.0,30.12]]],[[[60.62,30.25],[60.75,30.12],[60.88,30.5],[60.62,30.25]]]]}},{"type":"Feature","properties":{"kind":"blob","cls":4,"id":60},"geometry":{"type":"MultiPolygon","coordinates":[[[[-65.62,-27.0],[-65.25,-27.12],[-64.88,-26.75],[-65.25,-26.12],[-65.62,-27.0]]],[[[-64.75,-26.62],[-64.38,-26.25],[-64.5,-24.62],[-65.12,-25.75],[-64.75,-26.62]]],[[[-64.88,-25.0],[-65.0,-24.88],[-65.12,-25.0],[-64.88,-25.0]]],[[[-64.62,-24.5],[-64.75,-24.38],[-64.88,-24.5],[-64.62,-24.5]]]]}},{"type":"Feature","properties":{"kind":"blob","cls":4,"id":61},"geometry":{"type":"Polygon","coordinates":[[[-70.62,-28.25],[-70.5,-28.38],[-70.38,-28.25],[-70.62,-28.25]]]}},{"type":"Feature","properties":{"kind":"blob","cls":3,"id":62},"geometry":{"type":"Polygon","coordinates":[[[60.38,31.0],[60.5,30.88],[60.62,31.0],[60.38,31.0]]]}},{"type":"Feature","properties":{"kind":"blob","cls":4,"id":63},"geometry":{"type":"Polygon","coordinates":[[[-68.38,-30.25],[-68.25,-30.38],[-68.12,-30.0],[-68.38,-30.25]]]}},{"type":"Feature","properties":{"kind":"blob","cls":3,"id":64},"geometry":{"type":"MultiPolygon","coordinates":[[[[61.0,32.88],[60.88,32.75],[61.0,32.62],[61.0,32.88]]],[[[61.12,33.0],[61.25,32.88],[61.62,33.5],[61.12,33.0]]]]}},{"type":"Feature","properties":{"kind":"center","id":1,"lat":61.5,"lon":-180.0,"mslp":943.8,"hvtl":127.6,"hvtu":99.4,"hb":8.1,"idx":2.5,"cls":0,"psfc":943.8,"terrain":false,"radius_km":200,"name":"sym deep warm","track":"T02"},"geometry":{"type":"Point","coordinates":[-180.0,61.5]}},{"type":"Feature","properties":{"kind":"center","id":2,"lat":-61.25,"lon":-135.0,"mslp":949.6,"hvtl":58.8,"hvtu":-88.6,"hb":-12.0,"idx":0.3,"cls":1,"psfc":949.6,"terrain":false,"radius_km":200,"name":"sym shallow warm","track":"T11"},"geometry":{"type":"Point","coordinates":[-135.0,-61.25]}},{"type":"Feature","properties":{"kind":"center","id":3,"lat":-59.5,"lon":48.25,"mslp":952.4,"hvtl":0.7,"hvtu":-261.9,"hb":55.2,"idx":-1.0,"cls":3,"psfc":952.3,"terrain":false,"radius_km":200,"name":"asym shallow warm","track":"T07"},"geometry":{"type":"Point","coordinates":[48.25,-59.5]}},{"type":"Feature","properties":{"kind":"center","id":4,"lat":-59.0,"lon":122.25,"mslp":953.1,"hvtl":194.6,"hvtu":15.4,"hb":34.1,"idx":2.1,"cls":2,"psfc":953.1,"terrain":false,"radius_km":200,"name":"asym deep warm","track":"T18"},"geometry":{"type":"Point","coordinates":[122.25,-59.0]}},{"type":"Feature","properties":{"kind":"center","id":5,"lat":-66.25,"lon":42.75,"mslp":958.4,"hvtl":124.8,"hvtu":-262.7,"hb":35.2,"idx":0.7,"cls":3,"psfc":958.4,"terrain":false,"radius_km":200,"name":"asym shallow warm","track":"T20"},"geometry":{"type":"Point","coordinates":[42.75,-66.25]}},{"type":"Feature","properties":{"kind":"center","id":6,"lat":-54.5,"lon":128.75,"mslp":958.5,"hvtl":-5.2,"hvtu":-184.2,"hb":14.1,"idx":-1.1,"cls":4,"psfc":958.5,"terrain":false,"radius_km":200,"name":"asym cold","track":"T22"},"geometry":{"type":"Point","coordinates":[128.75,-54.5]}},{"type":"Feature","properties":{"kind":"center","id":7,"lat":-59.0,"lon":144.5,"mslp":966.9,"hvtl":-158.0,"hvtu":-354.6,"hb":53.7,"idx":-2.8,"cls":4,"psfc":966.9,"terrain":false,"radius_km":200,"name":"asym cold","track":"T15"},"geometry":{"type":"Point","coordinates":[144.5,-59.0]}},{"type":"Feature","properties":{"kind":"center","id":8,"lat":-72.0,"lon":-69.5,"mslp":968.1,"hvtl":-110.5,"hvtu":-162.4,"hb":52.2,"idx":-2.5,"cls":4,"psfc":917.8,"terrain":false,"radius_km":200,"name":"asym cold"},"geometry":{"type":"Point","coordinates":[-69.5,-72.0]}},{"type":"Feature","properties":{"kind":"center","id":9,"lat":-69.25,"lon":-63.25,"mslp":968.6,"hvtl":-103.1,"hvtu":-320.0,"hb":33.8,"idx":-2.5,"cls":4,"psfc":929.5,"terrain":false,"radius_km":200,"name":"asym cold"},"geometry":{"type":"Point","coordinates":[-63.25,-69.25]}},{"type":"Feature","properties":{"kind":"center","id":10,"lat":15.0,"lon":160.75,"mslp":972.5,"hvtl":122.4,"hvtu":160.5,"hb":-1.1,"idx":2.6,"cls":0,"psfc":972.5,"terrain":false,"radius_km":200,"name":"sym deep warm","track":"T12"},"geometry":{"type":"Point","coordinates":[160.75,15.0]}},{"type":"Feature","properties":{"kind":"center","id":11,"lat":-74.5,"lon":-105.75,"mslp":977.2,"hvtl":-59.6,"hvtu":-258.9,"hb":32.8,"idx":-2.1,"cls":4,"psfc":977.2,"terrain":false,"radius_km":200,"name":"asym cold","track":"T29"},"geometry":{"type":"Point","coordinates":[-105.75,-74.5]}},{"type":"Feature","properties":{"kind":"center","id":12,"lat":-72.25,"lon":-11.0,"mslp":977.7,"hvtl":-137.0,"hvtu":-93.8,"hb":23.6,"idx":-2.5,"cls":4,"psfc":956.0,"terrain":false,"radius_km":200,"name":"asym cold","track":"T28"},"geometry":{"type":"Point","coordinates":[-11.0,-72.25]}},{"type":"Feature","properties":{"kind":"center","id":13,"lat":-56.75,"lon":-19.5,"mslp":979.7,"hvtl":-67.3,"hvtu":-98.8,"hb":6.7,"idx":-1.9,"cls":5,"psfc":979.7,"terrain":false,"radius_km":200,"name":"sym cold","track":"T54"},"geometry":{"type":"Point","coordinates":[-19.5,-56.75]}},{"type":"Feature","properties":{"kind":"center","id":14,"lat":66.25,"lon":-19.0,"mslp":979.7,"hvtl":260.9,"hvtu":-35.8,"hb":-43.5,"idx":1.6,"cls":1,"psfc":978.7,"terrain":false,"radius_km":200,"name":"sym shallow warm","track":"T62"},"geometry":{"type":"Point","coordinates":[-19.0,66.25]}},{"type":"Feature","properties":{"kind":"center","id":15,"lat":-71.75,"lon":-3.5,"mslp":980.2,"hvtl":-117.7,"hvtu":-98.9,"hb":28.9,"idx":-2.4,"cls":4,"psfc":900.3,"terrain":false,"radius_km":200,"name":"asym cold","track":"T05"},"geometry":{"type":"Point","coordinates":[-3.5,-71.75]}},{"type":"Feature","properties":{"kind":"center","id":16,"lat":-71.5,"lon":-4.25,"mslp":980.3,"hvtl":-124.9,"hvtu":-103.7,"hb":29.7,"idx":-2.5,"cls":4,"psfc":910.7,"terrain":false,"radius_km":200,"name":"asym cold"},"geometry":{"type":"Point","coordinates":[-4.25,-71.5]}},{"type":"Feature","properties":{"kind":"center","id":17,"lat":-63.0,"lon":81.25,"mslp":981.2,"hvtl":-364.8,"hvtu":-274.0,"hb":89.6,"idx":-3.0,"cls":4,"psfc":981.2,"terrain":false,"radius_km":200,"name":"asym cold","track":"T30"},"geometry":{"type":"Point","coordinates":[81.25,-63.0]}},{"type":"Feature","properties":{"kind":"center","id":18,"lat":-79.5,"lon":-78.25,"mslp":982.1,"hvtl":-258.3,"hvtu":16.3,"hb":47.4,"idx":-1.8,"cls":6,"psfc":924.9,"terrain":false,"radius_km":200,"name":"shallow cold","track":"T58"},"geometry":{"type":"Point","coordinates":[-78.25,-79.5]}},{"type":"Feature","properties":{"kind":"center","id":19,"lat":-81.5,"lon":-178.25,"mslp":983.3,"hvtl":71.7,"hvtu":-100.5,"hb":27.7,"idx":0.5,"cls":3,"psfc":976.3,"terrain":false,"radius_km":200,"name":"asym shallow warm","track":"T66"},"geometry":{"type":"Point","coordinates":[-178.25,-81.5]}},{"type":"Feature","properties":{"kind":"center","id":20,"lat":-70.5,"lon":162.5,"mslp":983.3,"hvtl":-214.2,"hvtu":-322.6,"hb":68.6,"idx":-2.9,"cls":4,"psfc":904.4,"terrain":false,"radius_km":200,"name":"asym cold","track":"T46"},"geometry":{"type":"Point","coordinates":[162.5,-70.5]}},{"type":"Feature","properties":{"kind":"center","id":21,"lat":77.75,"lon":49.75,"mslp":986.5,"hvtl":27.3,"hvtu":-26.2,"hb":9.3,"idx":0.3,"cls":1,"psfc":986.5,"terrain":false,"radius_km":200,"name":"sym shallow warm","track":"T50"},"geometry":{"type":"Point","coordinates":[49.75,77.75]}},{"type":"Feature","properties":{"kind":"center","id":22,"lat":-45.0,"lon":-94.25,"mslp":990.0,"hvtl":32.9,"hvtu":-193.0,"hb":31.9,"idx":-0.3,"cls":3,"psfc":990.0,"terrain":false,"radius_km":200,"name":"asym shallow warm","track":"T74"},"geometry":{"type":"Point","coordinates":[-94.25,-45.0]}},{"type":"Feature","properties":{"kind":"center","id":23,"lat":17.25,"lon":145.5,"mslp":990.4,"hvtl":51.7,"hvtu":91.1,"hb":3.8,"idx":1.7,"cls":0,"psfc":990.4,"terrain":false,"radius_km":200,"name":"sym deep warm","track":"T06"},"geometry":{"type":"Point","coordinates":[145.5,17.25]}},{"type":"Feature","properties":{"kind":"center","id":24,"lat":23.75,"lon":-126.5,"mslp":994.1,"hvtl":77.6,"hvtu":46.5,"hb":5.9,"idx":1.7,"cls":0,"psfc":994.1,"terrain":false,"radius_km":200,"name":"sym deep warm","track":"T42"},"geometry":{"type":"Point","coordinates":[-126.5,23.75]}},{"type":"Feature","properties":{"kind":"center","id":25,"lat":30.0,"lon":-177.5,"mslp":994.6,"hvtl":48.7,"hvtu":-114.7,"hb":6.8,"idx":0.1,"cls":1,"psfc":994.6,"terrain":false,"radius_km":200,"name":"sym shallow warm","track":"T70"},"geometry":{"type":"Point","coordinates":[-177.5,30.0]}},{"type":"Feature","properties":{"kind":"center","id":26,"lat":62.25,"lon":37.0,"mslp":994.6,"hvtl":20.3,"hvtu":-120.9,"hb":65.4,"idx":-0.4,"cls":3,"psfc":976.6,"terrain":false,"radius_km":200,"name":"asym shallow warm","track":"T81"},"geometry":{"type":"Point","coordinates":[37.0,62.25]}},{"type":"Feature","properties":{"kind":"center","id":27,"lat":73.75,"lon":149.25,"mslp":995.9,"hvtl":-28.0,"hvtu":-168.9,"hb":34.9,"idx":-1.5,"cls":4,"psfc":995.9,"terrain":false,"radius_km":200,"name":"asym cold","track":"T88"},"geometry":{"type":"Point","coordinates":[149.25,73.75]}},{"type":"Feature","properties":{"kind":"center","id":28,"lat":50.75,"lon":-112.0,"mslp":997.0,"hvtl":-204.0,"hvtu":-144.6,"hb":87.4,"idx":-2.8,"cls":4,"psfc":913.7,"terrain":false,"radius_km":200,"name":"asym cold","track":"T72"},"geometry":{"type":"Point","coordinates":[-112.0,50.75]}},{"type":"Feature","properties":{"kind":"center","id":29,"lat":54.5,"lon":-117.25,"mslp":998.0,"hvtl":92.2,"hvtu":-283.2,"hb":68.9,"idx":0.5,"cls":3,"psfc":903.1,"terrain":true,"radius_km":200,"name":"asym shallow warm"},"geometry":{"type":"Point","coordinates":[-117.25,54.5]}},{"type":"Feature","properties":{"kind":"center","id":30,"lat":57.5,"lon":-78.75,"mslp":999.1,"hvtl":63.5,"hvtu":-2.7,"hb":-7.1,"idx":1.1,"cls":1,"psfc":999.1,"terrain":false,"radius_km":200,"name":"sym shallow warm","track":"T87"},"geometry":{"type":"Point","coordinates":[-78.75,57.5]}},{"type":"Feature","properties":{"kind":"center","id":31,"lat":59.5,"lon":-152.5,"mslp":1000.0,"hvtl":-176.9,"hvtu":-234.2,"hb":41.9,"idx":-2.9,"cls":4,"psfc":1000.0,"terrain":false,"radius_km":200,"name":"asym cold"},"geometry":{"type":"Point","coordinates":[-152.5,59.5]}},{"type":"Feature","properties":{"kind":"center","id":32,"lat":59.5,"lon":10.5,"mslp":1001.4,"hvtl":-218.0,"hvtu":-244.8,"hb":48.9,"idx":-2.9,"cls":4,"psfc":992.9,"terrain":false,"radius_km":200,"name":"asym cold","track":"T77"},"geometry":{"type":"Point","coordinates":[10.5,59.5]}},{"type":"Feature","properties":{"kind":"center","id":33,"lat":62.75,"lon":-37.75,"mslp":1001.4,"hvtl":-112.3,"hvtu":-171.1,"hb":36.4,"idx":-2.6,"cls":4,"psfc":1001.4,"terrain":false,"radius_km":200,"name":"asym cold","track":"T65"},"geometry":{"type":"Point","coordinates":[-37.75,62.75]}},{"type":"Feature","properties":{"kind":"center","id":34,"lat":37.75,"lon":-58.25,"mslp":1002.5,"hvtl":-77.5,"hvtu":-252.1,"hb":35.4,"idx":-2.3,"cls":4,"psfc":1002.5,"terrain":false,"radius_km":200,"name":"asym cold","track":"T105"},"geometry":{"type":"Point","coordinates":[-58.25,37.75]}},{"type":"Feature","properties":{"kind":"center","id":35,"lat":29.0,"lon":67.75,"mslp":1003.4,"hvtl":-7.8,"hvtu":-49.8,"hb":4.0,"idx":-0.6,"cls":5,"psfc":993.3,"terrain":false,"radius_km":200,"name":"sym cold","track":"T113"},"geometry":{"type":"Point","coordinates":[67.75,29.0]}},{"type":"Feature","properties":{"kind":"center","id":36,"lat":81.5,"lon":-176.5,"mslp":1003.6,"hvtl":-51.3,"hvtu":-94.5,"hb":-16.8,"idx":-1.7,"cls":5,"psfc":1003.6,"terrain":false,"radius_km":200,"name":"sym cold","track":"T96"},"geometry":{"type":"Point","coordinates":[-176.5,81.5]}},{"type":"Feature","properties":{"kind":"center","id":37,"lat":-24.5,"lon":-55.5,"mslp":1004.7,"hvtl":-72.5,"hvtu":-116.9,"hb":58.7,"idx":-2.1,"cls":4,"psfc":976.9,"terrain":false,"radius_km":200,"name":"asym cold"},"geometry":{"type":"Point","coordinates":[-55.5,-24.5]}},{"type":"Feature","properties":{"kind":"center","id":38,"lat":35.0,"lon":160.25,"mslp":1005.0,"hvtl":130.5,"hvtu":-157.0,"hb":55.9,"idx":0.8,"cls":3,"psfc":1005.0,"terrain":false,"radius_km":200,"name":"asym shallow warm","track":"T44"},"geometry":{"type":"Point","coordinates":[160.25,35.0]}},{"type":"Feature","properties":{"kind":"center","id":39,"lat":61.75,"lon":97.25,"mslp":1005.4,"hvtl":-11.7,"hvtu":-10.0,"hb":11.8,"idx":-0.3,"cls":4,"psfc":952.4,"terrain":false,"radius_km":200,"name":"asym cold","track":"T100"},"geometry":{"type":"Point","coordinates":[97.25,61.75]}},{"type":"Feature","properties":{"kind":"center","id":40,"lat":14.5,"lon":-102.75,"mslp":1005.8,"hvtl":63.3,"hvtu":26.6,"hb":8.3,"idx":1.4,"cls":0,"psfc":1005.8,"terrain":false,"radius_km":200,"name":"sym deep warm","track":"T104"},"geometry":{"type":"Point","coordinates":[-102.75,14.5]}},{"type":"Feature","properties":{"kind":"center","id":41,"lat":12.0,"lon":-102.25,"mslp":1006.6,"hvtl":78.5,"hvtu":16.8,"hb":-7.1,"idx":1.5,"cls":0,"psfc":1006.6,"terrain":false,"radius_km":200,"name":"sym deep warm","track":"T115"},"geometry":{"type":"Point","coordinates":[-102.25,12.0]}},{"type":"Feature","properties":{"kind":"center","id":42,"lat":13.25,"lon":40.75,"mslp":1007.9,"hvtl":73.1,"hvtu":1.3,"hb":10.7,"idx":1.3,"cls":2,"psfc":1010.5,"terrain":false,"radius_km":200,"name":"asym deep warm"},"geometry":{"type":"Point","coordinates":[40.75,13.25]}},{"type":"Feature","properties":{"kind":"center","id":43,"lat":30.25,"lon":58.5,"mslp":1008.3,"hvtl":105.5,"hvtu":-61.4,"hb":26.6,"idx":1.0,"cls":3,"psfc":973.8,"terrain":false,"radius_km":200,"name":"asym shallow warm","track":"T114"},"geometry":{"type":"Point","coordinates":[58.5,30.25]}},{"type":"Feature","properties":{"kind":"center","id":44,"lat":76.25,"lon":-74.75,"mslp":1008.3,"hvtl":-117.6,"hvtu":-106.5,"hb":56.3,"idx":-2.4,"cls":4,"psfc":1008.3,"terrain":false,"radius_km":200,"name":"asym cold","track":"T112"},"geometry":{"type":"Point","coordinates":[-74.75,76.25]}},{"type":"Feature","properties":{"kind":"center","id":45,"lat":-36.75,"lon":-41.75,"mslp":1008.9,"hvtl":-38.4,"hvtu":-330.3,"hb":90.8,"idx":-1.7,"cls":4,"psfc":1008.9,"terrain":false,"radius_km":200,"name":"asym cold","track":"T110"},"geometry":{"type":"Point","coordinates":[-41.75,-36.75]}},{"type":"Feature","properties":{"kind":"center","id":46,"lat":-28.0,"lon":-66.5,"mslp":1009.4,"hvtl":-25.2,"hvtu":-143.3,"hb":32.6,"idx":-1.4,"cls":4,"psfc":923.2,"terrain":false,"radius_km":200,"name":"asym cold","track":"T127"},"geometry":{"type":"Point","coordinates":[-66.5,-28.0]}},{"type":"Feature","properties":{"kind":"center","id":47,"lat":-15.75,"lon":-66.5,"mslp":1009.6,"hvtl":-184.4,"hvtu":-97.1,"hb":36.4,"idx":-2.7,"cls":4,"psfc":960.7,"terrain":false,"radius_km":200,"name":"asym cold","track":"T91"},"geometry":{"type":"Point","coordinates":[-66.5,-15.75]}},{"type":"Feature","properties":{"kind":"center","id":48,"lat":-34.5,"lon":167.25,"mslp":1009.7,"hvtl":-83.5,"hvtu":-75.7,"hb":19.0,"idx":-2.0,"cls":4,"psfc":1009.7,"terrain":false,"radius_km":200,"name":"asym cold","track":"T120"},"geometry":{"type":"Point","coordinates":[167.25,-34.5]}},{"type":"Feature","properties":{"kind":"center","id":49,"lat":28.5,"lon":65.5,"mslp":1010.1,"hvtl":36.2,"hvtu":-36.4,"hb":-2.7,"idx":0.3,"cls":1,"psfc":930.0,"terrain":false,"radius_km":200,"name":"sym shallow warm","track":"T103"},"geometry":{"type":"Point","coordinates":[65.5,28.5]}},{"type":"Feature","properties":{"kind":"center","id":50,"lat":28.0,"lon":58.5,"mslp":1010.4,"hvtl":35.1,"hvtu":-62.1,"hb":3.3,"idx":0.1,"cls":1,"psfc":947.8,"terrain":false,"radius_km":200,"name":"sym shallow warm","track":"T119"},"geometry":{"type":"Point","coordinates":[58.5,28.0]}},{"type":"Feature","properties":{"kind":"center","id":51,"lat":32.25,"lon":48.25,"mslp":1010.4,"hvtl":-83.2,"hvtu":-109.7,"hb":27.6,"idx":-2.2,"cls":4,"psfc":999.8,"terrain":false,"radius_km":200,"name":"asym cold"},"geometry":{"type":"Point","coordinates":[48.25,32.25]}},{"type":"Feature","properties":{"kind":"center","id":52,"lat":38.25,"lon":168.75,"mslp":1010.5,"hvtl":-208.7,"hvtu":-150.3,"hb":70.6,"idx":-2.8,"cls":4,"psfc":1010.5,"terrain":false,"radius_km":200,"name":"asym cold"},"geometry":{"type":"Point","coordinates":[168.75,38.25]}},{"type":"Feature","properties":{"kind":"center","id":53,"lat":26.5,"lon":92.5,"mslp":1011.4,"hvtl":-32.4,"hvtu":-80.8,"hb":6.6,"idx":-1.3,"cls":5,"psfc":1004.2,"terrain":false,"radius_km":200,"name":"sym cold","track":"T124"},"geometry":{"type":"Point","coordinates":[92.5,26.5]}},{"type":"Feature","properties":{"kind":"center","id":54,"lat":25.5,"lon":95.5,"mslp":1011.4,"hvtl":-26.0,"hvtu":-103.7,"hb":12.8,"idx":-1.3,"cls":4,"psfc":987.6,"terrain":false,"radius_km":200,"name":"asym cold","track":"T122"},"geometry":{"type":"Point","coordinates":[95.5,25.5]}},{"type":"Feature","properties":{"kind":"center","id":55,"lat":29.25,"lon":65.5,"mslp":1011.5,"hvtl":27.6,"hvtu":-39.5,"hb":0.2,"idx":0.2,"cls":1,"psfc":913.8,"terrain":true,"radius_km":200,"name":"sym shallow warm"},"geometry":{"type":"Point","coordinates":[65.5,29.25]}},{"type":"Feature","properties":{"kind":"center","id":56,"lat":-17.0,"lon":13.75,"mslp":1012.5,"hvtl":19.1,"hvtu":-59.7,"hb":-10.9,"idx":-0.2,"cls":1,"psfc":908.6,"terrain":true,"radius_km":200,"name":"sym shallow warm"},"geometry":{"type":"Point","coordinates":[13.75,-17.0]}},{"type":"Feature","properties":{"kind":"center","id":57,"lat":-21.25,"lon":-63.5,"mslp":1012.6,"hvtl":-115.2,"hvtu":-262.2,"hb":52.3,"idx":-2.6,"cls":4,"psfc":939.7,"terrain":false,"radius_km":200,"name":"asym cold","track":"T132"},"geometry":{"type":"Point","coordinates":[-63.5,-21.25]}},{"type":"Feature","properties":{"kind":"center","id":58,"lat":-19.25,"lon":14.0,"mslp":1013.1,"hvtl":14.8,"hvtu":-76.7,"hb":1.8,"idx":-0.4,"cls":1,"psfc":907.5,"terrain":true,"radius_km":200,"name":"sym shallow warm"},"geometry":{"type":"Point","coordinates":[14.0,-19.25]}},{"type":"Feature","properties":{"kind":"center","id":59,"lat":30.0,"lon":61.0,"mslp":1013.6,"hvtl":89.8,"hvtu":-38.3,"hb":20.8,"idx":1.1,"cls":3,"psfc":948.1,"terrain":false,"radius_km":200,"name":"asym shallow warm","track":"T121"},"geometry":{"type":"Point","coordinates":[61.0,30.0]}},{"type":"Feature","properties":{"kind":"center","id":60,"lat":-24.5,"lon":-64.75,"mslp":1014.0,"hvtl":-69.4,"hvtu":-249.8,"hb":29.5,"idx":-2.2,"cls":4,"psfc":927.4,"terrain":false,"radius_km":200,"name":"asym cold"},"geometry":{"type":"Point","coordinates":[-64.75,-24.5]}},{"type":"Feature","properties":{"kind":"center","id":61,"lat":-28.25,"lon":-70.5,"mslp":1014.2,"hvtl":-82.5,"hvtu":-186.6,"hb":59.8,"idx":-2.3,"cls":4,"psfc":902.1,"terrain":true,"radius_km":200,"name":"asym cold"},"geometry":{"type":"Point","coordinates":[-70.5,-28.25]}},{"type":"Feature","properties":{"kind":"center","id":62,"lat":31.0,"lon":60.5,"mslp":1014.6,"hvtl":115.3,"hvtu":-52.2,"hb":39.0,"idx":1.2,"cls":3,"psfc":914.4,"terrain":true,"radius_km":200,"name":"asym shallow warm"},"geometry":{"type":"Point","coordinates":[60.5,31.0]}},{"type":"Feature","properties":{"kind":"center","id":63,"lat":-30.0,"lon":-68.25,"mslp":1015.2,"hvtl":-12.6,"hvtu":-196.6,"hb":48.6,"idx":-1.2,"cls":4,"psfc":908.6,"terrain":true,"radius_km":200,"name":"asym cold"},"geometry":{"type":"Point","coordinates":[-68.25,-30.0]}},{"type":"Feature","properties":{"kind":"center","id":64,"lat":32.75,"lon":61.0,"mslp":1015.7,"hvtl":161.8,"hvtu":-67.8,"hb":81.8,"idx":1.3,"cls":3,"psfc":940.4,"terrain":false,"radius_km":200,"name":"asym shallow warm"},"geometry":{"type":"Point","coordinates":[61.0,32.75]}}]}