{"type":"FeatureCollection","features":[{"type":"Feature","properties":{"kind":"blob","cls":1,"id":1},"geometry":{"type":"Polygon","coordinates":[[[109.5,-65.38],[113.5,-65.38],[114.75,-64.88],[115.88,-63.5],[115.0,-62.38],[112.5,-61.62],[108.25,-61.88],[106.38,-63.0],[106.5,-63.38],[108.0,-63.62],[108.88,-64.25],[107.25,-64.88],[109.5,-65.38]]]}},{"type":"Feature","properties":{"kind":"blob","cls":4,"id":2},"geometry":{"type":"Polygon","coordinates":[[[-134.5,-75.12],[-131.25,-74.62],[-128.25,-73.62],[-127.38,-72.75],[-127.38,-72.0],[-128.0,-71.38],[-130.5,-70.38],[-135.75,-69.88],[-144.0,-71.62],[-146.12,-73.0],[-146.12,-73.5],[-145.0,-74.38],[-134.5,-75.12]]]}},{"type":"Feature","properties":{"kind":"blob","cls":4,"id":3},"geometry":{"type":"Polygon","coordinates":[[[-136.5,-57.38],[-134.75,-56.88],[-133.88,-56.0],[-133.88,-54.75],[-134.75,-53.88],[-138.25,-53.12],[-140.5,-53.38],[-142.12,-54.5],[-142.12,-55.5],[-141.5,-56.12],[-136.5,-57.38]]]}},{"type":"Feature","properties":{"kind":"blob","cls":6,"id":4},"geometry":{"type":"Polygon","coordinates":[[[-132.0,-65.88],[-129.5,-65.12],[-128.62,-64.25],[-128.88,-63.25],[-127.38,-62.0],[-127.38,-61.5],[-128.5,-60.38],[-130.5,-59.38],[-134.5,-59.38],[-135.5,-58.62],[-137.25,-58.12],[-139.25,-58.12],[-141.88,-59.25],[-142.12,-60.5],[-141.25,-61.62],[-139.5,-62.12],[-138.75,-62.88],[-137.5,-62.12],[-136.5,-62.12],[-135.88,-62.75],[-136.38,-64.75],[-135.0,-65.62],[-132.0,-65.88]]]}},{"type":"Feature","properties":{"kind":"blob","cls":3,"id":5},"geometry":{"type":"Polygon","coordinates":[[[-17.75,-52.38],[-16.25,-51.88],[-15.38,-50.75],[-15.88,-49.25],[-17.5,-47.88],[-18.5,-47.62],[-20.75,-47.88],[-21.5,-48.38],[-22.38,-49.5],[-22.38,-50.25],[-21.0,-51.88],[-17.75,-52.38]]]}},{"type":"Feature","properties":{"kind":"blob","cls":4,"id":6},"geometry":{"type":"Polygon","coordinates":[[[65.0,-61.38],[66.75,-60.88],[68.12,-59.25],[67.0,-57.88],[65.25,-57.38],[58.25,-57.62],[56.5,-58.12],[55.38,-59.25],[55.38,-59.75],[56.75,-61.12],[65.0,-61.38]]]}},{"type":"Feature","properties":{"kind":"blob","cls":4,"id":7},"geometry":{"type":"Polygon","coordinates":[[[160.5,-68.88],[166.25,-68.88],[167.5,-68.38],[168.38,-67.5],[168.38,-67.0],[167.5,-66.12],[166.25,-65.62],[161.25,-64.88],[156.75,-65.12],[155.5,-65.62],[154.62,-66.5],[154.62,-67.0],[155.5,-67.88],[156.5,-68.38],[160.5,-68.88]]]}},{"type":"Feature","properties":{"kind":"blob","cls":0,"id":8},"geometry":{"type":"MultiPolygon","coordinates":[[[[146.0,17.62],[147.38,18.5],[147.62,20.0],[146.75,21.12],[144.75,21.12],[144.38,20.75],[145.25,20.62],[145.38,20.25],[144.75,19.62],[143.88,20.0],[144.12,18.5],[146.0,17.62]]],[[[144.12,20.25],[144.25,20.12],[144.38,20.5],[144.12,20.25]]]]}},{"type":"Feature","properties":{"kind":"blob","cls":3,"id":9},"geometry":{"type":"Polygon","coordinates":[[[21.75,-65.12],[25.25,-65.12],[26.5,-64.62],[27.38,-63.5],[26.25,-62.12],[23.75,-61.38],[20.5,-61.62],[18.62,-62.75],[18.62,-63.75],[19.5,-64.62],[21.75,-65.12]]]}},{"type":"Feature","properties":{"kind":"blob","cls":1,"id":10},"geometry":{"type":"Polygon","coordinates":[[[165.5,49.38],[167.0,49.88],[167.88,50.75],[167.88,52.0],[167.0,52.88],[165.5,53.38],[162.5,52.88],[161.62,52.0],[161.62,51.0],[162.75,49.88],[165.5,49.38]]]}},{"type":"Feature","properties":{"kind":"blob","cls":4,"id":11},"geometry":{"type":"Polygon","coordinates":[[[-30.0,-76.88],[-26.5,-76.12],[-22.0,-75.88],[-19.5,-74.62],[-15.62,-73.75],[-17.5,-72.88],[-21.0,-72.38],[-28.75,-72.38],[-32.5,-73.62],[-33.88,-74.5],[-33.5,-75.88],[-30.0,-76.88]]]}},{"type":"Feature","properties":{"kind":"blob","cls":1,"id":12},"geometry":{"type":"Polygon","coordinates":[[[-1.75,-68.38],[1.75,-67.62],[5.75,-67.38],[6.38,-66.5],[5.75,-65.62],[4.0,-64.88],[-1.0,-64.62],[-4.0,-65.62],[-4.62,-66.5],[-4.62,-67.0],[-3.75,-67.88],[-1.75,-68.38]]]}},{"type":"Feature","properties":{"kind":"blob","cls":4,"id":13},"geometry":{"type":"Polygon","coordinates":[[[106.25,-54.38],[107.75,-53.88],[108.62,-53.0],[108.62,-51.75],[107.75,-50.88],[105.5,-50.12],[103.0,-50.62],[102.12,-51.5],[102.12,-53.0],[103.0,-53.88],[106.25,-54.38]]]}},{"type":"Feature","properties":{"kind":"blob","cls":4,"id":14},"geometry":{"type":"Polygon","coordinates":[[[-154.5,-53.88],[-153.0,-53.38],[-151.62,-52.0],[-151.62,-51.0],[-152.5,-50.12],[-154.0,-49.62],[-155.75,-49.62],[-157.25,-50.12],[-158.12,-51.0],[-158.12,-52.25],[-157.0,-53.38],[-154.5,-53.88]]]}},{"type":"Feature","properties":{"kind":"blob","cls":5,"id":15},"geometry":{"type":"Polygon","coordinates":[[[16.75,-70.38],[25.5,-70.38],[27.75,-69.62],[34.75,-68.38],[35.12,-68.0],[33.0,-67.88],[29.75,-68.38],[27.0,-67.62],[20.5,-67.88],[17.25,-68.62],[16.38,-69.5],[16.75,-70.38]]]}},{"type":"Feature","properties":{"kind":"blob","cls":4,"id":16},"geometry":{"type":"MultiPolygon","coordinates":[[[[36.38,-67.75],[37.12,-67.75],[37.0,-67.62],[36.38,-67.75]]],[[[40.62,-68.0],[40.75,-68.62],[41.75,-68.62],[44.5,-67.88],[51.0,-67.38],[51.38,-67.0],[51.12,-66.5],[52.0,-66.12],[55.25,-66.12],[55.88,-66.5],[56.0,-67.12],[58.25,-67.38],[59.0,-67.38],[59.38,-66.5],[58.5,-65.62],[57.25,-65.12],[52.75,-64.88],[50.5,-65.38],[49.25,-66.38],[47.5,-65.88],[45.5,-65.88],[40.25,-66.62],[38.5,-67.38],[37.12,-67.5],[40.62,-68.0]]]]}},{"type":"Feature","properties":{"kind":"blob","cls":4,"id":17},"geometry":{"type":"Polygon","coordinates":[[[-112.25,-59.38],[-109.88,-58.25],[-109.62,-56.5],[-111.0,-54.62],[-112.75,-54.12],[-115.0,-54.38],[-116.62,-55.75],[-117.12,-56.75],[-116.62,-58.0],[-115.0,-59.12],[-112.25,-59.38]]]}},{"type":"Feature","properties":{"kind":"blob","cls":0,"id":18},"geometry":{"type":"Polygon","coordinates":[[[-110.5,17.62],[-109.62,18.75],[-109.88,20.5],[-111.25,21.38],[-112.5,21.12],[-113.38,20.0],[-113.25,19.12],[-112.0,19.88],[-111.12,19.5],[-111.5,18.38],[-112.88,18.0],[-110.5,17.62]]]}},{"type":"Feature","properties":{"kind":"blob","cls":6,"id":19},"geometry":{"type":"Polygon","coordinates":[[[156.62,-69.25],[156.75,-69.38],[156.88,-69.25],[156.62,-69.25]]]}},{"type":"Feature","properties":{"kind":"blob","cls":3,"id":20},"geometry":{"type":"Polygon","coordinates":[[[-20.25,-61.88],[-18.5,-61.38],[-17.62,-60.75],[-17.38,-59.75],[-18.5,-58.62],[-20.75,-57.88],[-24.0,-58.12],[-25.88,-59.5],[-25.88,-60.0],[-24.75,-61.12],[-20.25,-61.88]]]}},{"type":"Feature","properties":{"kind":"blob","cls":6,"id":21},"geometry":{"type":"Polygon","coordinates":[[[126.0,73.62],[128.0,74.12],[129.38,75.25],[128.0,76.38],[126.0,76.88],[119.75,77.12],[115.5,76.38],[114.12,75.25],[114.5,74.62],[116.25,73.88],[126.0,73.62]],[[118.0,74.12],[117.12,74.75],[120.0,74.88],[120.62,74.5],[120.5,74.12],[118.0,74.12]]]}},{"type":"Feature","properties":{"kind":"blob","cls":0,"id":22},"geometry":{"type":"Polygon","coordinates":[[[-170.25,21.88],[-167.75,21.88],[-167.12,22.5],[-167.12,24.0],[-168.75,25.12],[-170.0,24.88],[-170.88,24.0],[-170.88,22.5],[-170.25,21.88]]]}},{"type":"Feature","properties":{"kind":"blob","cls":6,"id":23},"geometry":{"type":"Polygon","coordinates":[[[153.75,-69.12],[155.12,-69.0],[155.0,-68.88],[153.75,-69.12]]]}},{"type":"Feature","properties":{"kind":"blob","cls":4,"id":24},"geometry":{"type":"Polygon","coordinates":[[[-39.5,58.38],[-37.0,58.12],[-33.5,59.12],[-31.38,60.75],[-31.38,61.75],[-33.0,62.88],[-34.25,63.12],[-37.25,63.12],[-39.25,62.62],[-41.25,61.62],[-42.12,60.5],[-41.75,59.12],[-39.5,58.38]]]}},{"type":"Feature","properties":{"kind":"blob","cls":4,"id":25},"geometry":{"type":"Polygon","coordinates":[[[-79.5,-78.62],[-73.0,-78.62],[-70.0,-77.88],[-69.38,-76.75],[-70.0,-76.12],[-72.5,-76.12],[-71.88,-75.75],[-73.0,-75.38],[-81.75,-75.38],[-80.88,-76.0],[-81.5,-76.38],[-79.75,-76.38],[-77.88,-77.0],[-78.0,-77.38],[-80.12,-77.5],[-79.5,-78.62]]]}},{"type":"Feature","properties":{"kind":"blob","cls":0,"id":26},"geometry":{"type":"Polygon","coordinates":[[[-57.5,60.62],[-55.5,61.12],[-53.38,62.75],[-53.12,63.5],[-53.62,64.25],[-52.12,65.5],[-53.12,66.25],[-52.75,66.62],[-51.25,66.38],[-50.12,66.75],[-51.88,70.25],[-53.62,70.5],[-52.25,70.62],[-52.5,71.38],[-57.5,71.12],[-59.0,70.62],[-59.88,69.75],[-59.88,69.25],[-59.0,68.38],[-55.88,67.75],[-59.25,67.38],[-60.5,66.88],[-61.38,66.0],[-61.12,65.25],[-61.5,64.88],[-63.0,64.38],[-63.88,63.5],[-63.88,62.25],[-63.25,61.62],[-61.75,60.88],[-57.5,60.62]],[[-55.62,67.5],[-54.62,67.5],[-54.75,67.38],[-55.62,67.5]],[[-54.12,70.0],[-53.0,70.12],[-52.62,69.75],[-54.12,70.0]],[[-52.75,67.12],[-52.88,67.25],[-52.5,67.38],[-52.75,67.12]]]}},{"type":"Feature","properties":{"kind":"blob","cls":5,"id":27},"geometry":{"type":"MultiPolygon","coordinates":[[[[-82.25,-49.12],[-82.38,-49.25],[-82.25,-49.38],[-82.25,-49.12]]],[[[-85.0,-51.38],[-83.25,-50.62],[-82.38,-49.5],[-84.12,-49.25],[-82.75,-48.38],[-82.0,-48.38],[-81.88,-47.75],[-82.75,-46.88],[-84.5,-46.12],[-87.5,-46.12],[-88.75,-46.62],[-89.88,-47.75],[-89.88,-49.0],[-88.75,-50.38],[-85.0,-51.38]]]]}},{"type":"Feature","properties":{"kind":"blob","cls":4,"id":28},"geometry":{"type":"Polygon","coordinates":[[[145.25,73.62],[148.75,74.12],[150.25,74.62],[150.88,75.75],[149.25,76.88],[147.25,77.38],[141.75,77.62],[137.25,76.88],[135.88,75.75],[136.25,75.12],[138.75,74.12],[145.25,73.62]]]}},{"type":"Feature","properties":{"kind":"blob","cls":4,"id":29},"geometry":{"type":"Polygon","coordinates":[[[-65.88,72.5],[-65.75,72.12],[-61.5,72.12],[-58.25,72.62],[-56.12,73.5],[-58.75,74.62],[-61.0,76.38],[-66.25,76.38],[-67.25,76.88],[-69.25,76.88],[-72.0,76.12],[-73.38,75.0],[-73.0,74.12],[-69.75,72.88],[-64.5,74.88],[-62.75,74.88],[-62.38,74.5],[-63.25,73.62],[-65.88,72.5]]]}},{"type":"Feature","properties":{"kind":"blob","cls":4,"id":30},"geometry":{"type":"Polygon","coordinates":[[[-19.0,71.62],[-14.5,72.38],[-11.25,73.62],[-10.38,74.5],[-10.38,75.0],[-11.0,75.88],[-14.0,76.88],[-19.0,77.38],[-23.75,77.12],[-23.88,76.5],[-23.5,76.12],[-20.88,75.75],[-21.62,75.25],[-21.38,74.75],[-21.75,74.38],[-24.0,74.12],[-24.88,72.5],[-23.5,71.88],[-19.0,71.62]],[[-23.62,73.75],[-22.88,73.75],[-23.0,73.62],[-23.62,73.75]]]}},{"type":"Feature","properties":{"kind":"blob","cls":4,"id":31},"geometry":{"type":"Polygon","coordinates":[[[2.5,81.12],[20.75,81.88],[26.5,82.62],[28.12,83.5],[27.25,84.12],[25.25,84.62],[15.5,84.62],[-19.38,82.75],[-14.25,81.62],[2.5,81.12]]]}},{"type":"Feature","properties":{"kind":"blob","cls":4,"id":32},"geometry":{"type":"Polygon","coordinates":[[[-150.75,51.62],[-148.75,52.38],[-147.88,53.5],[-148.38,55.25],[-150.75,56.38],[-152.25,56.38],[-154.25,55.62],[-155.12,54.5],[-154.88,53.25],[-154.0,52.38],[-150.75,51.62]]]}},{"type":"Feature","properties":{"kind":"blob","cls":5,"id":33},"geometry":{"type":"Polygon","coordinates":[[[149.25,63.12],[150.5,62.88],[151.0,63.38],[152.75,63.38],[153.75,63.88],[154.62,65.0],[153.75,66.12],[152.5,66.62],[147.25,66.62],[147.0,66.12],[147.75,66.12],[148.5,65.38],[149.0,65.62],[149.38,65.25],[149.0,64.62],[147.62,64.75],[149.62,63.75],[149.25,63.12]]]}},{"type":"Feature","properties":{"kind":"blob","cls":3,"id":34},"geometry":{"type":"Polygon","coordinates":[[[-67.0,-50.62],[-64.75,-49.62],[-64.38,-49.0],[-64.38,-47.5],[-65.5,-46.38],[-66.75,-45.88],[-67.75,-45.88],[-70.0,-46.88],[-69.88,-47.5],[-70.5,-47.38],[-71.12,-48.25],[-71.12,-49.25],[-70.75,-49.88],[-67.0,-50.62]],[[-69.0,-47.38],[-69.38,-47.0],[-69.25,-46.88],[-69.0,-47.38]],[[-69.5,-48.12],[-69.62,-48.0],[-69.5,-47.88],[-69.5,-48.12]]]}},{"type":"Feature","properties":{"kind":"blob","cls":5,"id":35},"geometry":{"type":"Polygon","coordinates":[[[148.62,65.0],[148.75,64.88],[148.88,65.0],[148.62,65.0]]]}},{"type":"Feature","properties":{"kind":"blob","cls":4,"id":36},"geometry":{"type":"Polygon","coordinates":[[[57.5,79.38],[62.25,80.38],[62.62,81.25],[61.75,81.88],[59.0,82.62],[51.75,83.38],[38.0,83.12],[34.5,82.62],[32.38,81.75],[32.5,81.12],[35.0,80.12],[40.25,79.38],[57.5,79.38]]]}},{"type":"Feature","properties":{"kind":"blob","cls":4,"id":37},"geometry":{"type":"Polygon","coordinates":[[[-110.75,-44.88],[-109.12,-44.0],[-108.88,-42.25],[-109.5,-41.38],[-111.25,-40.62],[-112.75,-40.62],[-114.38,-41.5],[-114.38,-43.5],[-113.25,-44.38],[-110.75,-44.88]]]}},{"type":"Feature","properties":{"kind":"blob","cls":5,"id":38},"geometry":{"type":"MultiPolygon","coordinates":[[[[146.75,64.88],[147.38,65.0],[147.0,65.62],[146.5,65.62],[146.75,64.88]]],[[[145.62,65.75],[146.38,65.75],[146.25,65.88],[145.62,65.75]]]]}},{"type":"Feature","properties":{"kind":"blob","cls":4,"id":39},"geometry":{"type":"Polygon","coordinates":[[[-77.5,78.38],[-76.5,78.12],[-71.5,78.62],[-69.5,79.12],[-68.38,80.0],[-69.0,80.62],[-69.75,80.62],[-73.5,79.88],[-79.5,79.38],[-78.62,79.75],[-80.62,80.0],[-74.5,81.12],[-71.38,81.25],[-73.25,81.62],[-77.5,81.62],[-80.25,81.12],[-86.0,81.38],[-88.0,80.88],[-89.12,80.0],[-87.25,78.88],[-84.25,78.38],[-81.5,78.38],[-80.5,79.12],[-76.12,78.75],[-77.5,78.38]]]}},{"type":"Feature","properties":{"kind":"blob","cls":4,"id":40},"geometry":{"type":"MultiPolygon","coordinates":[[[[-69.0,-33.38],[-69.12,-33.5],[-69.0,-33.62],[-69.0,-33.38]]],[[[-68.0,-34.38],[-67.0,-34.62],[-65.75,-34.12],[-65.12,-33.25],[-66.25,-33.38],[-66.38,-32.75],[-65.75,-32.38],[-65.12,-32.75],[-65.38,-31.25],[-64.5,-30.62],[-63.75,-30.88],[-62.88,-30.0],[-62.62,-28.25],[-61.88,-26.75],[-63.0,-25.12],[-64.62,-24.75],[-65.12,-25.75],[-64.62,-26.0],[-64.88,-26.5],[-65.25,-26.12],[-65.88,-27.25],[-65.38,-28.75],[-65.75,-28.38],[-66.38,-28.75],[-66.5,-27.62],[-66.88,-28.0],[-66.62,-29.0],[-67.38,-30.25],[-67.38,-31.25],[-68.0,-31.62],[-68.12,-31.25],[-67.62,-31.0],[-68.38,-30.25],[-68.88,-33.25],[-68.0,-34.38]],[[-66.38,-31.0],[-66.5,-31.12],[-66.62,-30.75],[-66.38,-31.0]]]]}},{"type":"Feature","properties":{"kind":"blob","cls":4,"id":41},"geometry":{"type":"Polygon","coordinates":[[[-64.5,-32.38],[-64.5,-31.12],[-64.62,-31.25],[-64.5,-32.38]]]}},{"type":"Feature","properties":{"kind":"blob","cls":1,"id":42},"geometry":{"type":"Polygon","coordinates":[[[-62.25,-24.38],[-61.38,-23.5],[-61.38,-22.0],[-63.0,-20.88],[-64.12,-21.25],[-63.62,-21.75],[-64.38,-22.75],[-64.62,-24.0],[-62.25,-24.38]]]}},{"type":"Feature","properties":{"kind":"blob","cls":4,"id":43},"geometry":{"type":"Polygon","coordinates":[[[2.0,61.88],[4.5,62.62],[6.38,64.5],[6.38,65.75],[5.25,66.62],[3.0,67.12],[0.0,67.12],[-2.75,66.38],[-3.88,65.0],[-3.62,64.0],[-2.25,62.62],[2.0,61.88]]]}},{"type":"Feature","properties":{"kind":"blob","cls":4,"id":44},"geometry":{"type":"Polygon","coordinates":[[[-109.5,-33.62],[-107.88,-32.75],[-107.62,-31.25],[-108.25,-30.38],[-110.0,-29.88],[-111.62,-30.75],[-111.62,-32.75],[-109.5,-33.62]]]}},{"type":"Feature","properties":{"kind":"blob","cls":5,"id":45},"geometry":{"type":"MultiPolygon","coordinates":[[[[-111.0,25.88],[-109.75,25.62],[-108.12,26.75],[-110.75,27.62],[-111.12,28.0],[-111.0,29.38],[-112.12,28.25],[-112.38,27.25],[-111.0,25.88]]],[[[-110.75,29.62],[-110.88,29.5],[-110.75,29.38],[-110.75,29.62]]]]}},{"type":"Feature","properties":{"kind":"blob","cls":4,"id":46},"geometry":{"type":"Polygon","coordinates":[[[66.0,53.38],[68.25,54.12],[69.12,55.0],[68.88,56.5],[67.5,57.62],[64.75,57.88],[64.25,58.62],[61.75,59.62],[56.75,59.12],[55.75,58.62],[54.88,57.5],[55.12,56.5],[56.5,55.62],[61.5,55.62],[63.0,53.88],[66.0,53.38]]]}},{"type":"Feature","properties":{"kind":"blob","cls":4,"id":47},"geometry":{"type":"Polygon","coordinates":[[[116.25,44.38],[116.62,44.75],[116.0,45.12],[116.25,44.38]]]}},{"type":"Feature","properties":{"kind":"blob","cls":6,"id":48},"geometry":{"type":"Polygon","coordinates":[[[-152.5,70.88],[-148.75,71.62],[-145.0,74.12],[-144.62,75.25],[-145.75,76.12],[-147.75,76.62],[-153.75,76.88],[-160.25,75.62],[-162.12,74.75],[-158.0,74.62],[-156.0,73.88],[-156.25,73.12],[-157.25,72.88],[-162.62,72.75],[-159.5,71.38],[-152.5,70.88]]]}},{"type":"Feature","properties":{"kind":"blob","cls":5,"id":49},"geometry":{"type":"Polygon","coordinates":[[[71.75,29.88],[74.0,29.62],[75.25,30.12],[75.88,31.0],[75.88,32.0],[75.25,32.38],[72.25,32.38],[70.25,31.88],[70.12,30.5],[71.75,29.88]]]}},{"type":"Feature","properties":{"kind":"blob","cls":4,"id":50},"geometry":{"type":"Polygon","coordinates":[[[-100.75,41.88],[-99.38,43.0],[-99.38,44.5],[-101.25,45.62],[-103.5,45.62],[-104.12,44.75],[-103.12,44.25],[-103.12,43.25],[-102.0,43.38],[-100.75,41.88]]]}},{"type":"Feature","properties":{"kind":"blob","cls":4,"id":51},"geometry":{"type":"MultiPolygon","coordinates":[[[[112.75,36.88],[112.62,36.75],[112.75,36.62],[112.75,36.88]]],[[[114.0,35.88],[115.0,35.88],[116.62,37.0],[116.88,38.0],[115.75,39.38],[114.5,39.38],[113.12,38.5],[113.62,38.25],[113.38,38.0],[113.88,37.0],[112.88,36.5],[114.0,35.88]]]]}},{"type":"Feature","properties":{"kind":"blob","cls":4,"id":52},"geometry":{"type":"Polygon","coordinates":[[[112.25,37.62],[112.75,37.38],[112.88,37.75],[112.5,37.88],[112.25,37.62]]]}},{"type":"Feature","properties":{"kind":"blob","cls":4,"id":53},"geometry":{"type":"Polygon","coordinates":[[[151.5,-41.38],[152.62,-40.0],[152.38,-39.0],[150.75,-37.88],[148.5,-38.12],[147.62,-39.0],[147.38,-40.0],[148.5,-41.38],[151.5,-41.38]]]}},{"type":"Feature","properties":{"kind":"blob","cls":3,"id":54},"geometry":{"type":"Polygon","coordinates":[[[70.5,-30.88],[71.62,-29.5],[71.38,-28.25],[69.5,-26.88],[68.25,-27.12],[67.12,-28.5],[67.25,-29.38],[68.5,-29.38],[69.38,-30.0],[69.25,-30.38],[68.12,-30.5],[70.5,-30.88]]]}},{"type":"Feature","properties":{"kind":"center","id":1,"lat":-63.5,"lon":111.25,"mslp":951.1,"hvtl":83.9,"hvtu":-115.6,"hb":1.7,"idx":0.6,"cls":1,"psfc":951.1,"terrain":false,"radius_km":200,"name":"sym shallow warm","track":"T16"},"geometry":{"type":"Point","coordinates":[111.25,-63.5]}},{"type":"Feature","properties":{"kind":"center","id":2,"lat":-72.5,"lon":-136.0,"mslp":952.2,"hvtl":-26.1,"hvtu":-42.5,"hb":37.5,"idx":-0.9,"cls":4,"psfc":952.2,"terrain":false,"radius_km":200,"name":"asym cold"},"geometry":{"type":"Point","coordinates":[-136.0,-72.5]}},{"type":"Feature","properties":{"kind":"center","id":3,"lat":-55.25,"lon":-137.75,"mslp":953.2,"hvtl":-193.2,"hvtu":-244.7,"hb":78.3,"idx":-2.9,"cls":4,"psfc":953.2,"terrain":false,"radius_km":200,"name":"asym cold","track":"T03"},"geometry":{"type":"Point","coordinates":[-137.75,-55.25]}},{"type":"Feature","properties":{"kind":"center","id":4,"lat":-63.0,"lon":-133.75,"mslp":956.5,"hvtl":-102.5,"hvtu":49.6,"hb":35.2,"idx":-1.1,"cls":6,"psfc":956.5,"terrain":false,"radius_km":200,"name":"shallow cold"},"geometry":{"type":"Point","coordinates":[-133.75,-63.0]}},{"type":"Feature","properties":{"kind":"center","id":5,"lat":-50.25,"lon":-19.0,"mslp":957.0,"hvtl":137.0,"hvtu":-169.8,"hb":86.4,"idx":0.8,"cls":3,"psfc":957.0,"terrain":false,"radius_km":200,"name":"asym shallow warm","track":"T05"},"geometry":{"type":"Point","coordinates":[-19.0,-50.25]}},{"type":"Feature","properties":{"kind":"center","id":6,"lat":-59.75,"lon":60.75,"mslp":960.3,"hvtl":-162.6,"hvtu":-210.5,"hb":75.4,"idx":-2.8,"cls":4,"psfc":960.3,"terrain":false,"radius_km":200,"name":"asym cold","track":"T08"},"geometry":{"type":"Point","coordinates":[60.75,-59.75]}},{"type":"Feature","properties":{"kind":"center","id":7,"lat":-67.0,"lon":161.5,"mslp":962.2,"hvtl":-145.0,"hvtu":-110.0,"hb":62.7,"idx":-2.6,"cls":4,"psfc":962.2,"terrain":false,"radius_km":200,"name":"asym cold","track":"T17"},"geometry":{"type":"Point","coordinates":[161.5,-67.0]}},{"type":"Feature","properties":{"kind":"center","id":8,"lat":19.5,"lon":145.75,"mslp":962.3,"hvtl":131.0,"hvtu":194.9,"hb":-0.5,"idx":2.7,"cls":0,"psfc":962.3,"terrain":false,"radius_km":200,"name":"sym deep warm","track":"T02"},"geometry":{"type":"Point","coordinates":[145.75,19.5]}},{"type":"Feature","properties":{"kind":"center","id":9,"lat":-63.5,"lon":23.0,"mslp":965.5,"hvtl":155.8,"hvtu":-117.9,"hb":10.0,"idx":1.0,"cls":3,"psfc":965.5,"terrain":false,"radius_km":200,"name":"asym shallow warm"},"geometry":{"type":"Point","coordinates":[23.0,-63.5]}},{"type":"Feature","properties":{"kind":"center","id":10,"lat":51.5,"lon":164.75,"mslp":966.4,"hvtl":38.4,"hvtu":-326.2,"hb":1.3,"idx":-0.3,"cls":1,"psfc":966.4,"terrain":false,"radius_km":200,"name":"sym shallow warm","track":"T40"},"geometry":{"type":"Point","coordinates":[164.75,51.5]}},{"type":"Feature","properties":{"kind":"center","id":11,"lat":-75.25,"lon":-24.5,"mslp":966.7,"hvtl":-341.4,"hvtu":-125.0,"hb":47.0,"idx":-2.8,"cls":4,"psfc":963.3,"terrain":false,"radius_km":200,"name":"asym cold","track":"T36"},"geometry":{"type":"Point","coordinates":[-24.5,-75.25]}},{"type":"Feature","properties":{"kind":"center","id":12,"lat":-66.5,"lon":1.0,"mslp":966.8,"hvtl":72.5,"hvtu":-78.0,"hb":-13.7,"idx":0.6,"cls":1,"psfc":966.8,"terrain":false,"radius_km":200,"name":"sym shallow warm"},"geometry":{"type":"Point","coordinates":[1.0,-66.5]}},{"type":"Feature","properties":{"kind":"center","id":13,"lat":-52.25,"lon":105.25,"mslp":970.7,"hvtl":-407.4,"hvtu":-279.3,"hb":59.9,"idx":-3.0,"cls":4,"psfc":970.7,"terrain":false,"radius_km":200,"name":"asym cold","track":"T38"},"geometry":{"type":"Point","coordinates":[105.25,-52.25]}},{"type":"Feature","properties":{"kind":"center","id":14,"lat":-51.75,"lon":-154.75,"mslp":971.2,"hvtl":-57.4,"hvtu":-205.7,"hb":17.9,"idx":-2.0,"cls":4,"psfc":971.2,"terrain":false,"radius_km":200,"name":"asym cold"},"geometry":{"type":"Point","coordinates":[-154.75,-51.75]}},{"type":"Feature","properties":{"kind":"center","id":15,"lat":-69.0,"lon":23.5,"mslp":971.7,"hvtl":-39.4,"hvtu":-119.4,"hb":3.1,"idx":-1.6,"cls":5,"psfc":971.7,"terrain":false,"radius_km":200,"name":"sym cold","track":"T47"},"geometry":{"type":"Point","coordinates":[23.5,-69.0]}},{"type":"Feature","properties":{"kind":"center","id":16,"lat":-65.25,"lon":57.25,"mslp":972.0,"hvtl":-146.2,"hvtu":-273.0,"hb":60.9,"idx":-2.8,"cls":4,"psfc":972.0,"terrain":false,"radius_km":200,"name":"asym cold","track":"T48"},"geometry":{"type":"Point","coordinates":[57.25,-65.25]}},{"type":"Feature","properties":{"kind":"center","id":17,"lat":-56.75,"lon":-113.5,"mslp":973.5,"hvtl":-211.8,"hvtu":-144.2,"hb":61.5,"idx":-2.8,"cls":4,"psfc":973.5,"terrain":false,"radius_km":200,"name":"asym cold"},"geometry":{"type":"Point","coordinates":[-113.5,-56.75]}},{"type":"Feature","properties":{"kind":"center","id":18,"lat":19.75,"lon":-111.5,"mslp":976.5,"hvtl":87.1,"hvtu":265.8,"hb":-1.0,"idx":2.4,"cls":0,"psfc":976.5,"terrain":false,"radius_km":200,"name":"sym deep warm","track":"T42"},"geometry":{"type":"Point","coordinates":[-111.5,19.75]}},{"type":"Feature","properties":{"kind":"center","id":19,"lat":-69.25,"lon":156.75,"mslp":977.3,"hvtl":-23.8,"hvtu":18.0,"hb":41.2,"idx":-0.3,"cls":6,"psfc":912.2,"terrain":false,"radius_km":200,"name":"shallow cold","track":"T35"},"geometry":{"type":"Point","coordinates":[156.75,-69.25]}},{"type":"Feature","properties":{"kind":"center","id":20,"lat":-59.0,"lon":-23.0,"mslp":977.4,"hvtl":56.1,"hvtu":-271.0,"hb":58.1,"idx":0.0,"cls":3,"psfc":977.4,"terrain":false,"radius_km":200,"name":"asym shallow warm"},"geometry":{"type":"Point","coordinates":[-23.0,-59.0]}},{"type":"Feature","properties":{"kind":"center","id":21,"lat":75.25,"lon":122.0,"mslp":979.7,"hvtl":-91.2,"hvtu":56.8,"hb":27.0,"idx":-0.9,"cls":6,"psfc":979.7,"terrain":false,"radius_km":200,"name":"shallow cold","track":"T60"},"geometry":{"type":"Point","coordinates":[122.0,75.25]}},{"type":"Feature","properties":{"kind":"center","id":22,"lat":23.25,"lon":-169.0,"mslp":980.1,"hvtl":107.1,"hvtu":191.0,"hb":-7.6,"idx":2.5,"cls":0,"psfc":980.1,"terrain":false,"radius_km":200,"name":"sym deep warm","track":"T44"},"geometry":{"type":"Point","coordinates":[-169.0,23.25]}},{"type":"Feature","properties":{"kind":"center","id":23,"lat":-69.0,"lon":155.0,"mslp":980.5,"hvtl":-76.2,"hvtu":31.0,"hb":43.9,"idx":-1.0,"cls":6,"psfc":946.6,"terrain":false,"radius_km":200,"name":"shallow cold"},"geometry":{"type":"Point","coordinates":[155.0,-69.0]}},{"type":"Feature","properties":{"kind":"center","id":24,"lat":61.0,"lon":-35.75,"mslp":983.2,"hvtl":-178.9,"hvtu":-379.1,"hb":65.2,"idx":-2.9,"cls":4,"psfc":983.2,"terrain":false,"radius_km":200,"name":"asym cold"},"geometry":{"type":"Point","coordinates":[-35.75,61.0]}},{"type":"Feature","properties":{"kind":"center","id":25,"lat":-77.0,"lon":-77.25,"mslp":983.5,"hvtl":-153.3,"hvtu":-117.2,"hb":14.5,"idx":-2.6,"cls":4,"psfc":945.0,"terrain":false,"radius_km":200,"name":"asym cold","track":"T67"},"geometry":{"type":"Point","coordinates":[-77.25,-77.0]}},{"type":"Feature","properties":{"kind":"center","id":26,"lat":62.75,"lon":-59.0,"mslp":984.2,"hvtl":14.0,"hvtu":11.6,"hb":7.1,"idx":0.4,"cls":0,"psfc":984.2,"terrain":false,"radius_km":200,"name":"sym deep warm","track":"T69"},"geometry":{"type":"Point","coordinates":[-59.0,62.75]}},{"type":"Feature","properties":{"kind":"center","id":27,"lat":-48.75,"lon":-85.0,"mslp":987.8,"hvtl":-0.3,"hvtu":-135.9,"hb":7.8,"idx":-0.9,"cls":5,"psfc":987.8,"terrain":false,"radius_km":200,"name":"sym cold"},"geometry":{"type":"Point","coordinates":[-85.0,-48.75]}},{"type":"Feature","properties":{"kind":"center","id":28,"lat":77.25,"lon":140.25,"mslp":989.5,"hvtl":-147.1,"hvtu":-1.4,"hb":39.2,"idx":-1.8,"cls":4,"psfc":989.5,"terrain":false,"radius_km":200,"name":"asym cold","track":"T75"},"geometry":{"type":"Point","coordinates":[140.25,77.25]}},{"type":"Feature","properties":{"kind":"center","id":29,"lat":73.75,"lon":-63.0,"mslp":991.2,"hvtl":-127.3,"hvtu":-83.9,"hb":24.2,"idx":-2.4,"cls":4,"psfc":991.2,"terrain":false,"radius_km":200,"name":"asym cold","track":"T83"},"geometry":{"type":"Point","coordinates":[-63.0,73.75]}},{"type":"Feature","properties":{"kind":"center","id":30,"lat":75.25,"lon":-13.5,"mslp":992.4,"hvtl":-76.3,"hvtu":-35.6,"hb":14.2,"idx":-1.6,"cls":4,"psfc":992.4,"terrain":false,"radius_km":200,"name":"asym cold","track":"T50"},"geometry":{"type":"Point","coordinates":[-13.5,75.25]}},{"type":"Feature","properties":{"kind":"center","id":31,"lat":83.5,"lon":6.5,"mslp":992.7,"hvtl":-18.3,"hvtu":-6.1,"hb":36.7,"idx":-0.4,"cls":4,"psfc":992.7,"terrain":false,"radius_km":200,"name":"asym cold"},"geometry":{"type":"Point","coordinates":[6.5,83.5]}},{"type":"Feature","properties":{"kind":"center","id":32,"lat":54.0,"lon":-151.75,"mslp":993.5,"hvtl":-42.8,"hvtu":-96.1,"hb":45.5,"idx":-1.6,"cls":4,"psfc":993.5,"terrain":false,"radius_km":200,"name":"asym cold","track":"T78"},"geometry":{"type":"Point","coordinates":[-151.75,54.0]}},{"type":"Feature","properties":{"kind":"center","id":33,"lat":65.0,"lon":149.75,"mslp":993.6,"hvtl":-85.3,"hvtu":-134.0,"hb":3.2,"idx":-2.3,"cls":5,"psfc":947.4,"terrain":false,"radius_km":200,"name":"sym cold"},"geometry":{"type":"Point","coordinates":[149.75,65.0]}},{"type":"Feature","properties":{"kind":"center","id":34,"lat":-48.5,"lon":-67.5,"mslp":993.7,"hvtl":134.4,"hvtu":-143.9,"hb":11.0,"idx":0.9,"cls":3,"psfc":979.3,"terrain":false,"radius_km":200,"name":"asym shallow warm","track":"T86"},"geometry":{"type":"Point","coordinates":[-67.5,-48.5]}},{"type":"Feature","properties":{"kind":"center","id":35,"lat":65.0,"lon":148.75,"mslp":994.9,"hvtl":-96.1,"hvtu":-147.1,"hb":4.3,"idx":-2.4,"cls":5,"psfc":904.5,"terrain":true,"radius_km":200,"name":"sym cold"},"geometry":{"type":"Point","coordinates":[148.75,65.0]}},{"type":"Feature","properties":{"kind":"center","id":36,"lat":81.5,"lon":47.25,"mslp":994.9,"hvtl":-156.8,"hvtu":-167.2,"hb":69.7,"idx":-2.8,"cls":4,"psfc":995.0,"terrain":false,"radius_km":200,"name":"asym cold"},"geometry":{"type":"Point","coordinates":[47.25,81.5]}},{"type":"Feature","properties":{"kind":"center","id":37,"lat":-43.5,"lon":-111.75,"mslp":995.2,"hvtl":-176.5,"hvtu":-156.0,"hb":55.2,"idx":-2.8,"cls":4,"psfc":995.2,"terrain":false,"radius_km":200,"name":"asym cold","track":"T73"},"geometry":{"type":"Point","coordinates":[-111.75,-43.5]}},{"type":"Feature","properties":{"kind":"center","id":38,"lat":65.0,"lon":147.0,"mslp":995.8,"hvtl":-120.7,"hvtu":-150.7,"hb":10.0,"idx":-2.6,"cls":5,"psfc":912.2,"terrain":false,"radius_km":200,"name":"sym cold"},"geometry":{"type":"Point","coordinates":[147.0,65.0]}},{"type":"Feature","properties":{"kind":"center","id":39,"lat":79.25,"lon":-69.5,"mslp":996.1,"hvtl":-102.6,"hvtu":-59.9,"hb":28.4,"idx":-2.1,"cls":4,"psfc":996.1,"terrain":false,"radius_km":200,"name":"asym cold"},"geometry":{"type":"Point","coordinates":[-69.5,79.25]}},{"type":"Feature","properties":{"kind":"center","id":40,"lat":-31.5,"lon":-67.25,"mslp":1000.6,"hvtl":-4.4,"hvtu":-194.1,"hb":69.4,"idx":-1.0,"cls":4,"psfc":941.6,"terrain":false,"radius_km":200,"name":"asym cold","track":"T98"},"geometry":{"type":"Point","coordinates":[-67.25,-31.5]}},{"type":"Feature","properties":{"kind":"center","id":41,"lat":-31.5,"lon":-64.5,"mslp":1002.4,"hvtl":-185.3,"hvtu":-174.4,"hb":50.6,"idx":-2.8,"cls":4,"psfc":911.4,"terrain":true,"radius_km":200,"name":"asym cold"},"geometry":{"type":"Point","coordinates":[-64.5,-31.5]}},{"type":"Feature","properties":{"kind":"center","id":42,"lat":-24.5,"lon":-63.0,"mslp":1002.6,"hvtl":60.6,"hvtu":-217.3,"hb":6.1,"idx":0.1,"cls":1,"psfc":976.5,"terrain":false,"radius_km":200,"name":"sym shallow warm"},"geometry":{"type":"Point","coordinates":[-63.0,-24.5]}},{"type":"Feature","properties":{"kind":"center","id":43,"lat":64.75,"lon":1.25,"mslp":1003.1,"hvtl":-198.5,"hvtu":-146.6,"hb":43.2,"idx":-2.8,"cls":4,"psfc":1003.1,"terrain":false,"radius_km":200,"name":"asym cold","track":"T63"},"geometry":{"type":"Point","coordinates":[1.25,64.75]}},{"type":"Feature","properties":{"kind":"center","id":44,"lat":-31.75,"lon":-109.75,"mslp":1005.9,"hvtl":-219.0,"hvtu":-374.7,"hb":41.8,"idx":-2.9,"cls":4,"psfc":1005.9,"terrain":false,"radius_km":200,"name":"asym cold"},"geometry":{"type":"Point","coordinates":[-109.75,-31.75]}},{"type":"Feature","properties":{"kind":"center","id":45,"lat":27.25,"lon":-110.25,"mslp":1006.5,"hvtl":-19.3,"hvtu":-64.3,"hb":5.9,"idx":-0.9,"cls":5,"psfc":1006.1,"terrain":false,"radius_km":200,"name":"sym cold"},"geometry":{"type":"Point","coordinates":[-110.25,27.25]}},{"type":"Feature","properties":{"kind":"center","id":46,"lat":55.5,"lon":65.25,"mslp":1006.7,"hvtl":-198.3,"hvtu":-226.9,"hb":39.5,"idx":-2.9,"cls":4,"psfc":996.0,"terrain":false,"radius_km":200,"name":"asym cold","track":"T118"},"geometry":{"type":"Point","coordinates":[65.25,55.5]}},{"type":"Feature","properties":{"kind":"center","id":47,"lat":44.75,"lon":116.25,"mslp":1008.7,"hvtl":-6.0,"hvtu":-212.6,"hb":29.7,"idx":-1.1,"cls":4,"psfc":904.1,"terrain":true,"radius_km":200,"name":"asym cold"},"geometry":{"type":"Point","coordinates":[116.25,44.75]}},{"type":"Feature","properties":{"kind":"center","id":48,"lat":74.5,"lon":-153.0,"mslp":1010.0,"hvtl":-109.1,"hvtu":37.0,"hb":11.9,"idx":-1.2,"cls":6,"psfc":1010.0,"terrain":false,"radius_km":200,"name":"shallow cold","track":"T123"},"geometry":{"type":"Point","coordinates":[-153.0,74.5]}},{"type":"Feature","properties":{"kind":"center","id":49,"lat":30.5,"lon":72.75,"mslp":1010.9,"hvtl":-29.7,"hvtu":-114.3,"hb":8.1,"idx":-1.4,"cls":5,"psfc":992.8,"terrain":false,"radius_km":200,"name":"sym cold","track":"T103"},"geometry":{"type":"Point","coordinates":[72.75,30.5]}},{"type":"Feature","properties":{"kind":"center","id":50,"lat":44.0,"lon":-102.75,"mslp":1011.0,"hvtl":-72.7,"hvtu":-202.4,"hb":11.2,"idx":-2.2,"cls":4,"psfc":913.1,"terrain":true,"radius_km":200,"name":"asym cold"},"geometry":{"type":"Point","coordinates":[-102.75,44.0]}},{"type":"Feature","properties":{"kind":"center","id":51,"lat":39.25,"lon":115.25,"mslp":1012.9,"hvtl":-337.7,"hvtu":-394.9,"hb":60.4,"idx":-3.0,"cls":4,"psfc":983.7,"terrain":false,"radius_km":200,"name":"asym cold","track":"T94"},"geometry":{"type":"Point","coordinates":[115.25,39.25]}},{"type":"Feature","properties":{"kind":"center","id":52,"lat":37.5,"lon":112.25,"mslp":1014.4,"hvtl":-168.2,"hvtu":-377.3,"hb":38.2,"idx":-2.9,"cls":4,"psfc":923.5,"terrain":true,"radius_km":200,"name":"asym cold"},"geometry":{"type":"Point","coordinates":[112.25,37.5]}},{"type":"Feature","properties":{"kind":"center","id":53,"lat":-39.0,"lon":149.75,"mslp":1016.2,"hvtl":-32.0,"hvtu":-115.8,"hb":28.5,"idx":-1.4,"cls":4,"psfc":1016.2,"terrain":false,"radius_km":200,"name":"asym cold"},"geometry":{"type":"Point","coordinates":[149.75,-39.0]}},{"type":"Feature","properties":{"kind":"center","id":54,"lat":-29.0,"lon":69.5,"mslp":1018.0,"hvtl":44.8,"hvtu":-159.5,"hb":40.1,"idx":-0.1,"cls":3,"psfc":1018.0,"terrain":false,"radius_km":200,"name":"asym shallow warm","track":"T134"},"geometry":{"type":"Point","coordinates":[69.5,-29.0]}}]}