{"type":"FeatureCollection","features":[{"type":"Feature","properties":{"kind":"blob","cls":0,"id":1},"geometry":{"type":"Polygon","coordinates":[[[179.75,59.38],[180.0,63.88],[177.75,63.38],[175.62,62.0],[175.62,60.75],[176.25,60.12],[177.25,59.62],[179.75,59.38]],[[177.12,60.75],[177.5,61.12],[178.88,61.0],[178.5,60.62],[177.12,60.75]]]}},{"type":"Feature","properties":{"kind":"blob","cls":0,"id":1},"geometry":{"type":"Polygon","coordinates":[[[-179.75,63.88],[-180.0,59.38],[-178.25,59.62],[-176.75,60.38],[-175.62,61.5],[-175.62,62.25],[-176.5,63.12],[-177.5,63.62],[-179.75,63.88]]]}},{"type":"Feature","properties":{"kind":"blob","cls":1,"id":2},"geometry":{"type":"MultiPolygon","coordinates":[[[[-136.75,-65.38],[-134.75,-64.88],[-133.12,-63.75],[-135.25,-63.38],[-135.62,-62.75],[-135.0,-62.38],[-133.38,-62.5],[-134.75,-61.62],[-136.75,-61.12],[-138.5,-61.12],[-141.0,-61.88],[-141.88,-62.75],[-141.88,-63.75],[-140.5,-64.88],[-136.75,-65.38]]],[[[-133.25,-62.62],[-133.38,-62.75],[-133.25,-62.88],[-133.25,-62.62]]]]}},{"type":"Feature","properties":{"kind":"blob","cls":4,"id":3},"geometry":{"type":"Polygon","coordinates":[[[45.5,-66.12],[47.38,-65.0],[47.38,-64.0],[45.25,-62.62],[43.75,-62.38],[39.0,-62.62],[37.38,-63.5],[37.12,-64.5],[37.5,-65.12],[39.5,-66.12],[45.5,-66.12]]]}},{"type":"Feature","properties":{"kind":"blob","cls":4,"id":4},"geometry":{"type":"Polygon","coordinates":[[[124.5,-59.62],[126.5,-58.88],[127.62,-57.5],[127.38,-56.5],[125.0,-55.38],[123.0,-55.38],[121.0,-56.12],[120.12,-57.25],[120.12,-58.0],[120.75,-58.88],[124.5,-59.62]]]}},{"type":"Feature","properties":{"kind":"blob","cls":1,"id":5},"geometry":{"type":"Polygon","coordinates":[[[113.0,-56.38],[117.0,-56.38],[118.62,-55.0],[118.88,-54.0],[117.75,-52.62],[116.25,-51.88],[113.5,-51.12],[111.5,-51.38],[109.88,-52.75],[109.62,-54.0],[110.75,-55.62],[113.0,-56.38]]]}},{"type":"Feature","properties":{"kind":"blob","cls":1,"id":6},"geometry":{"type":"Polygon","coordinates":[[[21.0,-62.38],[22.5,-62.38],[23.5,-61.88],[24.25,-60.62],[26.5,-60.88],[28.25,-60.38],[29.62,-58.75],[29.62,-57.5],[29.0,-56.88],[27.0,-56.12],[25.5,-56.12],[24.25,-56.62],[23.0,-55.12],[21.25,-54.62],[17.75,-55.12],[16.62,-56.5],[17.75,-57.88],[19.5,-58.38],[22.25,-58.12],[22.38,-59.0],[20.75,-58.62],[17.5,-58.88],[15.88,-60.0],[15.88,-61.0],[17.75,-62.38],[18.75,-62.38],[19.5,-61.62],[20.0,-61.62],[21.0,-62.38]]]}},{"type":"Feature","properties":{"kind":"blob","cls":4,"id":7},"geometry":{"type":"Polygon","coordinates":[[[-85.25,-70.62],[-83.5,-69.88],[-82.88,-69.0],[-84.12,-66.5],[-85.0,-65.62],[-88.25,-64.62],[-92.75,-65.12],[-95.0,-65.88],[-96.62,-67.0],[-96.62,-68.25],[-95.25,-69.38],[-91.25,-70.62],[-85.25,-70.62]]]}},{"type":"Feature","properties":{"kind":"blob","cls":4,"id":8},"geometry":{"type":"Polygon","coordinates":[[[36.0,-56.62],[38.75,-56.62],[40.38,-55.5],[40.38,-54.25],[39.62,-53.0],[38.25,-51.88],[36.75,-51.38],[34.0,-51.88],[33.12,-52.5],[32.38,-54.0],[32.62,-55.0],[33.5,-55.88],[36.0,-56.62]]]}},{"type":"Feature","properties":{"kind":"blob","cls":4,"id":9},"geometry":{"type":"Polygon","coordinates":[[[-114.0,-74.62],[-113.0,-74.88],[-106.25,-74.38],[-99.25,-74.38],[-98.75,-73.88],[-96.75,-73.88],[-96.38,-73.5],[-98.0,-72.62],[-100.75,-71.88],[-108.5,-71.62],[-112.5,-72.38],[-113.88,-73.5],[-114.0,-74.62]]]}},{"type":"Feature","properties":{"kind":"blob","cls":4,"id":10},"geometry":{"type":"MultiPolygon","coordinates":[[[[-73.38,-76.25],[-72.62,-76.25],[-72.75,-76.12],[-73.38,-76.25]]],[[[-65.25,-77.38],[-61.75,-76.88],[-60.25,-76.38],[-59.62,-75.25],[-60.25,-74.62],[-62.0,-74.12],[-67.75,-76.12],[-71.25,-76.12],[-72.62,-76.5],[-70.5,-77.12],[-65.25,-77.38]]]]}},{"type":"Feature","properties":{"kind":"blob","cls":4,"id":11},"geometry":{"type":"Polygon","coordinates":[[[-73.88,-75.5],[-73.75,-75.88],[-72.88,-75.75],[-73.25,-75.38],[-73.88,-75.5]]]}},{"type":"Feature","properties":{"kind":"blob","cls":4,"id":12},"geometry":{"type":"Polygon","coordinates":[[[-25.25,-65.12],[-23.25,-64.62],[-21.88,-63.5],[-21.88,-62.25],[-22.5,-61.38],[-25.0,-59.88],[-29.0,-59.88],[-30.5,-60.62],[-31.62,-61.75],[-31.62,-62.75],[-30.25,-64.38],[-25.25,-65.12]]]}},{"type":"Feature","properties":{"kind":"blob","cls":4,"id":13},"geometry":{"type":"Polygon","coordinates":[[[-48.75,-81.38],[-45.5,-80.88],[-41.75,-80.88],[-31.12,-78.75],[-35.38,-78.5],[-35.25,-78.12],[-33.0,-77.38],[-31.38,-77.25],[-33.5,-77.12],[-36.75,-77.88],[-38.25,-79.38],[-42.75,-79.38],[-46.75,-80.38],[-48.5,-79.88],[-50.75,-80.38],[-53.5,-79.38],[-59.0,-78.88],[-70.25,-79.12],[-77.12,-80.0],[-72.25,-80.88],[-48.75,-81.38]]]}},{"type":"Feature","properties":{"kind":"blob","cls":3,"id":14},"geometry":{"type":"Polygon","coordinates":[[[-16.25,65.62],[-9.75,65.62],[-8.5,66.12],[-7.62,67.0],[-7.62,67.5],[-9.0,68.62],[-13.25,69.62],[-18.75,69.62],[-21.0,69.12],[-22.38,68.25],[-22.38,67.25],[-21.0,66.38],[-16.25,65.62]]]}},{"type":"Feature","properties":{"kind":"blob","cls":4,"id":15},"geometry":{"type":"Polygon","coordinates":[[[-1.5,-71.62],[1.0,-71.12],[7.5,-70.88],[7.88,-70.0],[7.25,-69.38],[5.25,-68.62],[0.5,-68.38],[-2.25,-68.88],[-3.88,-70.0],[-3.25,-71.12],[-1.5,-71.62]]]}},{"type":"Feature","properties":{"kind":"blob","cls":0,"id":16},"geometry":{"type":"Polygon","coordinates":[[[161.0,14.12],[162.5,14.12],[162.88,14.5],[162.62,15.25],[163.38,15.5],[163.12,16.75],[161.75,17.62],[160.5,17.38],[159.62,16.25],[159.88,14.75],[161.0,14.12]]]}},{"type":"Feature","properties":{"kind":"blob","cls":3,"id":17},"geometry":{"type":"Polygon","coordinates":[[[-19.75,60.62],[-17.75,61.12],[-15.88,62.5],[-15.88,63.75],[-16.25,64.12],[-18.25,64.12],[-18.5,64.62],[-20.5,64.62],[-19.25,64.88],[-19.12,65.25],[-20.5,65.62],[-24.75,65.38],[-26.0,64.88],[-26.88,64.0],[-27.12,63.5],[-26.25,62.38],[-24.0,61.12],[-19.75,60.62]],[[-19.62,63.75],[-18.88,63.75],[-19.0,63.62],[-19.62,63.75]]]}},{"type":"Feature","properties":{"kind":"blob","cls":4,"id":18},"geometry":{"type":"Polygon","coordinates":[[[91.5,-66.62],[100.25,-66.62],[101.12,-66.25],[98.25,-65.38],[95.25,-65.38],[91.5,-66.62]]]}},{"type":"Feature","properties":{"kind":"blob","cls":1,"id":19},"geometry":{"type":"Polygon","coordinates":[[[51.25,74.12],[55.5,74.62],[58.5,75.38],[60.0,76.12],[60.38,77.0],[59.5,77.88],[56.5,78.62],[49.75,78.88],[46.5,79.38],[42.0,79.38],[36.62,78.5],[45.0,77.62],[46.38,76.75],[46.0,76.38],[41.25,76.38],[34.75,77.88],[34.38,77.5],[34.75,76.62],[37.5,75.12],[41.25,74.38],[51.25,74.12]]]}},{"type":"Feature","properties":{"kind":"blob","cls":4,"id":20},"geometry":{"type":"Polygon","coordinates":[[[-152.75,-82.88],[-147.5,-82.88],[-138.62,-81.75],[-146.25,-81.88],[-152.75,-82.88]]]}},{"type":"Feature","properties":{"kind":"blob","cls":4,"id":21},"geometry":{"type":"Polygon","coordinates":[[[179.75,-82.88],[180.0,-79.38],[179.25,-79.12],[173.75,-78.62],[167.25,-78.62],[162.12,-79.25],[163.75,-80.38],[169.25,-81.88],[179.75,-82.88]]]}},{"type":"Feature","properties":{"kind":"blob","cls":4,"id":21},"geometry":{"type":"Polygon","coordinates":[[[-179.75,-79.38],[-180.0,-82.88],[-175.25,-83.12],[-171.75,-82.62],[-169.62,-81.75],[-169.75,-81.12],[-171.75,-80.38],[-179.75,-79.38]]]}},{"type":"Feature","properties":{"kind":"blob","cls":4,"id":22},"geometry":{"type":"Polygon","coordinates":[[[169.0,-78.38],[172.25,-77.38],[172.62,-76.5],[172.0,-75.88],[168.12,-74.75],[172.5,-73.88],[173.38,-73.25],[173.38,-72.25],[170.75,-71.12],[167.25,-70.88],[170.62,-71.75],[169.88,-72.25],[170.0,-72.62],[169.12,-72.5],[169.62,-72.75],[169.25,-73.12],[166.75,-73.12],[165.75,-73.88],[165.0,-73.62],[164.62,-74.0],[164.88,-74.25],[164.38,-74.5],[164.38,-75.25],[162.38,-77.0],[164.0,-78.38],[169.0,-78.38]],[[166.62,-77.5],[169.12,-77.5],[169.0,-77.62],[166.62,-77.5]],[[169.75,-73.62],[169.62,-73.5],[169.75,-73.38],[169.75,-73.62]]]}},{"type":"Feature","properties":{"kind":"blob","cls":4,"id":23},"geometry":{"type":"Polygon","coordinates":[[[162.25,-71.38],[162.5,-70.62],[163.75,-70.88],[164.62,-70.0],[164.62,-69.5],[163.75,-68.62],[160.5,-67.88],[156.25,-68.12],[154.38,-69.0],[159.5,-69.62],[162.25,-71.38]]]}},{"type":"Feature","properties":{"kind":"blob","cls":4,"id":24},"geometry":{"type":"Polygon","coordinates":[[[-99.0,-54.88],[-96.75,-54.88],[-94.88,-53.0],[-94.88,-51.5],[-96.0,-50.38],[-97.5,-49.88],[-99.75,-49.88],[-101.25,-50.38],[-102.12,-51.25],[-102.12,-53.25],[-101.25,-54.12],[-99.0,-54.88]]]}},{"type":"Feature","properties":{"kind":"blob","cls":1,"id":25},"geometry":{"type":"Polygon","coordinates":[[[-171.75,28.38],[-170.88,29.25],[-170.62,30.25],[-171.75,31.62],[-173.25,31.88],[-174.88,30.75],[-174.88,29.25],[-174.0,28.38],[-171.75,28.38]]]}},{"type":"Feature","properties":{"kind":"blob","cls":0,"id":26},"geometry":{"type":"Polygon","coordinates":[[[-126.25,21.38],[-124.75,21.38],[-123.88,22.25],[-123.88,24.0],[-125.5,25.12],[-127.0,24.88],[-127.88,24.0],[-127.75,22.38],[-126.75,23.38],[-126.12,23.0],[-125.88,21.75],[-126.25,21.38]]]}},{"type":"Feature","properties":{"kind":"blob","cls":3,"id":27},"geometry":{"type":"Polygon","coordinates":[[[33.5,59.38],[35.38,60.75],[35.38,61.75],[34.5,62.62],[32.25,63.38],[29.25,63.12],[27.75,62.38],[27.12,61.75],[27.12,60.75],[29.0,59.38],[33.5,59.38]]]}},{"type":"Feature","properties":{"kind":"blob","cls":4,"id":28},"geometry":{"type":"Polygon","coordinates":[[[-95.75,-44.12],[-94.12,-43.25],[-93.38,-42.0],[-93.38,-40.5],[-94.5,-39.38],[-96.75,-38.88],[-97.5,-39.12],[-98.88,-40.5],[-99.38,-42.5],[-98.75,-43.38],[-95.75,-44.12]]]}},{"type":"Feature","properties":{"kind":"blob","cls":4,"id":29},"geometry":{"type":"Polygon","coordinates":[[[-129.25,48.62],[-127.88,49.75],[-127.62,51.25],[-128.5,52.38],[-131.5,52.88],[-133.0,52.38],[-133.62,51.75],[-133.62,49.75],[-132.75,48.88],[-129.25,48.62]]]}},{"type":"Feature","properties":{"kind":"blob","cls":4,"id":30},"geometry":{"type":"Polygon","coordinates":[[[146.25,72.62],[149.5,73.12],[152.25,74.12],[152.62,75.25],[150.25,76.62],[145.75,77.38],[137.5,77.12],[134.75,76.38],[134.12,75.75],[134.12,75.25],[135.75,73.88],[138.25,73.12],[146.25,72.62]]]}},{"type":"Feature","properties":{"kind":"blob","cls":1,"id":31},"geometry":{"type":"Polygon","coordinates":[[[-79.25,55.62],[-76.75,56.62],[-76.12,57.5],[-76.12,58.75],[-76.75,59.38],[-78.75,60.12],[-81.25,60.12],[-83.25,59.38],[-83.88,58.75],[-83.62,57.0],[-82.0,55.88],[-79.25,55.62]],[[-80.0,56.88],[-82.0,57.38],[-82.62,58.0],[-82.62,59.0],[-81.25,59.38],[-77.88,58.25],[-78.0,57.38],[-80.0,56.88]]]}},{"type":"Feature","properties":{"kind":"blob","cls":0,"id":32},"geometry":{"type":"Polygon","coordinates":[[[146.5,14.88],[148.5,14.88],[149.62,16.25],[149.62,17.5],[148.5,18.88],[146.5,18.88],[145.38,17.5],[145.5,17.12],[146.75,17.12],[148.12,16.5],[147.75,15.88],[145.62,15.25],[146.5,14.88]]]}},{"type":"Feature","properties":{"kind":"blob","cls":1,"id":33},"geometry":{"type":"MultiPolygon","coordinates":[[[[179.75,81.38],[180.0,83.38],[175.25,82.88],[172.62,81.75],[172.62,81.25],[173.25,80.88],[179.75,81.38]]],[[[179.75,79.38],[180.0,80.38],[177.38,80.0],[178.0,79.62],[179.75,79.38]]]]}},{"type":"Feature","properties":{"kind":"blob","cls":1,"id":33},"geometry":{"type":"Polygon","coordinates":[[[-179.75,83.38],[-180.0,81.38],[-175.25,81.38],[-175.12,81.0],[-178.0,80.38],[-180.0,80.38],[-180.0,79.38],[-165.25,79.12],[-158.25,79.88],[-156.38,80.75],[-157.0,81.88],[-161.5,83.38],[-168.0,83.88],[-175.0,83.88],[-179.75,83.38]]]}},{"type":"Feature","properties":{"kind":"blob","cls":4,"id":34},"geometry":{"type":"Polygon","coordinates":[[[94.25,58.12],[96.75,58.88],[98.12,60.0],[98.12,61.25],[96.5,62.38],[93.75,62.62],[91.5,61.62],[89.0,61.88],[87.88,61.0],[87.88,60.0],[88.75,59.12],[94.25,58.12]]]}},{"type":"Feature","properties":{"kind":"blob","cls":3,"id":35},"geometry":{"type":"Polygon","coordinates":[[[158.5,32.12],[159.62,33.25],[159.38,34.75],[157.5,35.88],[155.75,35.38],[155.12,34.5],[155.38,33.0],[156.0,32.38],[158.5,32.12]]]}},{"type":"Feature","properties":{"kind":"blob","cls":3,"id":36},"geometry":{"type":"Polygon","coordinates":[[[-64.5,34.88],[-63.25,34.62],[-61.62,35.75],[-61.62,37.25],[-62.25,37.88],[-64.25,38.38],[-65.88,37.25],[-65.88,35.75],[-64.5,34.88]]]}},{"type":"Feature","properties":{"kind":"blob","cls":4,"id":37},"geometry":{"type":"Polygon","coordinates":[[[-4.25,73.88],[0.25,75.12],[1.62,76.25],[0.25,77.38],[-2.0,77.88],[-10.25,78.12],[-15.0,77.38],[-16.5,76.62],[-17.12,75.75],[-16.5,74.62],[-13.75,73.88],[-4.25,73.88]]]}},{"type":"Feature","properties":{"kind":"blob","cls":1,"id":38},"geometry":{"type":"Polygon","coordinates":[[[-109.0,25.88],[-108.12,27.0],[-109.12,28.0],[-109.62,29.5],[-110.88,30.25],[-111.0,30.88],[-111.75,30.88],[-113.38,29.75],[-113.62,28.25],[-111.5,25.88],[-109.0,25.88]]]}},{"type":"Feature","properties":{"kind":"blob","cls":1,"id":39},"geometry":{"type":"Polygon","coordinates":[[[-66.75,-15.88],[-65.5,-15.88],[-64.38,-14.5],[-64.38,-13.5],[-65.5,-12.12],[-67.75,-11.12],[-70.0,-11.12],[-71.25,-11.88],[-71.25,-10.62],[-74.12,-10.75],[-73.0,-12.38],[-72.5,-11.88],[-71.75,-12.38],[-71.5,-12.12],[-71.62,-12.75],[-71.25,-13.12],[-68.5,-13.88],[-67.88,-15.25],[-66.75,-15.88]]]}},{"type":"Feature","properties":{"kind":"blob","cls":0,"id":40},"geometry":{"type":"Polygon","coordinates":[[[-100.62,13.5],[-101.5,14.62],[-102.25,14.88],[-103.5,14.62],[-104.12,14.0],[-102.25,13.62],[-100.62,13.5]]]}},{"type":"Feature","properties":{"kind":"blob","cls":4,"id":41},"geometry":{"type":"MultiPolygon","coordinates":[[[[-122.75,36.88],[-121.25,36.62],[-119.88,37.5],[-121.88,40.25],[-122.0,41.12],[-122.88,40.75],[-122.75,39.38],[-123.75,40.62],[-124.62,39.5],[-124.12,38.0],[-122.75,36.88]]],[[[-123.5,40.88],[-123.62,40.75],[-123.5,40.62],[-123.5,40.88]]]]}},{"type":"Feature","properties":{"kind":"blob","cls":3,"id":42},"geometry":{"type":"MultiPolygon","coordinates":[[[[66.75,25.38],[68.75,25.38],[70.25,27.38],[72.75,28.62],[74.12,30.0],[74.12,31.5],[73.5,32.38],[70.5,31.88],[69.75,29.62],[67.38,29.75],[66.88,27.0],[65.62,26.75],[65.62,26.25],[66.75,25.38]]],[[[68.75,30.12],[68.62,30.0],[68.75,29.88],[68.75,30.12]]]]}},{"type":"Feature","properties":{"kind":"blob","cls":3,"id":43},"geometry":{"type":"Polygon","coordinates":[[[-46.0,-39.88],[-44.5,-39.38],[-43.38,-38.0],[-43.62,-36.75],[-47.5,-34.62],[-48.5,-34.62],[-51.25,-35.62],[-51.88,-36.25],[-51.88,-37.75],[-49.75,-39.38],[-46.0,-39.88]]]}},{"type":"Feature","properties":{"kind":"blob","cls":0,"id":44},"geometry":{"type":"Polygon","coordinates":[[[-101.5,11.12],[-100.88,12.0],[-104.12,11.5],[-101.5,11.12]]]}},{"type":"Feature","properties":{"kind":"blob","cls":3,"id":45},"geometry":{"type":"Polygon","coordinates":[[[-74.0,-12.38],[-74.0,-11.62],[-74.12,-11.75],[-74.0,-12.38]]]}},{"type":"Feature","properties":{"kind":"blob","cls":3,"id":46},"geometry":{"type":"Polygon","coordinates":[[[-74.5,-11.38],[-74.12,-11.25],[-74.25,-11.12],[-74.5,-11.38]]]}},{"type":"Feature","properties":{"kind":"blob","cls":4,"id":47},"geometry":{"type":"Polygon","coordinates":[[[-51.75,61.38],[-49.12,62.25],[-49.75,63.62],[-50.62,63.75],[-49.38,64.25],[-50.0,65.88],[-55.0,65.88],[-56.5,65.12],[-57.62,64.0],[-57.38,63.0],[-56.75,62.38],[-55.0,61.62],[-51.75,61.38]]]}},{"type":"Feature","properties":{"kind":"blob","cls":4,"id":48},"geometry":{"type":"Polygon","coordinates":[[[166.0,-35.62],[167.0,-35.88],[167.75,-35.62],[169.12,-34.25],[168.88,-32.5],[166.75,-31.38],[164.5,-31.88],[163.62,-33.25],[163.62,-34.25],[164.25,-35.12],[165.5,-35.62],[166.0,-34.88],[166.62,-35.0],[166.5,-35.62],[166.0,-35.62]]]}},{"type":"Feature","properties":{"kind":"blob","cls":4,"id":49},"geometry":{"type":"Polygon","coordinates":[[[-67.25,73.88],[-64.5,74.62],[-63.12,75.75],[-63.75,76.62],[-66.62,76.75],[-65.75,76.88],[-65.5,77.38],[-70.25,78.12],[-77.75,77.88],[-80.0,77.38],[-81.38,76.25],[-81.0,75.62],[-79.25,74.62],[-76.5,73.88],[-67.25,73.88]],[[-67.75,76.88],[-67.88,77.0],[-67.75,77.12],[-67.75,76.88]]]}},{"type":"Feature","properties":{"kind":"blob","cls":3,"id":50},"geometry":{"type":"Polygon","coordinates":[[[50.25,29.38],[51.12,30.25],[49.88,31.25],[49.88,32.0],[48.75,32.88],[47.75,33.38],[47.5,32.88],[46.75,33.12],[46.38,32.75],[46.62,30.75],[47.75,29.62],[50.25,29.38]]]}},{"type":"Feature","properties":{"kind":"blob","cls":4,"id":51},"geometry":{"type":"Polygon","coordinates":[[[88.25,52.38],[90.5,52.38],[91.88,53.0],[90.0,53.12],[88.25,52.38]]]}},{"type":"Feature","properties":{"kind":"center","id":1,"lat":61.5,"lon":179.75,"mslp":934.0,"hvtl":120.6,"hvtu":34.1,"hb":-8.0,"idx":2.0,"cls":0,"psfc":934.0,"terrain":false,"radius_km":200,"name":"sym deep warm","track":"T02"},"geometry":{"type":"Point","coordinates":[179.75,61.5]}},{"type":"Feature","properties":{"kind":"center","id":2,"lat":-63.25,"lon":-137.5,"mslp":947.2,"hvtl":105.1,"hvtu":-82.0,"hb":-9.2,"idx":0.9,"cls":1,"psfc":947.2,"terrain":false,"radius_km":200,"name":"sym shallow warm","track":"T11"},"geometry":{"type":"Point","coordinates":[-137.5,-63.25]}},{"type":"Feature","properties":{"kind":"center","id":3,"lat":-64.25,"lon":41.75,"mslp":958.8,"hvtl":-68.4,"hvtu":-235.3,"hb":57.5,"idx":-2.2,"cls":4,"psfc":958.8,"terrain":false,"radius_km":200,"name":"asym cold","track":"T20"},"geometry":{"type":"Point","coordinates":[41.75,-64.25]}},{"type":"Feature","properties":{"kind":"center","id":4,"lat":-57.5,"lon":123.75,"mslp":959.2,"hvtl":-2.6,"hvtu":-125.4,"hb":61.2,"idx":-0.9,"cls":4,"psfc":959.2,"terrain":false,"radius_km":200,"name":"asym cold","track":"T18"},"geometry":{"type":"Point","coordinates":[123.75,-57.5]}},{"type":"Feature","properties":{"kind":"center","id":5,"lat":-53.75,"lon":113.75,"mslp":960.8,"hvtl":93.1,"hvtu":-195.5,"hb":6.1,"idx":0.5,"cls":1,"psfc":960.8,"terrain":false,"radius_km":200,"name":"sym shallow warm","track":"T23"},"geometry":{"type":"Point","coordinates":[113.75,-53.75]}},{"type":"Feature","properties":{"kind":"center","id":6,"lat":-60.75,"lon":20.25,"mslp":966.3,"hvtl":13.8,"hvtu":-52.2,"hb":8.1,"idx":-0.2,"cls":1,"psfc":966.3,"terrain":false,"radius_km":200,"name":"sym shallow warm","track":"T24"},"geometry":{"type":"Point","coordinates":[20.25,-60.75]}},{"type":"Feature","properties":{"kind":"center","id":7,"lat":-68.0,"lon":-90.25,"mslp":968.1,"hvtl":-90.6,"hvtu":-295.5,"hb":32.2,"idx":-2.4,"cls":4,"psfc":968.1,"terrain":false,"radius_km":200,"name":"asym cold","track":"T34"},"geometry":{"type":"Point","coordinates":[-90.25,-68.0]}},{"type":"Feature","properties":{"kind":"center","id":8,"lat":-54.25,"lon":36.5,"mslp":971.0,"hvtl":-395.6,"hvtu":-364.6,"hb":89.6,"idx":-3.0,"cls":4,"psfc":971.0,"terrain":false,"radius_km":200,"name":"asym cold","track":"T07"},"geometry":{"type":"Point","coordinates":[36.5,-54.25]}},{"type":"Feature","properties":{"kind":"center","id":9,"lat":-74.25,"lon":-105.75,"mslp":973.2,"hvtl":-7.6,"hvtu":-128.7,"hb":15.4,"idx":-1.0,"cls":4,"psfc":973.2,"terrain":false,"radius_km":200,"name":"asym cold","track":"T29"},"geometry":{"type":"Point","coordinates":[-105.75,-74.25]}},{"type":"Feature","properties":{"kind":"center","id":10,"lat":-75.75,"lon":-64.25,"mslp":975.4,"hvtl":-393.7,"hvtu":-199.1,"hb":79.3,"idx":-3.0,"cls":4,"psfc":967.5,"terrain":false,"radius_km":200,"name":"asym cold"},"geometry":{"type":"Point","coordinates":[-64.25,-75.75]}},{"type":"Feature","properties":{"kind":"center","id":11,"lat":-75.75,"lon":-73.0,"mslp":975.9,"hvtl":-353.9,"hvtu":-167.8,"hb":81.7,"idx":-2.9,"cls":4,"psfc":901.7,"terrain":false,"radius_km":200,"name":"asym cold"},"geometry":{"type":"Point","coordinates":[-73.0,-75.75]}},{"type":"Feature","properties":{"kind":"center","id":12,"lat":-63.0,"lon":-25.25,"mslp":976.5,"hvtl":-52.8,"hvtu":-37.0,"hb":17.3,"idx":-1.3,"cls":4,"psfc":976.5,"terrain":false,"radius_km":200,"name":"asym cold","track":"T54"},"geometry":{"type":"Point","coordinates":[-25.25,-63.0]}},{"type":"Feature","properties":{"kind":"center","id":13,"lat":-77.25,"lon":-33.25,"mslp":977.8,"hvtl":-310.4,"hvtu":-8.0,"hb":50.7,"idx":-2.1,"cls":4,"psfc":958.7,"terrain":false,"radius_km":200,"name":"asym cold","track":"T51"},"geometry":{"type":"Point","coordinates":[-33.25,-77.25]}},{"type":"Feature","properties":{"kind":"center","id":14,"lat":67.5,"lon":-14.75,"mslp":978.9,"hvtl":201.6,"hvtu":-165.5,"hb":19.5,"idx":1.0,"cls":3,"psfc":978.9,"terrain":false,"radius_km":200,"name":"asym shallow warm"},"geometry":{"type":"Point","coordinates":[-14.75,67.5]}},{"type":"Feature","properties":{"kind":"center","id":15,"lat":-70.0,"lon":1.75,"mslp":980.1,"hvtl":-107.7,"hvtu":-91.9,"hb":32.4,"idx":-2.3,"cls":4,"psfc":978.1,"terrain":false,"radius_km":200,"name":"asym cold","track":"T05"},"geometry":{"type":"Point","coordinates":[1.75,-70.0]}},{"type":"Feature","properties":{"kind":"center","id":16,"lat":15.75,"lon":161.5,"mslp":981.0,"hvtl":75.0,"hvtu":148.4,"hb":1.2,"idx":2.2,"cls":0,"psfc":981.0,"terrain":false,"radius_km":200,"name":"sym deep warm","track":"T12"},"geometry":{"type":"Point","coordinates":[161.5,15.75]}},{"type":"Feature","properties":{"kind":"center","id":17,"lat":64.25,"lon":-22.0,"mslp":981.7,"hvtl":34.8,"hvtu":-65.8,"hb":16.9,"idx":0.1,"cls":3,"psfc":979.6,"terrain":false,"radius_km":200,"name":"asym shallow warm","track":"T62"},"geometry":{"type":"Point","coordinates":[-22.0,64.25]}},{"type":"Feature","properties":{"kind":"center","id":18,"lat":-66.75,"lon":92.0,"mslp":983.2,"hvtl":-254.5,"hvtu":-204.3,"hb":37.4,"idx":-2.9,"cls":4,"psfc":908.8,"terrain":false,"radius_km":200,"name":"asym cold","track":"T30"},"geometry":{"type":"Point","coordinates":[92.0,-66.75]}},{"type":"Feature","properties":{"kind":"center","id":19,"lat":76.5,"lon":49.5,"mslp":983.4,"hvtl":69.0,"hvtu":-38.7,"hb":7.0,"idx":0.8,"cls":1,"psfc":983.4,"terrain":false,"radius_km":200,"name":"sym shallow warm","track":"T50"},"geometry":{"type":"Point","coordinates":[49.5,76.5]}},{"type":"Feature","properties":{"kind":"center","id":20,"lat":-82.25,"lon":-143.0,"mslp":983.6,"hvtl":-124.0,"hvtu":-106.8,"hb":33.6,"idx":-2.5,"cls":4,"psfc":948.6,"terrain":false,"radius_km":200,"name":"asym cold","track":"T66"},"geometry":{"type":"Point","coordinates":[-143.0,-82.25]}},{"type":"Feature","properties":{"kind":"center","id":21,"lat":-81.0,"lon":170.5,"mslp":983.7,"hvtl":-23.0,"hvtu":-71.0,"hb":17.4,"idx":-1.1,"cls":4,"psfc":976.8,"terrain":false,"radius_km":200,"name":"asym cold"},"geometry":{"type":"Point","coordinates":[170.5,-81.0]}},{"type":"Feature","properties":{"kind":"center","id":22,"lat":-71.5,"lon":171.0,"mslp":984.1,"hvtl":-139.0,"hvtu":-190.4,"hb":26.9,"idx":-2.7,"cls":4,"psfc":984.1,"terrain":false,"radius_km":200,"name":"asym cold","track":"T37"},"geometry":{"type":"Point","coordinates":[171.0,-71.5]}},{"type":"Feature","properties":{"kind":"center","id":23,"lat":-70.25,"lon":163.0,"mslp":984.4,"hvtl":-174.1,"hvtu":-240.5,"hb":36.8,"idx":-2.9,"cls":4,"psfc":983.1,"terrain":false,"radius_km":200,"name":"asym cold","track":"T46"},"geometry":{"type":"Point","coordinates":[163.0,-70.25]}},{"type":"Feature","properties":{"kind":"center","id":24,"lat":-52.25,"lon":-98.25,"mslp":988.3,"hvtl":-133.8,"hvtu":-205.6,"hb":39.8,"idx":-2.7,"cls":4,"psfc":988.3,"terrain":false,"radius_km":200,"name":"asym cold","track":"T71"},"geometry":{"type":"Point","coordinates":[-98.25,-52.25]}},{"type":"Feature","properties":{"kind":"center","id":25,"lat":30.0,"lon":-173.0,"mslp":990.0,"hvtl":44.5,"hvtu":-79.1,"hb":7.1,"idx":0.2,"cls":1,"psfc":990.0,"terrain":false,"radius_km":200,"name":"sym shallow warm","track":"T70"},"geometry":{"type":"Point","coordinates":[-173.0,30.0]}},{"type":"Feature","properties":{"kind":"center","id":26,"lat":23.25,"lon":-126.0,"mslp":992.0,"hvtl":83.1,"hvtu":82.7,"hb":0.9,"idx":2.0,"cls":0,"psfc":992.0,"terrain":false,"radius_km":200,"name":"sym deep warm","track":"T42"},"geometry":{"type":"Point","coordinates":[-126.0,23.25]}},{"type":"Feature","properties":{"kind":"center","id":27,"lat":61.25,"lon":31.25,"mslp":993.3,"hvtl":17.7,"hvtu":-227.3,"hb":69.2,"idx":-0.6,"cls":3,"psfc":993.1,"terrain":false,"radius_km":200,"name":"asym shallow warm","track":"T81"},"geometry":{"type":"Point","coordinates":[31.25,61.25]}},{"type":"Feature","properties":{"kind":"center","id":28,"lat":-41.0,"lon":-96.25,"mslp":994.6,"hvtl":-26.3,"hvtu":-296.3,"hb":27.0,"idx":-1.5,"cls":4,"psfc":994.6,"terrain":false,"radius_km":200,"name":"asym cold","track":"T74"},"geometry":{"type":"Point","coordinates":[-96.25,-41.0]}},{"type":"Feature","properties":{"kind":"center","id":29,"lat":50.75,"lon":-130.75,"mslp":994.9,"hvtl":-52.8,"hvtu":-310.0,"hb":63.0,"idx":-2.0,"cls":4,"psfc":994.9,"terrain":false,"radius_km":200,"name":"asym cold","track":"T85"},"geometry":{"type":"Point","coordinates":[-130.75,50.75]}},{"type":"Feature","properties":{"kind":"center","id":30,"lat":75.25,"lon":144.0,"mslp":997.2,"hvtl":-57.7,"hvtu":-198.0,"hb":57.4,"idx":-2.0,"cls":4,"psfc":994.3,"terrain":false,"radius_km":200,"name":"asym cold","track":"T88"},"geometry":{"type":"Point","coordinates":[144.0,75.25]}},{"type":"Feature","properties":{"kind":"center","id":31,"lat":58.75,"lon":-78.75,"mslp":997.6,"hvtl":49.4,"hvtu":-41.3,"hb":4.7,"idx":0.5,"cls":1,"psfc":997.5,"terrain":false,"radius_km":200,"name":"sym shallow warm","track":"T87"},"geometry":{"type":"Point","coordinates":[-78.75,58.75]}},{"type":"Feature","properties":{"kind":"center","id":32,"lat":17.0,"lon":147.5,"mslp":997.9,"hvtl":26.9,"hvtu":58.8,"hb":6.8,"idx":1.1,"cls":0,"psfc":997.9,"terrain":false,"radius_km":200,"name":"sym deep warm","track":"T06"},"geometry":{"type":"Point","coordinates":[147.5,17.0]}},{"type":"Feature","properties":{"kind":"center","id":33,"lat":81.25,"lon":-173.0,"mslp":1000.7,"hvtl":23.7,"hvtu":-83.6,"hb":7.8,"idx":-0.2,"cls":1,"psfc":1000.7,"terrain":false,"radius_km":200,"name":"sym shallow warm","track":"T96"},"geometry":{"type":"Point","coordinates":[-173.0,81.25]}},{"type":"Feature","properties":{"kind":"center","id":34,"lat":60.25,"lon":93.25,"mslp":1001.0,"hvtl":-89.1,"hvtu":-46.6,"hb":36.7,"idx":-1.9,"cls":4,"psfc":937.7,"terrain":false,"radius_km":200,"name":"asym cold","track":"T100"},"geometry":{"type":"Point","coordinates":[93.25,60.25]}},{"type":"Feature","properties":{"kind":"center","id":35,"lat":34.0,"lon":157.25,"mslp":1001.0,"hvtl":28.1,"hvtu":-33.7,"hb":53.5,"idx":0.2,"cls":3,"psfc":1001.0,"terrain":false,"radius_km":200,"name":"asym shallow warm","track":"T44"},"geometry":{"type":"Point","coordinates":[157.25,34.0]}},{"type":"Feature","properties":{"kind":"center","id":36,"lat":36.5,"lon":-63.75,"mslp":1001.2,"hvtl":51.1,"hvtu":-254.1,"hb":32.0,"idx":-0.0,"cls":3,"psfc":1001.2,"terrain":false,"radius_km":200,"name":"asym shallow warm","track":"T105"},"geometry":{"type":"Point","coordinates":[-63.75,36.5]}},{"type":"Feature","properties":{"kind":"center","id":37,"lat":75.75,"lon":-9.25,"mslp":1004.3,"hvtl":-3.3,"hvtu":-245.2,"hb":66.0,"idx":-1.1,"cls":4,"psfc":1004.3,"terrain":false,"radius_km":200,"name":"asym cold","track":"T57"},"geometry":{"type":"Point","coordinates":[-9.25,75.75]}},{"type":"Feature","properties":{"kind":"center","id":38,"lat":29.0,"lon":-111.5,"mslp":1004.6,"hvtl":17.7,"hvtu":-193.1,"hb":-0.8,"idx":-0.6,"cls":1,"psfc":996.0,"terrain":false,"radius_km":200,"name":"sym shallow warm","track":"T107"},"geometry":{"type":"Point","coordinates":[-111.5,29.0]}},{"type":"Feature","properties":{"kind":"center","id":39,"lat":-13.5,"lon":-69.0,"mslp":1004.8,"hvtl":20.8,"hvtu":-46.6,"hb":8.0,"idx":-0.0,"cls":1,"psfc":969.8,"terrain":false,"radius_km":200,"name":"sym shallow warm","track":"T91"},"geometry":{"type":"Point","coordinates":[-69.0,-13.5]}},{"type":"Feature","properties":{"kind":"center","id":40,"lat":13.75,"lon":-102.25,"mslp":1004.9,"hvtl":57.3,"hvtu":31.3,"hb":6.8,"idx":1.3,"cls":0,"psfc":1004.9,"terrain":false,"radius_km":200,"name":"sym deep warm","track":"T104"},"geometry":{"type":"Point","coordinates":[-102.25,13.75]}},{"type":"Feature","properties":{"kind":"center","id":41,"lat":39.0,"lon":-121.75,"mslp":1005.0,"hvtl":-102.0,"hvtu":-183.0,"hb":51.6,"idx":-2.5,"cls":4,"psfc":1003.8,"terrain":false,"radius_km":200,"name":"asym cold"},"geometry":{"type":"Point","coordinates":[-121.75,39.0]}},{"type":"Feature","properties":{"kind":"center","id":42,"lat":30.5,"lon":71.5,"mslp":1005.7,"hvtl":6.1,"hvtu":-97.2,"hb":29.3,"idx":-0.6,"cls":3,"psfc":990.7,"terrain":false,"radius_km":200,"name":"asym shallow warm","track":"T103"},"geometry":{"type":"Point","coordinates":[71.5,30.5]}},{"type":"Feature","properties":{"kind":"center","id":43,"lat":-37.5,"lon":-48.25,"mslp":1006.1,"hvtl":41.9,"hvtu":-272.4,"hb":102.9,"idx":-0.2,"cls":3,"psfc":1006.1,"terrain":false,"radius_km":200,"name":"asym shallow warm","track":"T110"},"geometry":{"type":"Point","coordinates":[-48.25,-37.5]}},{"type":"Feature","properties":{"kind":"center","id":44,"lat":11.75,"lon":-101.75,"mslp":1006.5,"hvtl":81.0,"hvtu":41.6,"hb":-4.9,"idx":1.7,"cls":0,"psfc":1006.5,"terrain":false,"radius_km":200,"name":"sym deep warm","track":"T115"},"geometry":{"type":"Point","coordinates":[-101.75,11.75]}},{"type":"Feature","properties":{"kind":"center","id":45,"lat":-12.0,"lon":-74.0,"mslp":1009.2,"hvtl":44.2,"hvtu":-42.5,"hb":22.3,"idx":0.4,"cls":3,"psfc":932.6,"terrain":false,"radius_km":200,"name":"asym shallow warm"},"geometry":{"type":"Point","coordinates":[-74.0,-12.0]}},{"type":"Feature","properties":{"kind":"center","id":46,"lat":-11.25,"lon":-74.25,"mslp":1010.0,"hvtl":24.0,"hvtu":-36.4,"hb":12.2,"idx":0.1,"cls":3,"psfc":903.1,"terrain":true,"radius_km":200,"name":"asym shallow warm"},"geometry":{"type":"Point","coordinates":[-74.25,-11.25]}},{"type":"Feature","properties":{"kind":"center","id":47,"lat":62.75,"lon":-51.75,"mslp":1010.4,"hvtl":-43.6,"hvtu":-71.6,"hb":15.2,"idx":-1.4,"cls":4,"psfc":1010.4,"terrain":false,"radius_km":200,"name":"asym cold"},"geometry":{"type":"Point","coordinates":[-51.75,62.75]}},{"type":"Feature","properties":{"kind":"center","id":48,"lat":-33.75,"lon":166.5,"mslp":1010.6,"hvtl":-74.7,"hvtu":-103.8,"hb":22.8,"idx":-2.0,"cls":4,"psfc":1010.6,"terrain":false,"radius_km":200,"name":"asym cold","track":"T120"},"geometry":{"type":"Point","coordinates":[166.5,-33.75]}},{"type":"Feature","properties":{"kind":"center","id":49,"lat":76.0,"lon":-72.5,"mslp":1010.8,"hvtl":-238.0,"hvtu":-122.3,"hb":61.6,"idx":-2.8,"cls":4,"psfc":1010.8,"terrain":false,"radius_km":200,"name":"asym cold","track":"T112"},"geometry":{"type":"Point","coordinates":[-72.5,76.0]}},{"type":"Feature","properties":{"kind":"center","id":50,"lat":29.75,"lon":50.25,"mslp":1012.4,"hvtl":34.1,"hvtu":-85.2,"hb":14.4,"idx":-0.0,"cls":3,"psfc":1011.8,"terrain":false,"radius_km":200,"name":"asym shallow warm"},"geometry":{"type":"Point","coordinates":[50.25,29.75]}},{"type":"Feature","properties":{"kind":"center","id":51,"lat":53.0,"lon":91.75,"mslp":1015.5,"hvtl":-222.6,"hvtu":-231.8,"hb":34.3,"idx":-2.9,"cls":4,"psfc":936.2,"terrain":false,"radius_km":200,"name":"asym cold"},"geometry":{"type":"Point","coordinates":[91.75,53.0]}}]}