{"type":"FeatureCollection","features":[{"type":"Feature","properties":{"kind":"blob","cls":3,"id":1},"geometry":{"type":"Polygon","coordinates":[[[179.75,58.12],[180.0,61.88],[176.75,62.12],[174.5,61.38],[173.38,60.25],[173.5,59.62],[174.62,59.25],[174.12,59.0],[174.75,58.38],[175.5,58.12],[179.75,58.12]]]}},{"type":"Feature","properties":{"kind":"blob","cls":3,"id":1},"geometry":{"type":"Polygon","coordinates":[[[-179.88,61.75],[-180.0,58.12],[-178.25,59.12],[-177.88,59.75],[-178.12,60.75],[-178.75,61.38],[-179.88,61.75]]]}},{"type":"Feature","properties":{"kind":"blob","cls":1,"id":2},"geometry":{"type":"Polygon","coordinates":[[[-136.5,-66.38],[-133.75,-65.88],[-132.12,-65.0],[-131.88,-64.0],[-132.25,-63.38],[-134.0,-62.38],[-138.25,-62.12],[-140.5,-62.62],[-140.62,-63.0],[-140.12,-63.25],[-140.5,-63.62],[-142.38,-64.25],[-141.75,-65.38],[-140.25,-66.12],[-136.5,-66.38]]]}},{"type":"Feature","properties":{"kind":"blob","cls":4,"id":3},"geometry":{"type":"Polygon","coordinates":[[[32.5,-64.12],[37.25,-64.12],[38.88,-63.25],[39.12,-62.25],[37.75,-60.88],[34.0,-59.62],[30.5,-59.88],[28.12,-61.5],[28.12,-62.0],[30.0,-63.62],[32.5,-64.12]]]}},{"type":"Feature","properties":{"kind":"blob","cls":3,"id":4},"geometry":{"type":"Polygon","coordinates":[[[107.75,-58.38],[110.0,-57.88],[111.62,-56.5],[111.62,-55.5],[110.25,-54.38],[108.25,-53.88],[104.0,-54.12],[102.38,-55.5],[102.38,-56.75],[104.25,-58.12],[107.75,-58.38]]]}},{"type":"Feature","properties":{"kind":"blob","cls":1,"id":5},"geometry":{"type":"Polygon","coordinates":[[[-156.25,-69.12],[-154.25,-68.38],[-153.38,-67.5],[-153.38,-66.75],[-154.5,-65.62],[-156.25,-64.88],[-161.0,-64.88],[-162.75,-65.62],[-164.12,-67.0],[-164.12,-68.0],[-162.0,-69.12],[-156.25,-69.12]]]}},{"type":"Feature","properties":{"kind":"blob","cls":5,"id":6},"geometry":{"type":"Polygon","coordinates":[[[13.75,-61.62],[16.25,-60.88],[17.38,-59.75],[17.38,-59.25],[15.5,-57.88],[11.75,-57.62],[9.5,-58.38],[8.38,-59.5],[8.38,-60.0],[9.5,-61.12],[10.12,-61.0],[10.5,-60.12],[11.5,-60.12],[13.75,-61.62]]]}},{"type":"Feature","properties":{"kind":"blob","cls":4,"id":7},"geometry":{"type":"Polygon","coordinates":[[[-104.75,-63.62],[-101.25,-63.62],[-99.38,-62.25],[-99.38,-61.75],[-101.25,-60.38],[-104.5,-60.12],[-106.75,-60.88],[-107.62,-61.75],[-107.62,-62.25],[-106.75,-63.12],[-104.75,-63.62]]]}},{"type":"Feature","properties":{"kind":"blob","cls":4,"id":8},"geometry":{"type":"MultiPolygon","coordinates":[[[[116.25,-66.62],[116.12,-66.75],[116.25,-66.88],[116.25,-66.62]]],[[[111.0,-66.62],[111.25,-66.12],[112.75,-65.88],[114.0,-66.62],[116.12,-66.5],[115.5,-65.62],[112.5,-64.62],[109.5,-64.88],[104.0,-64.38],[102.0,-64.88],[100.62,-65.75],[100.75,-66.12],[102.25,-65.62],[105.75,-65.62],[105.25,-66.38],[111.0,-66.62]]]]}},{"type":"Feature","properties":{"kind":"blob","cls":3,"id":9},"geometry":{"type":"Polygon","coordinates":[[[24.75,-69.62],[25.62,-68.75],[25.62,-68.25],[24.75,-67.38],[22.75,-66.62],[20.12,-66.5],[22.0,-68.12],[24.75,-69.62]]]}},{"type":"Feature","properties":{"kind":"blob","cls":4,"id":10},"geometry":{"type":"Polygon","coordinates":[[[125.0,-55.62],[126.38,-54.75],[126.62,-53.75],[125.88,-52.25],[124.75,-51.12],[121.75,-50.38],[120.25,-50.88],[119.38,-51.75],[119.12,-53.5],[119.75,-54.62],[121.75,-55.62],[125.0,-55.62]]]}},{"type":"Feature","properties":{"kind":"blob","cls":4,"id":11},"geometry":{"type":"MultiPolygon","coordinates":[[[[51.0,-67.38],[51.62,-67.0],[51.0,-66.38],[51.0,-67.38]]],[[[74.5,-68.88],[74.62,-68.25],[73.25,-67.38],[70.75,-66.88],[67.5,-67.12],[68.12,-66.25],[67.75,-65.12],[64.5,-64.12],[59.5,-64.38],[57.25,-65.12],[54.5,-64.88],[52.25,-65.38],[51.12,-66.25],[55.25,-66.12],[55.88,-66.5],[56.0,-67.12],[62.25,-67.88],[69.0,-68.12],[69.38,-68.5],[69.0,-68.88],[74.5,-68.88]],[[67.0,-67.12],[67.12,-67.25],[67.0,-67.38],[67.0,-67.12]]],[[[79.0,-68.62],[79.75,-68.12],[83.0,-67.88],[84.88,-66.75],[85.38,-65.5],[84.25,-64.38],[83.0,-63.88],[77.25,-63.88],[74.0,-65.38],[73.38,-66.5],[74.5,-67.88],[79.0,-68.62]]]]}},{"type":"Feature","properties":{"kind":"blob","cls":4,"id":12},"geometry":{"type":"Polygon","coordinates":[[[-36.5,-79.88],[-31.25,-78.88],[-35.25,-78.62],[-35.38,-78.25],[-33.25,-77.38],[-31.5,-77.38],[-29.62,-76.75],[-32.75,-76.62],[-37.0,-77.12],[-38.75,-77.62],[-39.88,-78.5],[-38.75,-79.38],[-36.5,-79.88]]]}},{"type":"Feature","properties":{"kind":"blob","cls":4,"id":13},"geometry":{"type":"Polygon","coordinates":[[[-28.88,-76.5],[-28.75,-76.62],[-28.62,-76.5],[-28.88,-76.5]]]}},{"type":"Feature","properties":{"kind":"blob","cls":4,"id":14},"geometry":{"type":"Polygon","coordinates":[[[-37.62,-80.0],[-37.5,-80.12],[-37.38,-80.0],[-37.62,-80.0]]]}},{"type":"Feature","properties":{"kind":"blob","cls":4,"id":15},"geometry":{"type":"Polygon","coordinates":[[[-3.5,-71.88],[1.0,-71.12],[3.75,-71.12],[5.0,-70.88],[5.12,-70.25],[4.5,-69.62],[2.5,-68.88],[-1.5,-68.62],[-5.75,-69.38],[-7.38,-70.5],[-6.75,-71.62],[-3.5,-71.88]]]}},{"type":"Feature","properties":{"kind":"blob","cls":4,"id":16},"geometry":{"type":"Polygon","coordinates":[[[-78.75,-78.88],[-78.5,-79.12],[-72.25,-78.12],[-70.88,-77.25],[-70.88,-76.5],[-71.25,-76.12],[-73.25,-76.12],[-72.62,-75.75],[-73.25,-75.38],[-78.75,-74.88],[-80.38,-76.0],[-77.62,-77.25],[-78.62,-77.5],[-78.38,-78.25],[-78.75,-78.88]]]}},{"type":"Feature","properties":{"kind":"blob","cls":4,"id":17},"geometry":{"type":"Polygon","coordinates":[[[-55.0,-81.38],[-47.62,-81.25],[-47.75,-81.12],[-55.0,-81.38]]]}},{"type":"Feature","properties":{"kind":"blob","cls":1,"id":18},"geometry":{"type":"Polygon","coordinates":[[[50.75,72.38],[54.25,72.88],[56.5,73.62],[57.38,74.5],[57.38,75.0],[55.5,76.38],[54.0,76.88],[49.5,77.62],[44.25,77.62],[40.62,77.0],[44.25,76.62],[46.12,75.75],[46.0,75.38],[45.0,75.12],[40.75,75.38],[39.0,75.88],[38.5,75.88],[38.12,75.25],[39.25,74.12],[41.75,73.12],[50.75,72.38]]]}},{"type":"Feature","properties":{"kind":"blob","cls":1,"id":19},"geometry":{"type":"Polygon","coordinates":[[[-34.0,59.88],[-31.75,60.62],[-30.62,61.75],[-30.88,63.0],[-31.75,63.62],[-33.75,64.12],[-37.75,63.62],[-38.62,63.0],[-39.12,61.75],[-38.0,60.62],[-34.0,59.88]]]}},{"type":"Feature","properties":{"kind":"blob","cls":3,"id":20},"geometry":{"type":"Polygon","coordinates":[[[179.75,-82.88],[179.75,-79.12],[169.75,-78.88],[163.75,-79.12],[162.38,-79.5],[166.0,-81.12],[170.5,-82.12],[179.75,-82.88]]]}},{"type":"Feature","properties":{"kind":"blob","cls":3,"id":20},"geometry":{"type":"Polygon","coordinates":[[[-179.75,-79.38],[-180.0,-82.88],[-178.0,-83.12],[-174.12,-81.75],[-174.12,-81.25],[-175.0,-80.38],[-177.0,-79.62],[-179.75,-79.38]]]}},{"type":"Feature","properties":{"kind":"blob","cls":4,"id":21},"geometry":{"type":"Polygon","coordinates":[[[164.5,-75.38],[166.0,-75.38],[167.75,-74.88],[168.88,-74.0],[168.88,-73.5],[168.25,-72.88],[166.75,-73.12],[165.75,-73.88],[164.75,-73.62],[164.88,-74.25],[164.38,-74.5],[164.5,-75.38]]]}},{"type":"Feature","properties":{"kind":"blob","cls":4,"id":22},"geometry":{"type":"Polygon","coordinates":[[[152.75,-68.88],[154.0,-68.38],[154.88,-67.5],[154.88,-66.75],[153.5,-65.62],[150.0,-64.88],[145.0,-65.12],[143.75,-65.62],[142.88,-66.5],[142.88,-67.0],[143.5,-67.12],[143.75,-67.62],[152.75,-68.88]]]}},{"type":"Feature","properties":{"kind":"blob","cls":4,"id":23},"geometry":{"type":"Polygon","coordinates":[[[24.0,-49.38],[25.25,-48.88],[26.12,-48.0],[26.12,-47.0],[25.25,-46.12],[24.0,-45.62],[21.5,-46.12],[20.62,-47.0],[20.62,-48.0],[21.5,-48.88],[24.0,-49.38]]]}},{"type":"Feature","properties":{"kind":"blob","cls":1,"id":24},"geometry":{"type":"Polygon","coordinates":[[[-168.5,27.88],[-167.62,28.75],[-167.38,29.75],[-168.5,31.12],[-170.0,31.38],[-171.62,30.25],[-171.62,28.75],[-170.75,27.88],[-168.5,27.88]]]}},{"type":"Feature","properties":{"kind":"blob","cls":0,"id":25},"geometry":{"type":"Polygon","coordinates":[[[-124.75,20.88],[-123.5,20.88],[-122.62,21.75],[-122.62,23.75],[-124.25,24.88],[-125.5,24.62],[-126.62,23.5],[-126.62,21.75],[-125.25,21.88],[-124.62,21.25],[-124.75,20.88]]]}},{"type":"Feature","properties":{"kind":"blob","cls":4,"id":26},"geometry":{"type":"Polygon","coordinates":[[[-102.75,-48.12],[-100.75,-48.12],[-99.38,-47.0],[-99.12,-45.5],[-100.0,-44.38],[-101.25,-43.88],[-102.75,-43.88],[-104.0,-44.38],[-104.88,-45.25],[-104.88,-47.0],[-104.25,-47.62],[-102.75,-48.12]]]}},{"type":"Feature","properties":{"kind":"blob","cls":0,"id":27},"geometry":{"type":"Polygon","coordinates":[[[164.0,14.88],[164.0,15.62],[165.25,15.62],[165.62,16.25],[165.38,18.0],[164.0,18.88],[162.75,18.62],[161.88,17.5],[162.12,15.75],[164.0,14.88]]]}},{"type":"Feature","properties":{"kind":"blob","cls":3,"id":28},"geometry":{"type":"Polygon","coordinates":[[[-78.75,55.38],[-76.75,56.12],[-75.62,57.5],[-75.88,58.5],[-76.5,59.12],[-78.5,59.88],[-80.75,59.88],[-83.25,58.88],[-83.5,58.38],[-81.5,57.88],[-80.62,57.25],[-81.0,56.88],[-83.12,56.5],[-81.75,55.62],[-78.75,55.38]]]}},{"type":"Feature","properties":{"kind":"blob","cls":4,"id":29},"geometry":{"type":"Polygon","coordinates":[[[140.0,74.62],[143.25,75.62],[143.88,76.75],[142.5,77.88],[140.0,78.62],[132.25,79.62],[127.25,79.62],[123.0,79.12],[120.5,78.38],[119.62,77.5],[120.5,76.62],[122.25,75.88],[127.5,74.62],[140.0,74.62]]]}},{"type":"Feature","properties":{"kind":"blob","cls":3,"id":30},"geometry":{"type":"Polygon","coordinates":[[[179.75,77.12],[180.0,81.62],[175.0,80.88],[174.12,80.5],[174.5,79.88],[172.38,79.25],[173.0,78.38],[174.25,77.88],[177.75,77.12],[179.75,77.12]]]}},{"type":"Feature","properties":{"kind":"blob","cls":3,"id":30},"geometry":{"type":"Polygon","coordinates":[[[-179.75,81.62],[-180.0,77.12],[-179.25,76.88],[-169.0,77.12],[-162.5,78.62],[-160.5,79.38],[-159.88,80.0],[-161.75,81.12],[-164.75,81.62],[-179.75,81.62]]]}},{"type":"Feature","properties":{"kind":"blob","cls":4,"id":31},"geometry":{"type":"Polygon","coordinates":[[[26.5,57.88],[28.25,58.38],[29.88,59.5],[30.12,60.5],[29.5,61.38],[27.25,62.12],[24.75,62.12],[22.25,61.38],[21.38,60.75],[21.12,59.5],[22.25,58.38],[26.5,57.88]]]}},{"type":"Feature","properties":{"kind":"blob","cls":0,"id":32},"geometry":{"type":"Polygon","coordinates":[[[148.75,13.62],[149.62,14.75],[149.38,16.75],[148.0,17.62],[146.12,17.0],[147.38,16.0],[145.88,15.0],[145.88,14.5],[146.75,13.62],[148.75,13.62]]]}},{"type":"Feature","properties":{"kind":"blob","cls":3,"id":33},"geometry":{"type":"Polygon","coordinates":[[[-55.0,-25.12],[-54.12,-24.25],[-54.12,-22.75],[-55.75,-21.62],[-57.0,-21.88],[-57.88,-22.75],[-57.88,-24.25],[-57.0,-25.12],[-55.0,-25.12]]]}},{"type":"Feature","properties":{"kind":"blob","cls":2,"id":34},"geometry":{"type":"Polygon","coordinates":[[[156.5,29.38],[157.88,30.0],[158.38,30.75],[158.38,32.25],[157.75,33.12],[155.5,33.62],[153.88,32.75],[153.62,30.75],[154.25,29.88],[156.5,29.38]]]}},{"type":"Feature","properties":{"kind":"blob","cls":3,"id":35},"geometry":{"type":"Polygon","coordinates":[[[-50.5,-39.88],[-49.0,-39.38],[-48.12,-38.5],[-47.88,-37.5],[-49.25,-35.62],[-50.25,-35.12],[-53.5,-35.12],[-55.12,-36.25],[-55.12,-38.0],[-53.5,-39.38],[-50.5,-39.88]]]}},{"type":"Feature","properties":{"kind":"blob","cls":4,"id":36},"geometry":{"type":"MultiPolygon","coordinates":[[[[67.0,25.88],[68.75,25.88],[69.88,27.25],[70.0,28.88],[72.0,28.88],[73.12,30.0],[73.38,31.5],[72.75,32.38],[70.5,31.88],[69.75,29.62],[68.75,29.62],[68.0,30.12],[67.38,29.75],[66.88,27.0],[65.88,26.75],[67.0,25.88]]],[[[68.75,30.12],[68.62,30.0],[68.75,29.88],[68.75,30.12]]]]}},{"type":"Feature","properties":{"kind":"blob","cls":4,"id":37},"geometry":{"type":"Polygon","coordinates":[[[-139.25,47.88],[-136.5,47.88],[-135.12,49.0],[-135.12,50.5],[-137.25,51.62],[-139.75,51.38],[-141.12,50.25],[-141.38,49.5],[-140.75,48.38],[-139.25,47.88]]]}},{"type":"Feature","properties":{"kind":"blob","cls":6,"id":38},"geometry":{"type":"MultiPolygon","coordinates":[[[[-104.5,13.38],[-104.62,13.25],[-104.5,13.12],[-104.5,13.38]]],[[[-101.88,13.25],[-102.0,13.38],[-102.12,13.25],[-101.88,13.25]]],[[[-104.38,13.5],[-102.12,13.5],[-103.0,13.88],[-104.38,13.5]]]]}},{"type":"Feature","properties":{"kind":"blob","cls":4,"id":39},"geometry":{"type":"Polygon","coordinates":[[[-11.75,72.62],[-8.5,73.12],[-6.25,74.12],[-5.38,75.25],[-6.75,76.38],[-8.75,76.88],[-16.25,77.12],[-20.5,76.38],[-21.88,75.25],[-21.62,74.75],[-22.12,74.5],[-20.75,73.62],[-18.0,72.88],[-11.75,72.62]]]}},{"type":"Feature","properties":{"kind":"blob","cls":3,"id":40},"geometry":{"type":"Polygon","coordinates":[[[-76.5,28.62],[-75.38,30.0],[-75.62,31.0],[-76.75,32.12],[-78.75,32.12],[-80.12,30.5],[-79.88,29.5],[-79.0,28.62],[-76.5,28.62]]]}},{"type":"Feature","properties":{"kind":"blob","cls":6,"id":41},"geometry":{"type":"Polygon","coordinates":[[[-103.25,9.88],[-101.88,10.75],[-104.0,10.88],[-105.25,11.88],[-105.12,10.75],[-103.25,9.88]]]}},{"type":"Feature","properties":{"kind":"blob","cls":3,"id":42},"geometry":{"type":"Polygon","coordinates":[[[-70.12,-13.5],[-70.0,-13.62],[-69.88,-13.5],[-70.12,-13.5]]]}},{"type":"Feature","properties":{"kind":"blob","cls":4,"id":43},"geometry":{"type":"Polygon","coordinates":[[[-7.25,27.62],[-5.0,28.12],[-3.88,29.5],[-4.12,30.5],[-5.25,31.12],[-6.25,30.12],[-7.5,30.12],[-9.25,29.12],[-9.12,30.0],[-8.12,30.75],[-9.5,30.62],[-10.12,29.25],[-9.0,27.88],[-7.25,27.62]]]}},{"type":"Feature","properties":{"kind":"blob","cls":3,"id":44},"geometry":{"type":"Polygon","coordinates":[[[42.25,11.62],[42.88,12.25],[43.12,13.75],[41.75,15.38],[40.5,15.62],[39.62,15.25],[40.12,13.25],[39.88,12.0],[42.25,11.62]]]}},{"type":"Feature","properties":{"kind":"blob","cls":3,"id":45},"geometry":{"type":"Polygon","coordinates":[[[-67.0,33.62],[-65.12,34.75],[-65.12,36.25],[-65.75,36.88],[-67.75,37.38],[-69.62,36.25],[-69.62,34.75],[-69.0,34.12],[-67.0,33.62]]]}},{"type":"Feature","properties":{"kind":"blob","cls":4,"id":46},"geometry":{"type":"Polygon","coordinates":[[[19.5,-28.38],[20.12,-27.25],[19.5,-26.88],[19.0,-27.88],[18.0,-27.88],[18.25,-26.88],[19.62,-26.5],[19.0,-26.12],[18.0,-26.62],[18.38,-26.0],[17.75,-25.38],[17.62,-26.5],[17.12,-26.75],[17.12,-28.0],[19.5,-28.38]]]}},{"type":"Feature","properties":{"kind":"blob","cls":3,"id":47},"geometry":{"type":"MultiPolygon","coordinates":[[[[58.0,28.62],[57.88,28.25],[58.25,28.12],[58.38,28.25],[58.0,28.62]]],[[[57.88,28.75],[57.75,28.88],[57.62,28.75],[57.88,28.75]]],[[[58.88,28.25],[58.38,28.0],[59.25,27.88],[60.12,28.5],[59.62,30.5],[59.88,31.0],[59.5,31.38],[58.5,31.38],[57.62,30.5],[58.88,28.25]]]]}},{"type":"Feature","properties":{"kind":"blob","cls":4,"id":48},"geometry":{"type":"Polygon","coordinates":[[[162.5,-37.62],[164.5,-37.88],[166.62,-36.25],[165.88,-35.75],[165.88,-35.25],[166.88,-35.0],[166.88,-34.25],[165.75,-32.38],[163.75,-31.88],[162.5,-32.38],[161.62,-33.25],[161.12,-36.75],[162.5,-37.62]]]}},{"type":"Feature","properties":{"kind":"blob","cls":4,"id":49},"geometry":{"type":"MultiPolygon","coordinates":[[[[-64.88,-24.5],[-64.75,-24.62],[-64.62,-24.25],[-64.88,-24.5]]],[[[-64.62,-24.0],[-64.12,-24.25],[-64.12,-22.75],[-63.38,-22.0],[-63.38,-21.0],[-64.0,-20.62],[-64.12,-21.25],[-63.62,-21.75],[-64.38,-22.25],[-64.62,-24.0]]]]}},{"type":"Feature","properties":{"kind":"blob","cls":5,"id":50},"geometry":{"type":"Polygon","coordinates":[[[93.25,24.88],[94.38,26.25],[93.25,26.88],[90.88,26.75],[91.5,25.62],[92.38,25.5],[92.0,25.12],[93.25,24.88]]]}},{"type":"Feature","properties":{"kind":"blob","cls":1,"id":51},"geometry":{"type":"Polygon","coordinates":[[[65.5,28.12],[65.5,28.88],[65.38,28.75],[65.5,28.12]]]}},{"type":"Feature","properties":{"kind":"blob","cls":4,"id":52},"geometry":{"type":"Polygon","coordinates":[[[-60.5,72.12],[-54.38,73.0],[-58.5,74.88],[-60.0,76.38],[-66.75,76.62],[-64.62,77.5],[-65.5,77.88],[-69.62,78.0],[-69.0,78.38],[-65.75,78.62],[-64.75,79.12],[-73.0,78.88],[-75.5,78.38],[-76.88,77.5],[-76.5,76.62],[-75.5,76.12],[-71.25,75.62],[-71.88,74.5],[-70.25,73.38],[-67.25,72.38],[-60.5,72.12]],[[-71.62,78.25],[-70.38,78.25],[-70.5,78.12],[-71.62,78.25]],[[-68.12,77.0],[-67.38,77.0],[-67.5,76.88],[-68.12,77.0]]]}},{"type":"Feature","properties":{"kind":"blob","cls":5,"id":53},"geometry":{"type":"MultiPolygon","coordinates":[[[[95.0,25.38],[94.88,25.25],[95.0,25.12],[95.0,25.38]]],[[[95.25,25.62],[95.12,25.5],[95.5,25.38],[95.25,25.62]]]]}},{"type":"Feature","properties":{"kind":"blob","cls":1,"id":54},"geometry":{"type":"Polygon","coordinates":[[[47.25,29.38],[50.0,29.12],[51.5,29.38],[51.62,29.75],[50.12,31.0],[49.5,32.38],[47.75,33.38],[47.25,32.88],[46.5,33.38],[46.12,31.75],[47.25,29.38]]]}},{"type":"Feature","properties":{"kind":"blob","cls":4,"id":55},"geometry":{"type":"MultiPolygon","coordinates":[[[[-71.62,-31.5],[-70.88,-31.75],[-70.88,-30.5],[-71.25,-30.12],[-71.62,-30.5],[-71.62,-31.5]]],[[[-71.12,-30.0],[-71.0,-30.12],[-70.88,-29.75],[-71.12,-30.0]]]]}},{"type":"Feature","properties":{"kind":"blob","cls":1,"id":56},"geometry":{"type":"Polygon","coordinates":[[[64.75,29.38],[65.12,29.5],[65.0,29.62],[64.75,29.38]]]}},{"type":"Feature","properties":{"kind":"blob","cls":1,"id":57},"geometry":{"type":"MultiPolygon","coordinates":[[[[65.62,29.25],[65.75,29.12],[65.88,29.5],[65.62,29.25]]],[[[65.5,29.88],[65.38,29.75],[65.5,29.62],[65.5,29.88]]]]}},{"type":"Feature","properties":{"kind":"blob","cls":1,"id":58},"geometry":{"type":"Polygon","coordinates":[[[63.0,29.38],[63.38,30.0],[61.88,30.75],[61.88,31.25],[61.12,32.0],[62.0,32.12],[62.12,32.75],[61.25,33.12],[60.38,31.0],[61.0,29.62],[63.0,29.38]]]}},{"type":"Feature","properties":{"kind":"blob","cls":3,"id":59},"geometry":{"type":"Polygon","coordinates":[[[-8.0,31.38],[-7.62,31.5],[-7.75,31.62],[-8.0,31.38]]]}},{"type":"Feature","properties":{"kind":"blob","cls":4,"id":60},"geometry":{"type":"Polygon","coordinates":[[[-71.12,-32.25],[-71.0,-32.38],[-70.88,-32.25],[-71.12,-32.25]]]}},{"type":"Feature","properties":{"kind":"blob","cls":4,"id":61},"geometry":{"type":"Polygon","coordinates":[[[-72.0,-38.12],[-71.62,-37.75],[-71.0,-34.62],[-71.75,-34.62],[-73.38,-35.75],[-73.38,-37.25],[-72.0,-38.12]]]}},{"type":"Feature","properties":{"kind":"blob","cls":4,"id":62},"geometry":{"type":"Polygon","coordinates":[[[-65.12,-25.0],[-65.0,-25.12],[-64.88,-25.0],[-65.12,-25.0]]]}},{"type":"Feature","properties":{"kind":"blob","cls":3,"id":63},"geometry":{"type":"Polygon","coordinates":[[[-7.38,31.75],[-7.25,31.62],[-7.12,31.75],[-7.38,31.75]]]}},{"type":"Feature","properties":{"kind":"blob","cls":4,"id":64},"geometry":{"type":"Polygon","coordinates":[[[-68.75,-32.62],[-68.0,-32.38],[-67.38,-31.5],[-68.12,-31.5],[-67.62,-31.0],[-68.25,-29.88],[-68.62,-30.5],[-68.75,-32.62]]]}},{"type":"Feature","properties":{"kind":"blob","cls":3,"id":65},"geometry":{"type":"Polygon","coordinates":[[[-67.62,-30.5],[-67.5,-30.62],[-67.38,-30.5],[-67.62,-30.5]]]}},{"type":"Feature","properties":{"kind":"blob","cls":1,"id":66},"geometry":{"type":"Polygon","coordinates":[[[63.0,-33.62],[64.88,-32.5],[65.12,-30.75],[64.5,-29.88],[62.75,-29.12],[61.75,-29.12],[60.38,-29.75],[59.88,-30.5],[59.88,-32.0],[60.75,-33.12],[63.0,-33.62]],[[63.25,-33.12],[62.25,-32.88],[61.62,-32.25],[62.0,-31.38],[62.75,-31.38],[63.62,-32.25],[63.25,-33.12]]]}},{"type":"Feature","properties":{"kind":"blob","cls":4,"id":67},"geometry":{"type":"Polygon","coordinates":[[[45.25,-43.38],[47.5,-43.38],[48.62,-42.25],[48.62,-40.25],[47.25,-38.88],[44.75,-38.88],[43.38,-40.25],[43.38,-41.75],[43.88,-42.75],[45.25,-43.38]]]}},{"type":"Feature","properties":{"kind":"blob","cls":3,"id":68},"geometry":{"type":"MultiPolygon","coordinates":[[[[86.5,41.62],[86.38,41.5],[86.5,41.38],[86.5,41.62]]],[[[85.75,41.88],[85.62,41.75],[86.25,41.62],[85.75,41.88]]],[[[86.5,42.12],[86.38,42.0],[87.38,42.0],[86.5,42.12]]]]}},{"type":"Feature","properties":{"kind":"blob","cls":1,"id":69},"geometry":{"type":"Polygon","coordinates":[[[-69.5,-37.62],[-69.12,-37.25],[-69.5,-37.12],[-69.5,-37.62]]]}},{"type":"Feature","properties":{"kind":"blob","cls":3,"id":70},"geometry":{"type":"Polygon","coordinates":[[[88.5,41.88],[88.88,42.0],[88.75,42.12],[88.5,41.88]]]}},{"type":"Feature","properties":{"kind":"blob","cls":1,"id":71},"geometry":{"type":"Polygon","coordinates":[[[-70.12,-37.75],[-70.0,-37.88],[-69.88,-37.75],[-70.12,-37.75]]]}},{"type":"Feature","properties":{"kind":"center","id":1,"lat":60.0,"lon":177.75,"mslp":939.1,"hvtl":186.1,"hvtu":-101.9,"hb":14.6,"idx":1.1,"cls":3,"psfc":939.1,"terrain":false,"radius_km":200,"name":"asym shallow warm","track":"T02"},"geometry":{"type":"Point","coordinates":[177.75,60.0]}},{"type":"Feature","properties":{"kind":"center","id":2,"lat":-64.25,"lon":-137.25,"mslp":952.0,"hvtl":127.6,"hvtu":-137.4,"hb":-3.7,"idx":0.8,"cls":1,"psfc":952.0,"terrain":false,"radius_km":200,"name":"sym shallow warm","track":"T11"},"geometry":{"type":"Point","coordinates":[-137.25,-64.25]}},{"type":"Feature","properties":{"kind":"center","id":3,"lat":-62.0,"lon":33.25,"mslp":954.0,"hvtl":-55.6,"hvtu":-162.0,"hb":68.7,"idx":-1.9,"cls":4,"psfc":954.0,"terrain":false,"radius_km":200,"name":"asym cold","track":"T20"},"geometry":{"type":"Point","coordinates":[33.25,-62.0]}},{"type":"Feature","properties":{"kind":"center","id":4,"lat":-56.25,"lon":107.25,"mslp":958.3,"hvtl":120.7,"hvtu":-276.9,"hb":35.5,"idx":0.7,"cls":3,"psfc":958.3,"terrain":false,"radius_km":200,"name":"asym shallow warm","track":"T23"},"geometry":{"type":"Point","coordinates":[107.25,-56.25]}},{"type":"Feature","properties":{"kind":"center","id":5,"lat":-67.0,"lon":-158.25,"mslp":961.5,"hvtl":106.5,"hvtu":-25.2,"hb":-19.7,"idx":1.3,"cls":1,"psfc":961.5,"terrain":false,"radius_km":200,"name":"sym shallow warm","track":"T13"},"geometry":{"type":"Point","coordinates":[-158.25,-67.0]}},{"type":"Feature","properties":{"kind":"center","id":6,"lat":-59.5,"lon":13.25,"mslp":963.7,"hvtl":-133.7,"hvtu":-42.7,"hb":2.0,"idx":-2.1,"cls":5,"psfc":963.7,"terrain":false,"radius_km":200,"name":"sym cold","track":"T24"},"geometry":{"type":"Point","coordinates":[13.25,-59.5]}},{"type":"Feature","properties":{"kind":"center","id":7,"lat":-62.0,"lon":-103.5,"mslp":964.4,"hvtl":-46.4,"hvtu":-260.9,"hb":28.0,"idx":-1.9,"cls":4,"psfc":964.4,"terrain":false,"radius_km":200,"name":"asym cold","track":"T34"},"geometry":{"type":"Point","coordinates":[-103.5,-62.0]}},{"type":"Feature","properties":{"kind":"center","id":8,"lat":-66.5,"lon":107.75,"mslp":969.7,"hvtl":-153.9,"hvtu":-74.9,"hb":17.7,"idx":-2.5,"cls":4,"psfc":967.0,"terrain":false,"radius_km":200,"name":"asym cold","track":"T30"},"geometry":{"type":"Point","coordinates":[107.75,-66.5]}},{"type":"Feature","properties":{"kind":"center","id":9,"lat":-67.5,"lon":24.75,"mslp":972.1,"hvtl":197.2,"hvtu":-199.8,"hb":20.5,"idx":1.0,"cls":3,"psfc":972.1,"terrain":false,"radius_km":200,"name":"asym shallow warm"},"geometry":{"type":"Point","coordinates":[24.75,-67.5]}},{"type":"Feature","properties":{"kind":"center","id":10,"lat":-53.0,"lon":122.5,"mslp":973.1,"hvtl":-207.2,"hvtu":-146.0,"hb":60.8,"idx":-2.8,"cls":4,"psfc":973.1,"terrain":false,"radius_km":200,"name":"asym cold","track":"T18"},"geometry":{"type":"Point","coordinates":[122.5,-53.0]}},{"type":"Feature","properties":{"kind":"center","id":11,"lat":-65.75,"lon":79.75,"mslp":974.4,"hvtl":-387.3,"hvtu":-91.0,"hb":81.8,"idx":-2.7,"cls":4,"psfc":974.5,"terrain":false,"radius_km":200,"name":"asym cold","track":"T41"},"geometry":{"type":"Point","coordinates":[79.75,-65.75]}},{"type":"Feature","properties":{"kind":"center","id":12,"lat":-77.0,"lon":-35.5,"mslp":975.6,"hvtl":-241.0,"hvtu":-41.0,"hb":39.7,"idx":-2.4,"cls":4,"psfc":975.6,"terrain":false,"radius_km":200,"name":"asym cold","track":"T51"},"geometry":{"type":"Point","coordinates":[-35.5,-77.0]}},{"type":"Feature","properties":{"kind":"center","id":13,"lat":-76.5,"lon":-28.75,"mslp":976.4,"hvtl":-179.8,"hvtu":-62.2,"hb":39.6,"idx":-2.4,"cls":4,"psfc":912.4,"terrain":false,"radius_km":200,"name":"asym cold"},"geometry":{"type":"Point","coordinates":[-28.75,-76.5]}},{"type":"Feature","properties":{"kind":"center","id":14,"lat":-80.0,"lon":-37.5,"mslp":977.9,"hvtl":-168.6,"hvtu":-0.8,"hb":42.2,"idx":-1.9,"cls":4,"psfc":964.1,"terrain":false,"radius_km":200,"name":"asym cold"},"geometry":{"type":"Point","coordinates":[-37.5,-80.0]}},{"type":"Feature","properties":{"kind":"center","id":15,"lat":-70.25,"lon":-2.5,"mslp":978.7,"hvtl":-108.3,"hvtu":-120.2,"hb":28.8,"idx":-2.4,"cls":4,"psfc":975.0,"terrain":false,"radius_km":200,"name":"asym cold","track":"T05"},"geometry":{"type":"Point","coordinates":[-2.5,-70.25]}},{"type":"Feature","properties":{"kind":"center","id":16,"lat":-75.75,"lon":-80.25,"mslp":979.0,"hvtl":-213.7,"hvtu":-120.4,"hb":38.1,"idx":-2.8,"cls":4,"psfc":902.7,"terrain":false,"radius_km":200,"name":"asym cold","track":"T55"},"geometry":{"type":"Point","coordinates":[-80.25,-75.75]}},{"type":"Feature","properties":{"kind":"center","id":17,"lat":-81.25,"lon":-47.75,"mslp":979.9,"hvtl":-191.2,"hvtu":-16.5,"hb":37.9,"idx":-2.1,"cls":4,"psfc":963.4,"terrain":false,"radius_km":200,"name":"asym cold","track":"T58"},"geometry":{"type":"Point","coordinates":[-47.75,-81.25]}},{"type":"Feature","properties":{"kind":"center","id":18,"lat":74.5,"lon":48.5,"mslp":980.0,"hvtl":50.8,"hvtu":-29.4,"hb":-2.6,"idx":0.7,"cls":1,"psfc":980.0,"terrain":false,"radius_km":200,"name":"sym shallow warm","track":"T50"},"geometry":{"type":"Point","coordinates":[48.5,74.5]}},{"type":"Feature","properties":{"kind":"center","id":19,"lat":62.0,"lon":-35.0,"mslp":980.4,"hvtl":140.3,"hvtu":-75.7,"hb":-3.1,"idx":1.1,"cls":1,"psfc":980.4,"terrain":false,"radius_km":200,"name":"sym shallow warm","track":"T62"},"geometry":{"type":"Point","coordinates":[-35.0,62.0]}},{"type":"Feature","properties":{"kind":"center","id":20,"lat":-81.25,"lon":172.0,"mslp":984.2,"hvtl":21.7,"hvtu":-98.1,"hb":23.8,"idx":-0.3,"cls":3,"psfc":977.1,"terrain":false,"radius_km":200,"name":"asym shallow warm"},"geometry":{"type":"Point","coordinates":[172.0,-81.25]}},{"type":"Feature","properties":{"kind":"center","id":21,"lat":-74.75,"lon":165.0,"mslp":986.4,"hvtl":-8.3,"hvtu":-103.8,"hb":22.7,"idx":-0.9,"cls":4,"psfc":986.0,"terrain":false,"radius_km":200,"name":"asym cold","track":"T64"},"geometry":{"type":"Point","coordinates":[165.0,-74.75]}},{"type":"Feature","properties":{"kind":"center","id":22,"lat":-67.0,"lon":148.5,"mslp":987.1,"hvtl":-226.0,"hvtu":-305.6,"hb":21.7,"idx":-3.0,"cls":4,"psfc":987.1,"terrain":false,"radius_km":200,"name":"asym cold"},"geometry":{"type":"Point","coordinates":[148.5,-67.0]}},{"type":"Feature","properties":{"kind":"center","id":23,"lat":-47.5,"lon":23.25,"mslp":988.4,"hvtl":-450.3,"hvtu":-469.2,"hb":92.9,"idx":-3.0,"cls":4,"psfc":988.4,"terrain":false,"radius_km":200,"name":"asym cold","track":"T07"},"geometry":{"type":"Point","coordinates":[23.25,-47.5]}},{"type":"Feature","properties":{"kind":"center","id":24,"lat":29.5,"lon":-169.75,"mslp":988.6,"hvtl":138.3,"hvtu":-157.0,"hb":8.9,"idx":0.8,"cls":1,"psfc":988.6,"terrain":false,"radius_km":200,"name":"sym shallow warm","track":"T70"},"geometry":{"type":"Point","coordinates":[-169.75,29.5]}},{"type":"Feature","properties":{"kind":"center","id":25,"lat":22.75,"lon":-124.75,"mslp":990.3,"hvtl":73.4,"hvtu":107.2,"hb":2.9,"idx":2.0,"cls":0,"psfc":990.3,"terrain":false,"radius_km":200,"name":"sym deep warm","track":"T42"},"geometry":{"type":"Point","coordinates":[-124.75,22.75]}},{"type":"Feature","properties":{"kind":"center","id":26,"lat":-46.0,"lon":-102.25,"mslp":991.1,"hvtl":-106.8,"hvtu":-242.9,"hb":40.6,"idx":-2.6,"cls":4,"psfc":991.0,"terrain":false,"radius_km":200,"name":"asym cold","track":"T71"},"geometry":{"type":"Point","coordinates":[-102.25,-46.0]}},{"type":"Feature","properties":{"kind":"center","id":27,"lat":17.0,"lon":163.75,"mslp":992.8,"hvtl":61.2,"hvtu":80.7,"hb":7.4,"idx":1.8,"cls":0,"psfc":992.8,"terrain":false,"radius_km":200,"name":"sym deep warm","track":"T12"},"geometry":{"type":"Point","coordinates":[163.75,17.0]}},{"type":"Feature","properties":{"kind":"center","id":28,"lat":57.75,"lon":-79.5,"mslp":994.7,"hvtl":48.2,"hvtu":-58.4,"hb":11.3,"idx":0.4,"cls":3,"psfc":994.7,"terrain":false,"radius_km":200,"name":"asym shallow warm","track":"T87"},"geometry":{"type":"Point","coordinates":[-79.5,57.75]}},{"type":"Feature","properties":{"kind":"center","id":29,"lat":77.0,"lon":132.0,"mslp":997.4,"hvtl":-74.9,"hvtu":-207.5,"hb":62.4,"idx":-2.2,"cls":4,"psfc":997.4,"terrain":false,"radius_km":200,"name":"asym cold","track":"T88"},"geometry":{"type":"Point","coordinates":[132.0,77.0]}},{"type":"Feature","properties":{"kind":"center","id":30,"lat":79.75,"lon":-173.75,"mslp":999.3,"hvtl":35.9,"hvtu":-127.5,"hb":16.5,"idx":-0.2,"cls":3,"psfc":999.3,"terrain":false,"radius_km":200,"name":"asym shallow warm","track":"T96"},"geometry":{"type":"Point","coordinates":[-173.75,79.75]}},{"type":"Feature","properties":{"kind":"center","id":31,"lat":59.75,"lon":25.0,"mslp":999.3,"hvtl":-117.8,"hvtu":-321.4,"hb":63.5,"idx":-2.7,"cls":4,"psfc":999.3,"terrain":false,"radius_km":200,"name":"asym cold","track":"T81"},"geometry":{"type":"Point","coordinates":[25.0,59.75]}},{"type":"Feature","properties":{"kind":"center","id":32,"lat":15.5,"lon":147.75,"mslp":999.4,"hvtl":32.5,"hvtu":28.4,"hb":3.9,"idx":0.9,"cls":0,"psfc":999.4,"terrain":false,"radius_km":200,"name":"sym deep warm","track":"T06"},"geometry":{"type":"Point","coordinates":[147.75,15.5]}},{"type":"Feature","properties":{"kind":"center","id":33,"lat":-23.5,"lon":-56.0,"mslp":1001.9,"hvtl":39.0,"hvtu":-82.4,"hb":49.1,"idx":0.1,"cls":3,"psfc":969.6,"terrain":false,"radius_km":200,"name":"asym shallow warm"},"geometry":{"type":"Point","coordinates":[-56.0,-23.5]}},{"type":"Feature","properties":{"kind":"center","id":34,"lat":31.5,"lon":156.0,"mslp":1002.7,"hvtl":42.5,"hvtu":44.2,"hb":10.4,"idx":1.2,"cls":2,"psfc":1002.7,"terrain":false,"radius_km":200,"name":"asym deep warm","track":"T44"},"geometry":{"type":"Point","coordinates":[156.0,31.5]}},{"type":"Feature","properties":{"kind":"center","id":35,"lat":-37.75,"lon":-51.25,"mslp":1003.8,"hvtl":69.9,"hvtu":-244.6,"hb":105.1,"idx":0.2,"cls":3,"psfc":1003.8,"terrain":false,"radius_km":200,"name":"asym shallow warm","track":"T110"},"geometry":{"type":"Point","coordinates":[-51.25,-37.75]}},{"type":"Feature","properties":{"kind":"center","id":36,"lat":31.0,"lon":70.75,"mslp":1004.5,"hvtl":-31.1,"hvtu":-81.9,"hb":21.0,"idx":-1.3,"cls":4,"psfc":987.3,"terrain":false,"radius_km":200,"name":"asym cold","track":"T103"},"geometry":{"type":"Point","coordinates":[70.75,31.0]}},{"type":"Feature","properties":{"kind":"center","id":37,"lat":49.75,"lon":-138.0,"mslp":1004.8,"hvtl":-102.2,"hvtu":-363.4,"hb":79.2,"idx":-2.5,"cls":4,"psfc":1004.8,"terrain":false,"radius_km":200,"name":"asym cold","track":"T85"},"geometry":{"type":"Point","coordinates":[-138.0,49.75]}},{"type":"Feature","properties":{"kind":"center","id":38,"lat":13.25,"lon":-102.0,"mslp":1005.7,"hvtl":-32.5,"hvtu":49.1,"hb":7.3,"idx":-0.2,"cls":6,"psfc":1005.7,"terrain":false,"radius_km":200,"name":"shallow cold","track":"T104"},"geometry":{"type":"Point","coordinates":[-102.0,13.25]}},{"type":"Feature","properties":{"kind":"center","id":39,"lat":75.0,"lon":-14.5,"mslp":1006.1,"hvtl":-176.1,"hvtu":-203.6,"hb":60.4,"idx":-2.9,"cls":4,"psfc":1006.1,"terrain":false,"radius_km":200,"name":"asym cold","track":"T57"},"geometry":{"type":"Point","coordinates":[-14.5,75.0]}},{"type":"Feature","properties":{"kind":"center","id":40,"lat":30.25,"lon":-77.75,"mslp":1006.5,"hvtl":26.5,"hvtu":-156.8,"hb":26.4,"idx":-0.4,"cls":3,"psfc":1006.5,"terrain":false,"radius_km":200,"name":"asym shallow warm","track":"T116"},"geometry":{"type":"Point","coordinates":[-77.75,30.25]}},{"type":"Feature","properties":{"kind":"center","id":41,"lat":10.75,"lon":-102.5,"mslp":1006.9,"hvtl":-2.6,"hvtu":45.8,"hb":-5.5,"idx":0.4,"cls":6,"psfc":1006.9,"terrain":false,"radius_km":200,"name":"shallow cold","track":"T115"},"geometry":{"type":"Point","coordinates":[-102.5,10.75]}},{"type":"Feature","properties":{"kind":"center","id":42,"lat":-13.5,"lon":-70.0,"mslp":1007.5,"hvtl":60.2,"hvtu":-38.2,"hb":19.5,"idx":0.7,"cls":3,"psfc":906.7,"terrain":true,"radius_km":200,"name":"asym shallow warm"},"geometry":{"type":"Point","coordinates":[-70.0,-13.5]}},{"type":"Feature","properties":{"kind":"center","id":43,"lat":29.5,"lon":-7.75,"mslp":1008.1,"hvtl":-45.0,"hvtu":-321.1,"hb":49.6,"idx":-1.8,"cls":4,"psfc":961.1,"terrain":false,"radius_km":200,"name":"asym cold"},"geometry":{"type":"Point","coordinates":[-7.75,29.5]}},{"type":"Feature","properties":{"kind":"center","id":44,"lat":13.25,"lon":40.75,"mslp":1008.8,"hvtl":61.4,"hvtu":-6.7,"hb":15.1,"idx":1.0,"cls":3,"psfc":1011.5,"terrain":false,"radius_km":200,"name":"asym shallow warm"},"geometry":{"type":"Point","coordinates":[40.75,13.25]}},{"type":"Feature","properties":{"kind":"center","id":45,"lat":35.5,"lon":-67.5,"mslp":1009.0,"hvtl":21.3,"hvtu":-220.4,"hb":26.9,"idx":-0.6,"cls":3,"psfc":1009.0,"terrain":false,"radius_km":200,"name":"asym shallow warm","track":"T105"},"geometry":{"type":"Point","coordinates":[-67.5,35.5]}},{"type":"Feature","properties":{"kind":"center","id":46,"lat":-26.75,"lon":18.5,"mslp":1009.3,"hvtl":-15.3,"hvtu":-38.8,"hb":61.9,"idx":-0.7,"cls":4,"psfc":911.6,"terrain":true,"radius_km":200,"name":"asym cold"},"geometry":{"type":"Point","coordinates":[18.5,-26.75]}},{"type":"Feature","properties":{"kind":"center","id":47,"lat":30.75,"lon":58.25,"mslp":1010.6,"hvtl":164.7,"hvtu":-51.1,"hb":26.0,"idx":1.4,"cls":3,"psfc":981.0,"terrain":false,"radius_km":200,"name":"asym shallow warm","track":"T114"},"geometry":{"type":"Point","coordinates":[58.25,30.75]}},{"type":"Feature","properties":{"kind":"center","id":48,"lat":-34.5,"lon":164.0,"mslp":1010.9,"hvtl":-135.1,"hvtu":-71.4,"hb":26.7,"idx":-2.4,"cls":4,"psfc":1010.9,"terrain":false,"radius_km":200,"name":"asym cold","track":"T120"},"geometry":{"type":"Point","coordinates":[164.0,-34.5]}},{"type":"Feature","properties":{"kind":"center","id":49,"lat":-21.25,"lon":-64.0,"mslp":1011.4,"hvtl":-110.7,"hvtu":-180.9,"hb":88.9,"idx":-2.6,"cls":4,"psfc":917.0,"terrain":true,"radius_km":200,"name":"asym cold"},"geometry":{"type":"Point","coordinates":[-64.0,-21.25]}},{"type":"Feature","properties":{"kind":"center","id":50,"lat":26.5,"lon":91.25,"mslp":1011.7,"hvtl":-40.5,"hvtu":-83.6,"hb":-0.1,"idx":-1.5,"cls":5,"psfc":1006.2,"terrain":false,"radius_km":200,"name":"sym cold","track":"T124"},"geometry":{"type":"Point","coordinates":[91.25,26.5]}},{"type":"Feature","properties":{"kind":"center","id":51,"lat":28.5,"lon":65.5,"mslp":1011.9,"hvtl":47.7,"hvtu":-27.0,"hb":-0.0,"idx":0.6,"cls":1,"psfc":931.8,"terrain":false,"radius_km":200,"name":"sym shallow warm"},"geometry":{"type":"Point","coordinates":[65.5,28.5]}},{"type":"Feature","properties":{"kind":"center","id":52,"lat":75.5,"lon":-69.0,"mslp":1012.0,"hvtl":-245.6,"hvtu":-160.0,"hb":52.2,"idx":-2.9,"cls":4,"psfc":1012.0,"terrain":false,"radius_km":200,"name":"asym cold","track":"T112"},"geometry":{"type":"Point","coordinates":[-69.0,75.5]}},{"type":"Feature","properties":{"kind":"center","id":53,"lat":25.5,"lon":95.5,"mslp":1012.1,"hvtl":-39.3,"hvtu":-92.2,"hb":10.0,"idx":-1.5,"cls":5,"psfc":988.3,"terrain":false,"radius_km":200,"name":"sym cold","track":"T122"},"geometry":{"type":"Point","coordinates":[95.5,25.5]}},{"type":"Feature","properties":{"kind":"center","id":54,"lat":30.0,"lon":50.0,"mslp":1012.4,"hvtl":66.0,"hvtu":-67.6,"hb":9.4,"idx":0.6,"cls":1,"psfc":1012.4,"terrain":false,"radius_km":200,"name":"sym shallow warm"},"geometry":{"type":"Point","coordinates":[50.0,30.0]}},{"type":"Feature","properties":{"kind":"center","id":55,"lat":-30.75,"lon":-71.0,"mslp":1012.6,"hvtl":-101.8,"hvtu":-153.7,"hb":39.0,"idx":-2.4,"cls":4,"psfc":932.6,"terrain":false,"radius_km":200,"name":"asym cold"},"geometry":{"type":"Point","coordinates":[-71.0,-30.75]}},{"type":"Feature","properties":{"kind":"center","id":56,"lat":29.5,"lon":65.0,"mslp":1012.6,"hvtl":32.0,"hvtu":-31.4,"hb":0.1,"idx":0.3,"cls":1,"psfc":917.7,"terrain":true,"radius_km":200,"name":"sym shallow warm"},"geometry":{"type":"Point","coordinates":[65.0,29.5]}},{"type":"Feature","properties":{"kind":"center","id":57,"lat":29.75,"lon":65.5,"mslp":1013.3,"hvtl":76.5,"hvtu":-44.9,"hb":-1.8,"idx":0.9,"cls":1,"psfc":908.3,"terrain":true,"radius_km":200,"name":"sym shallow warm"},"geometry":{"type":"Point","coordinates":[65.5,29.75]}},{"type":"Feature","properties":{"kind":"center","id":58,"lat":30.0,"lon":63.0,"mslp":1013.4,"hvtl":129.0,"hvtu":-36.8,"hb":0.1,"idx":1.4,"cls":1,"psfc":941.0,"terrain":false,"radius_km":200,"name":"sym shallow warm","track":"T133"},"geometry":{"type":"Point","coordinates":[63.0,30.0]}},{"type":"Feature","properties":{"kind":"center","id":59,"lat":31.5,"lon":-8.0,"mslp":1014.1,"hvtl":13.1,"hvtu":-290.8,"hb":63.6,"idx":-0.7,"cls":3,"psfc":945.3,"terrain":false,"radius_km":200,"name":"asym shallow warm"},"geometry":{"type":"Point","coordinates":[-8.0,31.5]}},{"type":"Feature","properties":{"kind":"center","id":60,"lat":-32.25,"lon":-71.0,"mslp":1014.3,"hvtl":-100.5,"hvtu":-207.8,"hb":27.0,"idx":-2.5,"cls":4,"psfc":910.6,"terrain":true,"radius_km":200,"name":"asym cold"},"geometry":{"type":"Point","coordinates":[-71.0,-32.25]}},{"type":"Feature","properties":{"kind":"center","id":61,"lat":-35.5,"lon":-72.0,"mslp":1014.3,"hvtl":-6.6,"hvtu":-129.8,"hb":12.3,"idx":-1.0,"cls":4,"psfc":985.1,"terrain":false,"radius_km":200,"name":"asym cold","track":"T102"},"geometry":{"type":"Point","coordinates":[-72.0,-35.5]}},{"type":"Feature","properties":{"kind":"center","id":62,"lat":-25.0,"lon":-65.0,"mslp":1014.8,"hvtl":-12.5,"hvtu":-301.0,"hb":58.6,"idx":-1.2,"cls":4,"psfc":903.7,"terrain":true,"radius_km":200,"name":"asym cold"},"geometry":{"type":"Point","coordinates":[-65.0,-25.0]}},{"type":"Feature","properties":{"kind":"center","id":63,"lat":31.75,"lon":-7.25,"mslp":1015.4,"hvtl":7.2,"hvtu":-287.4,"hb":69.7,"idx":-0.8,"cls":3,"psfc":923.4,"terrain":true,"radius_km":200,"name":"asym shallow warm"},"geometry":{"type":"Point","coordinates":[-7.25,31.75]}},{"type":"Feature","properties":{"kind":"center","id":64,"lat":-30.0,"lon":-68.25,"mslp":1016.8,"hvtl":-16.3,"hvtu":-296.9,"hb":26.4,"idx":-1.3,"cls":4,"psfc":909.9,"terrain":true,"radius_km":200,"name":"asym cold"},"geometry":{"type":"Point","coordinates":[-68.25,-30.0]}},{"type":"Feature","properties":{"kind":"center","id":65,"lat":-30.5,"lon":-67.5,"mslp":1016.9,"hvtl":2.3,"hvtu":-312.9,"hb":35.4,"idx":-0.9,"cls":3,"psfc":903.4,"terrain":true,"radius_km":200,"name":"asym shallow warm"},"geometry":{"type":"Point","coordinates":[-67.5,-30.5]}},{"type":"Feature","properties":{"kind":"center","id":66,"lat":-31.25,"lon":62.5,"mslp":1018.9,"hvtl":37.5,"hvtu":-116.1,"hb":3.2,"idx":-0.1,"cls":1,"psfc":1018.9,"terrain":false,"radius_km":200,"name":"sym shallow warm","track":"T135"},"geometry":{"type":"Point","coordinates":[62.5,-31.25]}},{"type":"Feature","properties":{"kind":"center","id":67,"lat":-41.0,"lon":45.75,"mslp":1019.2,"hvtl":-34.9,"hvtu":-73.1,"hb":17.1,"idx":-1.3,"cls":4,"psfc":1019.2,"terrain":false,"radius_km":200,"name":"asym cold"},"geometry":{"type":"Point","coordinates":[45.75,-41.0]}},{"type":"Feature","properties":{"kind":"center","id":68,"lat":41.75,"lon":85.75,"mslp":1019.8,"hvtl":182.1,"hvtu":-180.6,"hb":86.9,"idx":1.0,"cls":3,"psfc":915.4,"terrain":true,"radius_km":200,"name":"asym shallow warm"},"geometry":{"type":"Point","coordinates":[85.75,41.75]}},{"type":"Feature","properties":{"kind":"center","id":69,"lat":-37.25,"lon":-69.5,"mslp":1022.0,"hvtl":55.4,"hvtu":-139.5,"hb":-9.8,"idx":0.1,"cls":1,"psfc":911.5,"terrain":true,"radius_km":200,"name":"sym shallow warm"},"geometry":{"type":"Point","coordinates":[-69.5,-37.25]}},{"type":"Feature","properties":{"kind":"center","id":70,"lat":42.0,"lon":88.75,"mslp":1022.1,"hvtl":141.3,"hvtu":-211.1,"hb":81.4,"idx":0.8,"cls":3,"psfc":932.7,"terrain":false,"radius_km":200,"name":"asym shallow warm"},"geometry":{"type":"Point","coordinates":[88.75,42.0]}},{"type":"Feature","properties":{"kind":"center","id":71,"lat":-37.75,"lon":-70.0,"mslp":1022.8,"hvtl":59.5,"hvtu":-123.1,"hb":-15.7,"idx":0.2,"cls":1,"psfc":907.3,"terrain":true,"radius_km":200,"name":"sym shallow warm"},"geometry":{"type":"Point","coordinates":[-70.0,-37.75]}}]}