{"type":"FeatureCollection","features":[{"type":"Feature","properties":{"kind":"blob","cls":0,"id":1},"geometry":{"type":"Polygon","coordinates":[[[58.75,-64.38],[60.75,-63.88],[62.12,-63.0],[62.38,-62.0],[61.25,-60.88],[59.25,-60.38],[56.5,-60.38],[53.75,-61.38],[53.38,-62.0],[53.62,-63.25],[55.25,-64.12],[58.75,-64.38]],[[57.88,-62.75],[58.25,-62.38],[61.25,-62.38],[61.88,-62.75],[61.25,-63.12],[57.88,-62.75]]]}},{"type":"Feature","properties":{"kind":"blob","cls":3,"id":2},"geometry":{"type":"Polygon","coordinates":[[[149.5,-64.12],[151.5,-63.62],[152.38,-63.0],[152.62,-61.75],[151.5,-60.62],[149.25,-59.88],[147.0,-59.88],[144.75,-60.62],[143.88,-61.5],[144.38,-63.0],[146.0,-63.88],[149.5,-64.12]]]}},{"type":"Feature","properties":{"kind":"blob","cls":1,"id":3},"geometry":{"type":"Polygon","coordinates":[[[-126.25,-61.88],[-124.5,-61.38],[-123.12,-60.0],[-123.12,-59.25],[-124.5,-57.88],[-126.25,-57.38],[-129.0,-57.38],[-130.75,-57.88],[-132.12,-59.25],[-132.12,-59.75],[-130.75,-61.12],[-126.25,-61.88]]]}},{"type":"Feature","properties":{"kind":"blob","cls":0,"id":4},"geometry":{"type":"Polygon","coordinates":[[[179.75,59.38],[180.0,62.38],[178.62,61.5],[178.62,60.25],[179.75,59.38]]]}},{"type":"Feature","properties":{"kind":"blob","cls":0,"id":4},"geometry":{"type":"Polygon","coordinates":[[[-179.88,62.5],[-179.75,59.12],[-175.75,59.12],[-173.62,60.5],[-173.62,61.5],[-175.25,62.62],[-177.0,62.88],[-178.0,62.12],[-179.88,62.5]]]}},{"type":"Feature","properties":{"kind":"blob","cls":4,"id":5},"geometry":{"type":"Polygon","coordinates":[[[171.25,-67.38],[174.5,-66.88],[175.75,-66.38],[176.62,-65.25],[175.25,-63.88],[172.25,-63.12],[166.75,-63.12],[164.5,-63.62],[163.38,-64.5],[163.12,-65.25],[164.0,-66.38],[166.25,-67.12],[171.25,-67.38]]]}},{"type":"Feature","properties":{"kind":"blob","cls":3,"id":6},"geometry":{"type":"Polygon","coordinates":[[[-30.75,-68.12],[-28.0,-67.38],[-26.88,-66.75],[-26.38,-65.5],[-27.75,-64.38],[-30.0,-63.88],[-34.75,-64.12],[-36.88,-65.25],[-37.12,-66.25],[-36.75,-66.88],[-34.25,-67.88],[-30.75,-68.12]]]}},{"type":"Feature","properties":{"kind":"blob","cls":1,"id":7},"geometry":{"type":"Polygon","coordinates":[[[138.75,-60.38],[139.88,-59.25],[139.88,-58.25],[138.25,-57.12],[134.25,-56.88],[132.25,-57.62],[131.62,-58.25],[131.75,-58.62],[135.75,-59.12],[138.75,-60.38]]]}},{"type":"Feature","properties":{"kind":"blob","cls":0,"id":8},"geometry":{"type":"Polygon","coordinates":[[[121.75,-59.38],[122.25,-59.38],[123.25,-58.88],[126.5,-58.38],[131.0,-58.62],[131.38,-57.25],[130.75,-56.38],[129.25,-55.62],[126.5,-55.38],[122.5,-57.38],[121.62,-58.25],[121.75,-59.38]]]}},{"type":"Feature","properties":{"kind":"blob","cls":3,"id":9},"geometry":{"type":"Polygon","coordinates":[[[-113.0,-73.12],[-110.25,-72.62],[-108.5,-71.88],[-107.12,-70.5],[-107.12,-70.0],[-108.25,-68.62],[-109.75,-68.12],[-113.75,-67.88],[-117.0,-68.38],[-121.0,-69.62],[-122.38,-71.0],[-121.25,-72.12],[-118.5,-72.88],[-113.0,-73.12]]]}},{"type":"Feature","properties":{"kind":"blob","cls":0,"id":10},"geometry":{"type":"Polygon","coordinates":[[[144.5,16.62],[144.88,17.25],[144.62,18.75],[143.25,19.62],[142.0,19.38],[141.12,18.25],[141.12,17.25],[144.5,16.62]]]}},{"type":"Feature","properties":{"kind":"blob","cls":0,"id":11},"geometry":{"type":"Polygon","coordinates":[[[126.25,-61.12],[129.62,-59.75],[126.5,-59.62],[122.62,-60.25],[122.75,-60.62],[126.25,-61.12]]]}},{"type":"Feature","properties":{"kind":"blob","cls":0,"id":12},"geometry":{"type":"Polygon","coordinates":[[[134.25,-60.88],[137.12,-60.75],[132.12,-60.0],[134.25,-60.88]]]}},{"type":"Feature","properties":{"kind":"blob","cls":0,"id":13},"geometry":{"type":"Polygon","coordinates":[[[162.0,13.12],[162.88,14.25],[162.62,16.0],[161.25,16.88],[160.0,16.62],[159.12,15.5],[160.62,15.5],[160.25,14.62],[159.12,14.5],[160.0,13.12],[162.0,13.12]]]}},{"type":"Feature","properties":{"kind":"blob","cls":3,"id":14},"geometry":{"type":"Polygon","coordinates":[[[21.0,-70.38],[24.5,-70.62],[26.12,-70.25],[22.75,-70.12],[21.0,-70.38]]]}},{"type":"Feature","properties":{"kind":"blob","cls":1,"id":15},"geometry":{"type":"Polygon","coordinates":[[[1.25,63.88],[3.5,64.38],[4.88,65.5],[4.88,66.25],[3.5,67.38],[1.25,67.88],[1.12,67.25],[0.25,66.62],[-1.25,66.62],[-1.75,67.62],[-4.38,66.75],[-4.62,65.75],[-4.25,65.12],[-2.25,64.12],[1.25,63.88]]]}},{"type":"Feature","properties":{"kind":"blob","cls":4,"id":16},"geometry":{"type":"Polygon","coordinates":[[[0.75,-71.38],[1.12,-71.25],[1.0,-71.12],[0.75,-71.38]]]}},{"type":"Feature","properties":{"kind":"blob","cls":4,"id":17},"geometry":{"type":"Polygon","coordinates":[[[2.75,-71.12],[4.62,-71.0],[4.5,-70.88],[2.75,-71.12]]]}},{"type":"Feature","properties":{"kind":"blob","cls":5,"id":18},"geometry":{"type":"Polygon","coordinates":[[[164.5,-75.12],[166.0,-75.38],[167.75,-74.88],[168.88,-74.0],[168.88,-73.5],[168.25,-72.88],[166.75,-73.12],[165.75,-73.88],[165.0,-73.62],[164.5,-75.12]]]}},{"type":"Feature","properties":{"kind":"blob","cls":4,"id":19},"geometry":{"type":"Polygon","coordinates":[[[-50.75,51.62],[-48.75,52.38],[-47.88,53.5],[-48.12,54.75],[-48.75,55.38],[-50.75,56.12],[-52.25,56.12],[-54.25,55.38],[-55.12,54.25],[-54.88,53.0],[-53.25,51.88],[-50.75,51.62]]]}},{"type":"Feature","properties":{"kind":"blob","cls":4,"id":20},"geometry":{"type":"Polygon","coordinates":[[[-67.75,-76.62],[-61.25,-76.62],[-58.75,-75.88],[-58.12,-74.75],[-59.25,-73.88],[-61.75,-73.38],[-62.5,-74.38],[-63.5,-74.38],[-63.75,-74.88],[-66.75,-75.88],[-70.88,-76.25],[-67.75,-76.62]]]}},{"type":"Feature","properties":{"kind":"blob","cls":4,"id":21},"geometry":{"type":"Polygon","coordinates":[[[-106.0,50.12],[-104.5,50.62],[-103.62,51.5],[-103.62,53.0],[-104.5,53.88],[-106.0,54.38],[-107.75,54.38],[-109.25,53.88],[-110.12,53.0],[-110.12,52.0],[-108.75,50.62],[-106.0,50.12]]]}},{"type":"Feature","properties":{"kind":"blob","cls":4,"id":22},"geometry":{"type":"MultiPolygon","coordinates":[[[[-79.25,-79.12],[-78.5,-79.12],[-72.5,-78.12],[-71.12,-77.25],[-71.12,-76.75],[-71.75,-76.12],[-73.0,-76.12],[-72.75,-75.62],[-73.75,-75.38],[-79.0,-74.88],[-80.62,-75.75],[-80.5,-76.38],[-77.88,-77.0],[-78.0,-77.38],[-79.12,-77.5],[-79.25,-79.12]]],[[[-72.5,-75.38],[-72.62,-75.5],[-72.5,-75.62],[-72.5,-75.38]]]]}},{"type":"Feature","properties":{"kind":"blob","cls":1,"id":23},"geometry":{"type":"Polygon","coordinates":[[[-89.5,-46.62],[-88.25,-46.12],[-87.38,-45.0],[-87.62,-43.75],[-89.5,-42.62],[-92.0,-43.12],[-92.62,-43.75],[-92.88,-45.0],[-92.0,-46.12],[-89.5,-46.62]]]}},{"type":"Feature","properties":{"kind":"blob","cls":4,"id":24},"geometry":{"type":"Polygon","coordinates":[[[56.25,78.12],[61.25,78.62],[65.5,79.88],[65.88,81.0],[65.25,81.62],[63.75,82.12],[59.5,82.88],[49.5,83.12],[49.62,83.75],[49.25,84.12],[46.5,84.88],[32.25,85.88],[2.75,85.62],[-6.25,84.62],[-8.25,84.12],[-9.12,83.5],[-8.25,82.88],[-6.25,82.38],[0.25,81.62],[4.75,82.12],[19.5,82.12],[24.88,81.5],[23.0,81.12],[37.5,81.38],[38.0,80.38],[41.0,79.38],[47.5,78.38],[56.25,78.12]]]}},{"type":"Feature","properties":{"kind":"blob","cls":4,"id":25},"geometry":{"type":"Polygon","coordinates":[[[20.0,60.12],[21.88,61.5],[21.88,62.25],[20.0,63.62],[16.25,63.88],[14.0,63.12],[13.12,62.25],[13.12,61.75],[14.0,60.88],[15.75,60.12],[20.0,60.12]]]}},{"type":"Feature","properties":{"kind":"blob","cls":3,"id":26},"geometry":{"type":"Polygon","coordinates":[[[-125.5,23.12],[-123.88,24.25],[-123.88,26.25],[-125.75,27.62],[-127.25,27.38],[-128.12,26.5],[-128.12,24.25],[-127.25,23.38],[-125.5,23.12]]]}},{"type":"Feature","properties":{"kind":"blob","cls":4,"id":27},"geometry":{"type":"Polygon","coordinates":[[[43.25,61.88],[46.5,61.88],[47.75,62.38],[48.62,63.5],[47.75,64.62],[45.25,65.38],[42.25,65.12],[40.38,64.0],[40.12,63.5],[41.0,62.38],[43.25,61.88]]]}},{"type":"Feature","properties":{"kind":"blob","cls":3,"id":28},"geometry":{"type":"Polygon","coordinates":[[[179.88,29.0],[179.75,32.12],[177.5,32.12],[176.38,31.0],[176.38,30.0],[177.5,28.62],[179.0,28.38],[179.5,29.38],[179.88,29.0]]]}},{"type":"Feature","properties":{"kind":"blob","cls":3,"id":28},"geometry":{"type":"Polygon","coordinates":[[[-179.88,31.75],[-180.0,28.88],[-179.12,30.0],[-179.12,31.0],[-179.88,31.75]]]}},{"type":"Feature","properties":{"kind":"blob","cls":4,"id":29},"geometry":{"type":"Polygon","coordinates":[[[-69.88,-73.5],[-69.75,-73.62],[-69.62,-73.5],[-69.88,-73.5]]]}},{"type":"Feature","properties":{"kind":"blob","cls":4,"id":30},"geometry":{"type":"Polygon","coordinates":[[[117.25,47.88],[119.38,49.0],[119.62,50.25],[118.25,52.12],[115.75,52.62],[114.5,51.88],[114.25,52.12],[113.38,51.25],[113.88,51.0],[113.12,50.5],[113.62,50.0],[113.38,49.5],[115.0,48.12],[117.25,47.88]],[[116.88,50.75],[116.75,51.38],[117.88,51.25],[117.75,50.62],[116.88,50.75]]]}},{"type":"Feature","properties":{"kind":"blob","cls":1,"id":31},"geometry":{"type":"Polygon","coordinates":[[[69.0,25.38],[70.12,26.5],[70.62,28.25],[69.75,29.62],[68.75,29.62],[68.0,30.12],[67.38,29.75],[66.88,26.75],[65.62,26.75],[65.62,26.25],[66.5,25.38],[69.0,25.38]]]}},{"type":"Feature","properties":{"kind":"blob","cls":3,"id":32},"geometry":{"type":"MultiPolygon","coordinates":[[[[-113.88,52.5],[-113.5,52.38],[-113.38,52.5],[-113.88,52.5]]],[[[-113.88,53.0],[-114.0,53.12],[-114.12,53.0],[-113.88,53.0]]],[[[-115.5,53.38],[-115.0,52.88],[-114.12,53.25],[-114.75,53.62],[-115.5,53.38]]],[[[-116.0,53.88],[-116.12,53.75],[-115.75,53.62],[-116.0,53.88]]]]}},{"type":"Feature","properties":{"kind":"blob","cls":3,"id":33},"geometry":{"type":"Polygon","coordinates":[[[59.5,28.12],[60.12,28.5],[59.75,30.12],[58.38,29.75],[58.38,29.0],[59.5,28.12]]]}},{"type":"Feature","properties":{"kind":"blob","cls":4,"id":34},"geometry":{"type":"Polygon","coordinates":[[[-16.5,-37.38],[-14.5,-37.62],[-13.5,-37.12],[-12.88,-36.5],[-12.88,-35.0],[-15.25,-33.62],[-17.25,-34.12],[-17.88,-34.75],[-17.88,-36.5],[-16.5,-37.38]]]}},{"type":"Feature","properties":{"kind":"blob","cls":3,"id":35},"geometry":{"type":"Polygon","coordinates":[[[72.75,28.88],[74.12,29.5],[74.62,30.25],[74.62,31.25],[74.0,32.12],[71.25,32.12],[70.12,31.25],[70.12,30.25],[70.62,29.5],[72.75,28.88]]]}},{"type":"Feature","properties":{"kind":"blob","cls":0,"id":36},"geometry":{"type":"Polygon","coordinates":[[[-102.5,11.12],[-101.38,11.75],[-103.75,11.88],[-104.62,12.5],[-104.62,13.25],[-103.5,14.12],[-101.5,14.12],[-100.88,14.5],[-102.5,15.62],[-104.25,15.12],[-105.12,14.0],[-104.88,12.25],[-104.25,11.62],[-102.5,11.12]]]}},{"type":"Feature","properties":{"kind":"blob","cls":4,"id":37},"geometry":{"type":"Polygon","coordinates":[[[-68.5,74.38],[-66.5,74.88],[-65.0,75.62],[-64.62,76.25],[-65.0,76.62],[-66.75,76.62],[-65.62,77.0],[-68.25,77.88],[-75.0,78.12],[-77.75,77.38],[-79.75,77.38],[-81.12,76.25],[-80.75,75.62],[-78.5,74.62],[-68.5,74.38]],[[-68.12,77.0],[-67.38,77.0],[-67.5,76.88],[-68.12,77.0]]]}},{"type":"Feature","properties":{"kind":"blob","cls":3,"id":38},"geometry":{"type":"Polygon","coordinates":[[[-72.5,60.62],[-74.12,62.0],[-73.75,62.38],[-72.5,62.62],[-69.75,61.88],[-69.38,62.25],[-69.38,63.25],[-71.0,64.38],[-73.0,64.88],[-76.0,64.62],[-78.0,63.88],[-78.88,62.75],[-78.62,61.75],[-77.5,60.88],[-72.5,60.62]]]}},{"type":"Feature","properties":{"kind":"blob","cls":1,"id":39},"geometry":{"type":"MultiPolygon","coordinates":[[[[58.0,28.38],[57.88,28.25],[58.25,28.12],[58.0,28.38]]],[[[57.62,28.5],[57.75,28.38],[57.88,28.75],[57.62,28.5]]]]}},{"type":"Feature","properties":{"kind":"blob","cls":0,"id":40},"geometry":{"type":"Polygon","coordinates":[[[-91.75,11.62],[-91.12,12.5],[-94.38,12.5],[-93.75,11.62],[-91.75,11.62]]]}},{"type":"Feature","properties":{"kind":"blob","cls":4,"id":41},"geometry":{"type":"Polygon","coordinates":[[[-46.75,40.12],[-44.75,41.12],[-44.12,42.0],[-44.38,43.5],[-46.5,44.62],[-47.5,44.62],[-49.25,43.88],[-50.12,42.75],[-50.12,41.5],[-49.75,40.88],[-46.75,40.12]]]}},{"type":"Feature","properties":{"kind":"blob","cls":3,"id":42},"geometry":{"type":"Polygon","coordinates":[[[-51.5,61.62],[-49.5,62.12],[-49.12,62.5],[-49.62,62.75],[-49.62,63.5],[-50.62,63.75],[-49.38,64.25],[-50.38,64.75],[-51.0,65.88],[-52.25,65.62],[-52.75,66.12],[-55.0,65.62],[-57.38,64.0],[-57.38,63.5],[-56.5,62.62],[-54.75,61.88],[-51.5,61.62]]]}},{"type":"Feature","properties":{"kind":"blob","cls":1,"id":43},"geometry":{"type":"Polygon","coordinates":[[[58.75,27.88],[59.12,28.0],[59.0,28.12],[58.75,27.88]]]}},{"type":"Feature","properties":{"kind":"blob","cls":0,"id":44},"geometry":{"type":"Polygon","coordinates":[[[-93.0,14.88],[-92.38,15.0],[-92.5,15.12],[-93.0,14.88]]]}},{"type":"Feature","properties":{"kind":"blob","cls":4,"id":45},"geometry":{"type":"MultiPolygon","coordinates":[[[[96.75,23.12],[97.38,23.75],[95.5,25.62],[94.25,24.62],[93.38,25.0],[93.38,24.5],[94.12,24.25],[94.25,23.62],[96.75,23.12]]],[[[92.62,25.5],[93.25,25.12],[94.38,26.25],[93.0,26.88],[92.0,26.88],[92.62,25.5]]]]}},{"type":"Feature","properties":{"kind":"blob","cls":1,"id":46},"geometry":{"type":"Polygon","coordinates":[[[-93.0,28.38],[-91.88,29.75],[-92.12,30.75],[-93.75,31.88],[-95.0,31.62],[-96.12,30.25],[-95.88,29.25],[-95.0,28.38],[-93.0,28.38]]]}},{"type":"Feature","properties":{"kind":"blob","cls":3,"id":47},"geometry":{"type":"MultiPolygon","coordinates":[[[[61.0,30.12],[60.88,30.0],[61.0,29.88],[61.0,30.12]]],[[[60.75,30.38],[60.62,30.25],[60.75,30.12],[60.75,30.38]]]]}},{"type":"Feature","properties":{"kind":"blob","cls":4,"id":48},"geometry":{"type":"Polygon","coordinates":[[[-33.75,61.38],[-31.75,61.88],[-30.62,62.75],[-30.62,63.75],[-31.25,64.38],[-32.25,64.62],[-32.75,65.38],[-35.75,66.38],[-37.5,65.88],[-39.5,64.62],[-41.88,64.25],[-41.75,63.38],[-40.0,62.38],[-33.75,61.38]]]}},{"type":"Feature","properties":{"kind":"blob","cls":4,"id":49},"geometry":{"type":"MultiPolygon","coordinates":[[[[27.25,-31.88],[27.12,-32.0],[27.25,-32.12],[27.25,-31.88]]],[[[27.75,-33.88],[30.75,-32.62],[32.38,-30.25],[32.12,-29.25],[31.25,-28.38],[30.0,-28.62],[30.88,-29.0],[29.88,-30.5],[29.0,-30.88],[28.5,-31.62],[28.0,-31.62],[27.25,-32.62],[26.0,-32.62],[25.75,-32.12],[25.5,-32.62],[24.5,-32.12],[23.12,-32.25],[24.0,-33.38],[27.75,-33.88]]]]}},{"type":"Feature","properties":{"kind":"blob","cls":3,"id":50},"geometry":{"type":"Polygon","coordinates":[[[162.5,29.88],[164.12,30.75],[164.38,32.75],[163.75,33.62],[161.75,34.12],[159.88,33.0],[159.62,31.25],[160.25,30.38],[162.5,29.88]]]}},{"type":"Feature","properties":{"kind":"blob","cls":4,"id":51},"geometry":{"type":"Polygon","coordinates":[[[-52.25,34.62],[-50.25,34.38],[-49.25,34.88],[-48.62,35.5],[-48.62,37.5],[-50.25,38.62],[-51.75,38.62],[-52.75,38.12],[-53.62,37.25],[-53.62,35.5],[-52.25,34.62]]]}},{"type":"Feature","properties":{"kind":"blob","cls":5,"id":52},"geometry":{"type":"Polygon","coordinates":[[[97.38,23.25],[97.5,23.12],[97.62,23.25],[97.38,23.25]]]}},{"type":"Feature","properties":{"kind":"blob","cls":5,"id":53},"geometry":{"type":"Polygon","coordinates":[[[166.75,-38.38],[169.0,-38.62],[170.0,-38.12],[171.12,-36.75],[171.12,-35.25],[169.25,-33.88],[167.5,-33.88],[166.0,-34.62],[165.38,-35.25],[165.38,-37.5],[166.75,-38.38]],[[168.0,-37.88],[167.62,-37.75],[167.62,-37.0],[168.5,-36.38],[168.88,-37.0],[168.0,-37.88]]]}},{"type":"Feature","properties":{"kind":"blob","cls":3,"id":54},"geometry":{"type":"Polygon","coordinates":[[[111.0,61.38],[112.25,61.88],[113.38,63.5],[112.0,64.88],[109.0,65.62],[108.88,65.0],[107.75,63.88],[106.0,62.62],[104.25,62.38],[102.88,62.75],[104.25,61.62],[111.0,61.38]]]}},{"type":"Feature","properties":{"kind":"blob","cls":4,"id":55},"geometry":{"type":"Polygon","coordinates":[[[-66.75,-28.88],[-66.12,-28.25],[-66.25,-27.62],[-67.12,-28.0],[-66.75,-28.88]]]}},{"type":"Feature","properties":{"kind":"blob","cls":4,"id":56},"geometry":{"type":"MultiPolygon","coordinates":[[[[-65.5,-28.12],[-64.88,-27.0],[-65.25,-25.88],[-65.88,-27.25],[-65.5,-28.12]]],[[[-65.12,-24.75],[-65.0,-25.12],[-64.88,-25.0],[-65.12,-24.75]]],[[[-65.0,-25.62],[-64.75,-26.12],[-63.88,-25.25],[-63.88,-23.75],[-64.5,-23.12],[-64.88,-24.5],[-64.5,-24.12],[-64.38,-24.5],[-65.0,-25.62]]]]}},{"type":"Feature","properties":{"kind":"center","id":1,"lat":-62.25,"lon":57.75,"mslp":940.7,"hvtl":217.8,"hvtu":28.9,"hb":-26.7,"idx":2.2,"cls":0,"psfc":940.7,"terrain":false,"radius_km":200,"name":"sym deep warm","track":"T07"},"geometry":{"type":"Point","coordinates":[57.75,-62.25]}},{"type":"Feature","properties":{"kind":"center","id":2,"lat":-62.0,"lon":148.25,"mslp":951.0,"hvtl":2.2,"hvtu":-38.0,"hb":39.4,"idx":-0.3,"cls":3,"psfc":951.0,"terrain":false,"radius_km":200,"name":"asym shallow warm","track":"T15"},"geometry":{"type":"Point","coordinates":[148.25,-62.0]}},{"type":"Feature","properties":{"kind":"center","id":3,"lat":-59.5,"lon":-127.75,"mslp":952.3,"hvtl":49.8,"hvtu":-74.2,"hb":2.6,"idx":0.3,"cls":1,"psfc":952.3,"terrain":false,"radius_km":200,"name":"sym shallow warm","track":"T11"},"geometry":{"type":"Point","coordinates":[-127.75,-59.5]}},{"type":"Feature","properties":{"kind":"center","id":4,"lat":61.0,"lon":-177.75,"mslp":959.3,"hvtl":73.4,"hvtu":0.7,"hb":4.8,"idx":1.3,"cls":0,"psfc":959.3,"terrain":false,"radius_km":200,"name":"sym deep warm","track":"T02"},"geometry":{"type":"Point","coordinates":[-177.75,61.0]}},{"type":"Feature","properties":{"kind":"center","id":5,"lat":-65.25,"lon":170.5,"mslp":959.7,"hvtl":-221.8,"hvtu":-366.6,"hb":80.4,"idx":-3.0,"cls":4,"psfc":959.7,"terrain":false,"radius_km":200,"name":"asym cold","track":"T09"},"geometry":{"type":"Point","coordinates":[170.5,-65.25]}},{"type":"Feature","properties":{"kind":"center","id":6,"lat":-66.0,"lon":-32.0,"mslp":960.2,"hvtl":77.9,"hvtu":-95.0,"hb":24.3,"idx":0.6,"cls":3,"psfc":960.2,"terrain":false,"radius_km":200,"name":"asym shallow warm","track":"T28"},"geometry":{"type":"Point","coordinates":[-32.0,-66.0]}},{"type":"Feature","properties":{"kind":"center","id":7,"lat":-58.75,"lon":135.75,"mslp":960.8,"hvtl":33.4,"hvtu":-68.0,"hb":8.4,"idx":0.1,"cls":1,"psfc":960.8,"terrain":false,"radius_km":200,"name":"sym shallow warm","track":"T22"},"geometry":{"type":"Point","coordinates":[135.75,-58.75]}},{"type":"Feature","properties":{"kind":"center","id":8,"lat":-57.5,"lon":127.25,"mslp":962.2,"hvtl":166.6,"hvtu":7.7,"hb":-36.8,"idx":1.9,"cls":0,"psfc":962.2,"terrain":false,"radius_km":200,"name":"sym deep warm","track":"T18"},"geometry":{"type":"Point","coordinates":[127.25,-57.5]}},{"type":"Feature","properties":{"kind":"center","id":9,"lat":-70.5,"lon":-115.0,"mslp":962.4,"hvtl":12.1,"hvtu":-178.4,"hb":27.1,"idx":-0.7,"cls":3,"psfc":962.4,"terrain":false,"radius_km":200,"name":"asym shallow warm","track":"T29"},"geometry":{"type":"Point","coordinates":[-115.0,-70.5]}},{"type":"Feature","properties":{"kind":"center","id":10,"lat":17.75,"lon":143.0,"mslp":962.6,"hvtl":112.9,"hvtu":221.4,"hb":2.9,"idx":2.6,"cls":0,"psfc":962.6,"terrain":false,"radius_km":200,"name":"sym deep warm","track":"T06"},"geometry":{"type":"Point","coordinates":[143.0,17.75]}},{"type":"Feature","properties":{"kind":"center","id":11,"lat":-59.75,"lon":126.5,"mslp":964.9,"hvtl":186.6,"hvtu":42.3,"hb":7.3,"idx":2.3,"cls":0,"psfc":964.9,"terrain":false,"radius_km":200,"name":"sym deep warm","track":"T26"},"geometry":{"type":"Point","coordinates":[126.5,-59.75]}},{"type":"Feature","properties":{"kind":"center","id":12,"lat":-60.0,"lon":132.75,"mslp":965.3,"hvtl":104.1,"hvtu":32.2,"hb":-16.4,"idx":1.9,"cls":0,"psfc":965.3,"terrain":false,"radius_km":200,"name":"sym deep warm","track":"T37"},"geometry":{"type":"Point","coordinates":[132.75,-60.0]}},{"type":"Feature","properties":{"kind":"center","id":13,"lat":15.0,"lon":161.0,"mslp":968.2,"hvtl":72.2,"hvtu":165.8,"hb":0.8,"idx":2.2,"cls":0,"psfc":968.2,"terrain":false,"radius_km":200,"name":"sym deep warm","track":"T12"},"geometry":{"type":"Point","coordinates":[161.0,15.0]}},{"type":"Feature","properties":{"kind":"center","id":14,"lat":-70.25,"lon":25.75,"mslp":979.6,"hvtl":2.2,"hvtu":-80.9,"hb":13.2,"idx":-0.6,"cls":3,"psfc":975.8,"terrain":false,"radius_km":200,"name":"asym shallow warm","track":"T52"},"geometry":{"type":"Point","coordinates":[25.75,-70.25]}},{"type":"Feature","properties":{"kind":"center","id":15,"lat":66.0,"lon":0.0,"mslp":980.1,"hvtl":51.5,"hvtu":-55.7,"hb":-1.9,"idx":0.4,"cls":1,"psfc":980.1,"terrain":false,"radius_km":200,"name":"sym shallow warm","track":"T57"},"geometry":{"type":"Point","coordinates":[0.0,66.0]}},{"type":"Feature","properties":{"kind":"center","id":16,"lat":-71.25,"lon":0.75,"mslp":981.0,"hvtl":-65.1,"hvtu":-88.6,"hb":29.0,"idx":-1.9,"cls":4,"psfc":961.7,"terrain":false,"radius_km":200,"name":"asym cold"},"geometry":{"type":"Point","coordinates":[0.75,-71.25]}},{"type":"Feature","properties":{"kind":"center","id":17,"lat":-71.0,"lon":2.75,"mslp":981.2,"hvtl":-87.1,"hvtu":-101.8,"hb":28.2,"idx":-2.2,"cls":4,"psfc":945.0,"terrain":false,"radius_km":200,"name":"asym cold"},"geometry":{"type":"Point","coordinates":[2.75,-71.0]}},{"type":"Feature","properties":{"kind":"center","id":18,"lat":-75.25,"lon":165.75,"mslp":985.8,"hvtl":-57.4,"hvtu":-215.1,"hb":-10.1,"idx":-2.0,"cls":5,"psfc":985.8,"terrain":false,"radius_km":200,"name":"sym cold","track":"T46"},"geometry":{"type":"Point","coordinates":[165.75,-75.25]}},{"type":"Feature","properties":{"kind":"center","id":19,"lat":53.75,"lon":-51.5,"mslp":986.2,"hvtl":-105.6,"hvtu":-287.8,"hb":57.2,"idx":-2.6,"cls":4,"psfc":986.2,"terrain":false,"radius_km":200,"name":"asym cold","track":"T49"},"geometry":{"type":"Point","coordinates":[-51.5,53.75]}},{"type":"Feature","properties":{"kind":"center","id":20,"lat":-75.5,"lon":-66.0,"mslp":987.1,"hvtl":-284.2,"hvtu":-237.3,"hb":71.3,"idx":-3.0,"cls":4,"psfc":901.5,"terrain":false,"radius_km":200,"name":"asym cold","track":"T05"},"geometry":{"type":"Point","coordinates":[-66.0,-75.5]}},{"type":"Feature","properties":{"kind":"center","id":21,"lat":52.25,"lon":-106.75,"mslp":987.7,"hvtl":-171.3,"hvtu":-231.1,"hb":121.4,"idx":-2.9,"cls":4,"psfc":930.3,"terrain":false,"radius_km":200,"name":"asym cold","track":"T72"},"geometry":{"type":"Point","coordinates":[-106.75,52.25]}},{"type":"Feature","properties":{"kind":"center","id":22,"lat":-76.5,"lon":-79.25,"mslp":988.1,"hvtl":-253.8,"hvtu":-265.2,"hb":85.7,"idx":-3.0,"cls":4,"psfc":904.5,"terrain":false,"radius_km":200,"name":"asym cold","track":"T58"},"geometry":{"type":"Point","coordinates":[-79.25,-76.5]}},{"type":"Feature","properties":{"kind":"center","id":23,"lat":-44.75,"lon":-90.25,"mslp":990.3,"hvtl":41.9,"hvtu":-19.3,"hb":-6.6,"idx":0.6,"cls":1,"psfc":990.2,"terrain":false,"radius_km":200,"name":"sym shallow warm","track":"T74"},"geometry":{"type":"Point","coordinates":[-90.25,-44.75]}},{"type":"Feature","properties":{"kind":"center","id":24,"lat":80.75,"lon":52.0,"mslp":990.3,"hvtl":-37.2,"hvtu":-10.2,"hb":17.9,"idx":-0.8,"cls":4,"psfc":989.7,"terrain":false,"radius_km":200,"name":"asym cold","track":"T50"},"geometry":{"type":"Point","coordinates":[52.0,80.75]}},{"type":"Feature","properties":{"kind":"center","id":25,"lat":62.0,"lon":17.5,"mslp":991.6,"hvtl":-49.2,"hvtu":-204.5,"hb":36.0,"idx":-1.9,"cls":4,"psfc":989.8,"terrain":false,"radius_km":200,"name":"asym cold","track":"T77"},"geometry":{"type":"Point","coordinates":[17.5,62.0]}},{"type":"Feature","properties":{"kind":"center","id":26,"lat":25.25,"lon":-126.0,"mslp":994.6,"hvtl":65.6,"hvtu":-30.6,"hb":12.7,"idx":0.9,"cls":3,"psfc":994.6,"terrain":false,"radius_km":200,"name":"asym shallow warm","track":"T42"},"geometry":{"type":"Point","coordinates":[-126.0,25.25]}},{"type":"Feature","properties":{"kind":"center","id":27,"lat":63.5,"lon":44.5,"mslp":998.1,"hvtl":-214.5,"hvtu":-39.7,"hb":54.3,"idx":-2.3,"cls":4,"psfc":979.8,"terrain":false,"radius_km":200,"name":"asym cold","track":"T81"},"geometry":{"type":"Point","coordinates":[44.5,63.5]}},{"type":"Feature","properties":{"kind":"center","id":28,"lat":30.5,"lon":178.75,"mslp":999.0,"hvtl":66.8,"hvtu":-67.5,"hb":13.2,"idx":0.6,"cls":3,"psfc":999.0,"terrain":false,"radius_km":200,"name":"asym shallow warm","track":"T70"},"geometry":{"type":"Point","coordinates":[178.75,30.5]}},{"type":"Feature","properties":{"kind":"center","id":29,"lat":-73.5,"lon":-69.75,"mslp":999.8,"hvtl":-274.6,"hvtu":-261.7,"hb":76.4,"idx":-3.0,"cls":4,"psfc":901.5,"terrain":true,"radius_km":200,"name":"asym cold"},"geometry":{"type":"Point","coordinates":[-69.75,-73.5]}},{"type":"Feature","properties":{"kind":"center","id":30,"lat":50.25,"lon":116.25,"mslp":1000.3,"hvtl":-13.7,"hvtu":-305.3,"hb":68.6,"idx":-1.3,"cls":4,"psfc":921.4,"terrain":false,"radius_km":200,"name":"asym cold","track":"T101"},"geometry":{"type":"Point","coordinates":[116.25,50.25]}},{"type":"Feature","properties":{"kind":"center","id":31,"lat":27.5,"lon":67.75,"mslp":1002.0,"hvtl":33.3,"hvtu":-51.5,"hb":-7.2,"idx":0.2,"cls":1,"psfc":997.0,"terrain":false,"radius_km":200,"name":"sym shallow warm","track":"T106"},"geometry":{"type":"Point","coordinates":[67.75,27.5]}},{"type":"Feature","properties":{"kind":"center","id":32,"lat":52.5,"lon":-113.5,"mslp":1003.1,"hvtl":121.9,"hvtu":-247.8,"hb":88.2,"idx":0.7,"cls":3,"psfc":901.4,"terrain":true,"radius_km":200,"name":"asym shallow warm"},"geometry":{"type":"Point","coordinates":[-113.5,52.5]}},{"type":"Feature","properties":{"kind":"center","id":33,"lat":29.75,"lon":59.0,"mslp":1003.6,"hvtl":56.5,"hvtu":-72.3,"hb":13.9,"idx":0.4,"cls":3,"psfc":968.7,"terrain":false,"radius_km":200,"name":"asym shallow warm","track":"T114"},"geometry":{"type":"Point","coordinates":[59.0,29.75]}},{"type":"Feature","properties":{"kind":"center","id":34,"lat":-35.75,"lon":-15.5,"mslp":1003.7,"hvtl":-290.1,"hvtu":-396.2,"hb":81.3,"idx":-3.0,"cls":4,"psfc":1003.7,"terrain":false,"radius_km":200,"name":"asym cold","track":"T33"},"geometry":{"type":"Point","coordinates":[-15.5,-35.75]}},{"type":"Feature","properties":{"kind":"center","id":35,"lat":30.0,"lon":70.75,"mslp":1003.7,"hvtl":48.8,"hvtu":-89.7,"hb":17.1,"idx":0.2,"cls":3,"psfc":990.4,"terrain":false,"radius_km":200,"name":"asym shallow warm","track":"T113"},"geometry":{"type":"Point","coordinates":[70.75,30.0]}},{"type":"Feature","properties":{"kind":"center","id":36,"lat":14.25,"lon":-103.0,"mslp":1003.7,"hvtl":53.9,"hvtu":7.4,"hb":3.2,"idx":1.1,"cls":0,"psfc":1003.7,"terrain":false,"radius_km":200,"name":"sym deep warm","track":"T104"},"geometry":{"type":"Point","coordinates":[-103.0,14.25]}},{"type":"Feature","properties":{"kind":"center","id":37,"lat":76.0,"lon":-72.75,"mslp":1004.3,"hvtl":-68.6,"hvtu":-160.3,"hb":43.2,"idx":-2.1,"cls":4,"psfc":1004.3,"terrain":false,"radius_km":200,"name":"asym cold","track":"T112"},"geometry":{"type":"Point","coordinates":[-72.75,76.0]}},{"type":"Feature","properties":{"kind":"center","id":38,"lat":62.5,"lon":-74.5,"mslp":1004.9,"hvtl":138.7,"hvtu":-90.0,"hb":39.1,"idx":1.0,"cls":3,"psfc":1004.9,"terrain":false,"radius_km":200,"name":"asym shallow warm","track":"T109"},"geometry":{"type":"Point","coordinates":[-74.5,62.5]}},{"type":"Feature","properties":{"kind":"center","id":39,"lat":28.5,"lon":57.75,"mslp":1005.4,"hvtl":63.0,"hvtu":-53.6,"hb":-9.1,"idx":0.6,"cls":1,"psfc":936.8,"terrain":false,"radius_km":200,"name":"sym shallow warm","track":"T119"},"geometry":{"type":"Point","coordinates":[57.75,28.5]}},{"type":"Feature","properties":{"kind":"center","id":40,"lat":12.5,"lon":-93.25,"mslp":1005.7,"hvtl":14.1,"hvtu":42.2,"hb":-7.0,"idx":0.7,"cls":0,"psfc":1005.7,"terrain":false,"radius_km":200,"name":"sym deep warm"},"geometry":{"type":"Point","coordinates":[-93.25,12.5]}},{"type":"Feature","properties":{"kind":"center","id":41,"lat":42.25,"lon":-47.5,"mslp":1006.0,"hvtl":-251.6,"hvtu":-304.9,"hb":44.1,"idx":-3.0,"cls":4,"psfc":1006.0,"terrain":false,"radius_km":200,"name":"asym cold","track":"T105"},"geometry":{"type":"Point","coordinates":[-47.5,42.25]}},{"type":"Feature","properties":{"kind":"center","id":42,"lat":62.0,"lon":-52.25,"mslp":1006.4,"hvtl":194.9,"hvtu":-218.9,"hb":26.8,"idx":0.9,"cls":3,"psfc":1006.4,"terrain":false,"radius_km":200,"name":"asym shallow warm"},"geometry":{"type":"Point","coordinates":[-52.25,62.0]}},{"type":"Feature","properties":{"kind":"center","id":43,"lat":28.0,"lon":58.75,"mslp":1006.6,"hvtl":60.0,"hvtu":-43.3,"hb":-9.5,"idx":0.7,"cls":1,"psfc":927.5,"terrain":false,"radius_km":200,"name":"sym shallow warm"},"geometry":{"type":"Point","coordinates":[58.75,28.0]}},{"type":"Feature","properties":{"kind":"center","id":44,"lat":15.0,"lon":-93.0,"mslp":1007.5,"hvtl":27.0,"hvtu":46.8,"hb":8.4,"idx":1.0,"cls":0,"psfc":1007.5,"terrain":false,"radius_km":200,"name":"sym deep warm","track":"T108"},"geometry":{"type":"Point","coordinates":[-93.0,15.0]}},{"type":"Feature","properties":{"kind":"center","id":45,"lat":24.25,"lon":96.5,"mslp":1007.6,"hvtl":-40.2,"hvtu":-99.1,"hb":11.0,"idx":-1.5,"cls":4,"psfc":992.0,"terrain":false,"radius_km":200,"name":"asym cold"},"geometry":{"type":"Point","coordinates":[96.5,24.25]}},{"type":"Feature","properties":{"kind":"center","id":46,"lat":30.0,"lon":-94.0,"mslp":1007.8,"hvtl":31.1,"hvtu":-119.5,"hb":6.9,"idx":-0.2,"cls":1,"psfc":1007.0,"terrain":false,"radius_km":200,"name":"sym shallow warm"},"geometry":{"type":"Point","coordinates":[-94.0,30.0]}},{"type":"Feature","properties":{"kind":"center","id":47,"lat":30.0,"lon":61.0,"mslp":1007.9,"hvtl":28.6,"hvtu":-69.9,"hb":18.7,"idx":-0.0,"cls":3,"psfc":943.2,"terrain":false,"radius_km":200,"name":"asym shallow warm","track":"T121"},"geometry":{"type":"Point","coordinates":[61.0,30.0]}},{"type":"Feature","properties":{"kind":"center","id":48,"lat":64.25,"lon":-37.5,"mslp":1009.2,"hvtl":-56.5,"hvtu":-245.7,"hb":31.4,"idx":-2.0,"cls":4,"psfc":1009.2,"terrain":false,"radius_km":200,"name":"asym cold","track":"T65"},"geometry":{"type":"Point","coordinates":[-37.5,64.25]}},{"type":"Feature","properties":{"kind":"center","id":49,"lat":-32.0,"lon":27.25,"mslp":1009.8,"hvtl":-76.6,"hvtu":-105.3,"hb":82.5,"idx":-2.1,"cls":4,"psfc":903.9,"terrain":true,"radius_km":200,"name":"asym cold"},"geometry":{"type":"Point","coordinates":[27.25,-32.0]}},{"type":"Feature","properties":{"kind":"center","id":50,"lat":32.0,"lon":162.0,"mslp":1010.0,"hvtl":178.1,"hvtu":-118.4,"hb":26.2,"idx":1.1,"cls":3,"psfc":1009.9,"terrain":false,"radius_km":200,"name":"asym shallow warm","track":"T44"},"geometry":{"type":"Point","coordinates":[162.0,32.0]}},{"type":"Feature","properties":{"kind":"center","id":51,"lat":36.5,"lon":-51.0,"mslp":1010.8,"hvtl":-25.1,"hvtu":-182.3,"hb":16.7,"idx":-1.4,"cls":4,"psfc":1010.8,"terrain":false,"radius_km":200,"name":"asym cold"},"geometry":{"type":"Point","coordinates":[-51.0,36.5]}},{"type":"Feature","properties":{"kind":"center","id":52,"lat":23.25,"lon":97.5,"mslp":1011.0,"hvtl":-12.8,"hvtu":-76.6,"hb":8.3,"idx":-0.9,"cls":5,"psfc":917.8,"terrain":true,"radius_km":200,"name":"sym cold"},"geometry":{"type":"Point","coordinates":[97.5,23.25]}},{"type":"Feature","properties":{"kind":"center","id":53,"lat":-36.25,"lon":168.25,"mslp":1011.9,"hvtl":-58.8,"hvtu":-121.5,"hb":-0.6,"idx":-1.9,"cls":5,"psfc":1011.9,"terrain":false,"radius_km":200,"name":"sym cold","track":"T120"},"geometry":{"type":"Point","coordinates":[168.25,-36.25]}},{"type":"Feature","properties":{"kind":"center","id":54,"lat":63.25,"lon":107.5,"mslp":1012.4,"hvtl":3.5,"hvtu":-24.3,"hb":15.8,"idx":-0.2,"cls":3,"psfc":978.1,"terrain":false,"radius_km":200,"name":"asym shallow warm","track":"T100"},"geometry":{"type":"Point","coordinates":[107.5,63.25]}},{"type":"Feature","properties":{"kind":"center","id":55,"lat":-28.25,"lon":-66.5,"mslp":1019.1,"hvtl":-9.0,"hvtu":-117.8,"hb":21.9,"idx":-1.0,"cls":4,"psfc":934.4,"terrain":false,"radius_km":200,"name":"asym cold","track":"T127"},"geometry":{"type":"Point","coordinates":[-66.5,-28.25]}},{"type":"Feature","properties":{"kind":"center","id":56,"lat":-24.75,"lon":-65.0,"mslp":1021.0,"hvtl":-25.9,"hvtu":-166.8,"hb":15.3,"idx":-1.4,"cls":4,"psfc":924.6,"terrain":true,"radius_km":200,"name":"asym cold"},"geometry":{"type":"Point","coordinates":[-65.0,-24.75]}}]}