{"type":"FeatureCollection","features":[{"type":"Feature","properties":{"kind":"blob","cls":1,"id":1},"geometry":{"type":"Polygon","coordinates":[[[119.75,-66.38],[121.75,-65.12],[124.75,-65.88],[128.0,-65.62],[129.88,-64.25],[129.88,-63.5],[128.75,-61.88],[127.5,-61.38],[123.75,-61.12],[122.0,-61.62],[121.88,-60.75],[120.25,-59.62],[115.75,-59.62],[114.12,-60.75],[114.12,-61.75],[115.12,-62.5],[112.88,-63.5],[112.62,-65.25],[113.75,-66.12],[119.75,-66.38]],[[118.75,-63.62],[118.38,-63.25],[119.25,-62.88],[120.88,-63.25],[120.75,-63.62],[118.75,-63.62]]]}},{"type":"Feature","properties":{"kind":"blob","cls":3,"id":2},"geometry":{"type":"Polygon","coordinates":[[[179.75,-70.38],[180.0,-65.38],[175.25,-65.62],[172.12,-67.0],[172.12,-68.25],[172.5,-68.62],[174.75,-67.62],[176.25,-67.62],[177.38,-68.5],[177.25,-70.12],[179.75,-70.38]]]}},{"type":"Feature","properties":{"kind":"blob","cls":3,"id":2},"geometry":{"type":"Polygon","coordinates":[[[-179.75,-65.38],[-180.0,-70.38],[-176.0,-69.88],[-174.5,-69.38],[-173.38,-68.25],[-173.38,-67.25],[-175.5,-65.88],[-179.75,-65.38]]]}},{"type":"Feature","properties":{"kind":"blob","cls":6,"id":3},"geometry":{"type":"MultiPolygon","coordinates":[[[[-4.12,-65.0],[-3.38,-65.0],[-3.5,-64.88],[-4.12,-65.0]]],[[[-6.25,-65.88],[-4.12,-65.25],[-6.25,-64.62],[-6.0,-63.88],[-3.75,-64.12],[-3.0,-64.88],[-1.38,-63.25],[-1.38,-62.25],[-2.5,-61.38],[-4.5,-60.88],[-8.25,-61.38],[-10.5,-62.62],[-11.62,-63.75],[-11.62,-64.25],[-10.75,-65.12],[-6.25,-65.88]]]]}},{"type":"Feature","properties":{"kind":"blob","cls":1,"id":4},"geometry":{"type":"Polygon","coordinates":[[[14.75,-68.12],[17.88,-67.0],[11.5,-66.62],[9.12,-66.0],[10.0,-65.62],[18.25,-66.12],[18.62,-65.75],[18.25,-65.12],[16.25,-64.12],[11.75,-63.88],[7.0,-65.12],[5.62,-66.0],[5.38,-66.5],[6.0,-67.38],[7.75,-68.12],[14.75,-68.12]]]}},{"type":"Feature","properties":{"kind":"blob","cls":2,"id":5},"geometry":{"type":"Polygon","coordinates":[[[152.25,37.38],[153.38,38.5],[153.62,39.5],[152.25,41.12],[150.5,41.38],[148.62,40.0],[148.62,38.25],[149.5,37.38],[152.25,37.38]]]}},{"type":"Feature","properties":{"kind":"blob","cls":1,"id":6},"geometry":{"type":"Polygon","coordinates":[[[32.5,-68.62],[33.75,-68.12],[34.62,-67.25],[34.62,-66.75],[33.5,-65.62],[32.25,-65.12],[28.5,-64.88],[25.62,-65.75],[27.75,-66.12],[28.12,-66.5],[27.75,-66.88],[24.38,-67.0],[25.75,-68.38],[32.5,-68.62]]]}},{"type":"Feature","properties":{"kind":"blob","cls":0,"id":7},"geometry":{"type":"Polygon","coordinates":[[[-112.5,-68.12],[-110.75,-67.38],[-110.12,-66.5],[-110.75,-65.38],[-112.25,-64.88],[-113.0,-63.62],[-114.5,-62.88],[-120.0,-62.88],[-122.12,-64.25],[-122.38,-65.0],[-121.75,-65.88],[-120.25,-65.38],[-118.0,-65.62],[-117.62,-66.25],[-119.38,-67.25],[-117.5,-68.12],[-112.5,-68.12]]]}},{"type":"Feature","properties":{"kind":"blob","cls":3,"id":8},"geometry":{"type":"Polygon","coordinates":[[[-176.5,-80.88],[-172.0,-79.88],[-165.0,-79.38],[-157.75,-79.62],[-154.0,-80.38],[-153.12,-79.75],[-154.25,-78.88],[-157.75,-78.12],[-163.5,-77.62],[-171.75,-77.62],[-176.75,-78.12],[-179.62,-79.25],[-179.0,-80.38],[-176.5,-80.88]]]}},{"type":"Feature","properties":{"kind":"blob","cls":1,"id":9},"geometry":{"type":"Polygon","coordinates":[[[-124.0,-58.12],[-122.25,-57.62],[-121.38,-56.75],[-121.38,-55.5],[-123.0,-54.12],[-124.75,-53.88],[-124.62,-52.5],[-126.25,-51.12],[-128.25,-50.88],[-129.75,-51.38],[-130.62,-52.25],[-130.62,-53.5],[-129.75,-54.38],[-128.38,-54.75],[-128.62,-56.25],[-127.25,-57.62],[-124.0,-58.12]]]}},{"type":"Feature","properties":{"kind":"blob","cls":3,"id":10},"geometry":{"type":"Polygon","coordinates":[[[51.5,67.38],[54.25,67.88],[56.5,68.62],[57.38,69.5],[57.38,70.0],[56.75,70.88],[55.75,71.38],[52.75,71.88],[53.12,73.75],[52.62,74.5],[51.75,75.38],[49.75,76.12],[45.5,76.88],[42.25,76.88],[38.0,76.12],[36.88,75.25],[37.12,74.25],[36.38,74.0],[38.5,71.88],[40.75,70.88],[44.25,70.38],[43.88,69.25],[44.75,68.38],[47.25,67.62],[51.5,67.38]]]}},{"type":"Feature","properties":{"kind":"blob","cls":4,"id":11},"geometry":{"type":"Polygon","coordinates":[[[-1.25,-49.38],[1.75,-49.38],[3.12,-48.25],[3.12,-47.25],[2.0,-46.12],[0.75,-45.62],[-2.25,-45.88],[-3.62,-47.0],[-3.62,-48.0],[-2.75,-48.88],[-1.25,-49.38]]]}},{"type":"Feature","properties":{"kind":"blob","cls":4,"id":12},"geometry":{"type":"Polygon","coordinates":[[[102.5,-54.88],[104.75,-54.12],[105.88,-53.0],[105.62,-50.75],[104.75,-49.88],[103.25,-49.38],[99.25,-50.38],[98.12,-51.5],[97.88,-53.5],[98.75,-54.38],[102.5,-54.88]]]}},{"type":"Feature","properties":{"kind":"blob","cls":3,"id":13},"geometry":{"type":"Polygon","coordinates":[[[157.0,57.88],[158.75,58.38],[160.12,59.75],[159.88,61.0],[158.25,61.88],[156.0,62.12],[156.12,61.5],[155.25,60.88],[153.75,60.38],[153.0,60.62],[152.38,60.0],[152.38,59.5],[153.5,58.38],[157.0,57.88]]]}},{"type":"Feature","properties":{"kind":"blob","cls":4,"id":14},"geometry":{"type":"Polygon","coordinates":[[[-30.75,-77.12],[-28.25,-76.38],[-23.5,-75.88],[-22.0,-76.12],[-20.0,-74.88],[-19.12,-74.75],[-23.0,-74.12],[-28.75,-74.38],[-30.75,-74.88],[-32.12,-75.75],[-31.75,-76.62],[-30.75,-77.12]]]}},{"type":"Feature","properties":{"kind":"blob","cls":0,"id":15},"geometry":{"type":"Polygon","coordinates":[[[-120.0,19.12],[-118.5,19.12],[-117.62,20.25],[-117.88,21.75],[-119.25,22.62],[-120.5,22.38],[-121.38,21.25],[-121.25,20.38],[-120.5,20.62],[-119.88,20.25],[-120.0,19.12]]]}},{"type":"Feature","properties":{"kind":"blob","cls":3,"id":16},"geometry":{"type":"Polygon","coordinates":[[[-52.0,54.88],[-49.75,55.62],[-48.38,57.0],[-48.62,58.0],[-51.0,59.12],[-53.0,59.12],[-55.0,58.38],[-56.12,56.75],[-55.0,55.38],[-52.0,54.88]]]}},{"type":"Feature","properties":{"kind":"blob","cls":4,"id":17},"geometry":{"type":"Polygon","coordinates":[[[63.75,-60.62],[65.38,-59.5],[65.38,-58.5],[63.5,-57.12],[61.5,-56.62],[57.5,-56.88],[55.62,-58.25],[55.62,-59.25],[56.75,-60.38],[63.75,-60.62]]]}},{"type":"Feature","properties":{"kind":"blob","cls":6,"id":18},"geometry":{"type":"Polygon","coordinates":[[[144.75,57.12],[145.75,57.62],[146.5,58.62],[149.5,58.62],[150.75,59.12],[151.38,60.0],[150.75,60.38],[149.75,60.12],[148.75,60.62],[146.0,60.62],[145.75,61.12],[144.62,60.5],[145.0,59.62],[142.75,59.38],[142.38,60.0],[143.75,60.62],[142.75,60.88],[141.5,60.12],[140.75,60.62],[138.88,59.25],[138.88,58.5],[139.5,57.88],[139.88,58.0],[139.62,57.75],[140.0,57.38],[144.75,57.12]],[[139.75,59.12],[139.62,59.25],[140.0,59.38],[139.75,59.12]],[[140.0,59.62],[139.88,59.75],[140.0,59.88],[140.0,59.62]]]}},{"type":"Feature","properties":{"kind":"blob","cls":4,"id":19},"geometry":{"type":"Polygon","coordinates":[[[-56.0,-80.88],[-51.75,-79.88],[-50.88,-79.25],[-50.88,-78.75],[-52.5,-77.88],[-56.5,-77.12],[-65.5,-76.88],[-70.0,-77.38],[-73.12,-78.75],[-72.75,-79.62],[-70.75,-80.38],[-68.0,-80.88],[-56.0,-80.88]]]}},{"type":"Feature","properties":{"kind":"blob","cls":4,"id":20},"geometry":{"type":"Polygon","coordinates":[[[-57.0,48.62],[-55.5,49.12],[-54.12,50.75],[-54.38,51.75],[-55.25,52.62],[-57.25,53.38],[-59.75,52.88],[-60.88,51.75],[-60.88,50.75],[-59.75,49.12],[-57.0,48.62]]]}},{"type":"Feature","properties":{"kind":"blob","cls":4,"id":21},"geometry":{"type":"Polygon","coordinates":[[[-79.5,-66.12],[-77.62,-65.0],[-77.38,-64.0],[-77.75,-63.38],[-79.75,-62.38],[-81.25,-62.12],[-85.75,-62.38],[-87.62,-63.5],[-87.88,-64.5],[-87.5,-65.12],[-85.5,-66.12],[-79.5,-66.12]]]}},{"type":"Feature","properties":{"kind":"blob","cls":4,"id":22},"geometry":{"type":"Polygon","coordinates":[[[-78.5,-79.88],[-76.75,-79.38],[-75.62,-78.5],[-77.5,-77.38],[-79.0,-77.38],[-79.62,-79.25],[-78.5,-79.88]]]}},{"type":"Feature","properties":{"kind":"blob","cls":4,"id":23},"geometry":{"type":"Polygon","coordinates":[[[-56.5,-81.62],[-51.38,-81.5],[-51.5,-81.38],[-56.5,-81.62]]]}},{"type":"Feature","properties":{"kind":"blob","cls":2,"id":24},"geometry":{"type":"Polygon","coordinates":[[[148.25,61.88],[148.62,62.0],[148.5,62.12],[148.25,61.88]]]}},{"type":"Feature","properties":{"kind":"blob","cls":3,"id":25},"geometry":{"type":"Polygon","coordinates":[[[149.25,61.62],[149.62,61.75],[149.5,61.88],[149.25,61.62]]]}},{"type":"Feature","properties":{"kind":"blob","cls":0,"id":26},"geometry":{"type":"Polygon","coordinates":[[[164.0,25.38],[164.88,26.25],[165.12,27.5],[164.0,28.88],[161.75,28.88],[160.62,27.5],[160.88,26.25],[161.75,25.38],[164.0,25.38]]]}},{"type":"Feature","properties":{"kind":"blob","cls":4,"id":27},"geometry":{"type":"Polygon","coordinates":[[[-91.0,56.62],[-89.0,57.38],[-87.88,59.25],[-88.62,60.75],[-91.0,62.38],[-93.0,62.88],[-94.75,62.88],[-97.0,62.12],[-97.88,61.25],[-97.88,60.25],[-97.38,59.5],[-95.25,57.62],[-91.0,56.62]]]}},{"type":"Feature","properties":{"kind":"blob","cls":4,"id":28},"geometry":{"type":"Polygon","coordinates":[[[130.5,72.38],[134.0,72.88],[135.25,73.38],[136.38,74.5],[136.38,75.0],[134.75,76.12],[132.75,76.62],[126.0,76.88],[121.75,76.12],[120.38,75.0],[120.38,74.5],[121.75,73.38],[124.75,72.62],[130.5,72.38]]]}},{"type":"Feature","properties":{"kind":"blob","cls":4,"id":29},"geometry":{"type":"Polygon","coordinates":[[[-82.5,49.12],[-80.5,49.88],[-79.38,51.0],[-79.38,52.0],[-80.5,53.12],[-82.5,53.88],[-85.0,53.38],[-86.12,52.25],[-86.12,50.75],[-85.0,49.62],[-82.5,49.12]]]}},{"type":"Feature","properties":{"kind":"blob","cls":4,"id":30},"geometry":{"type":"MultiPolygon","coordinates":[[[[-64.75,-24.38],[-64.88,-24.5],[-64.75,-24.62],[-64.75,-24.38]]],[[[-66.38,-30.75],[-66.25,-31.38],[-65.0,-31.12],[-63.88,-30.0],[-63.62,-28.75],[-62.5,-28.38],[-61.62,-27.5],[-61.38,-26.5],[-61.88,-25.5],[-60.88,-24.5],[-60.62,-23.5],[-60.62,-20.5],[-61.12,-20.0],[-60.88,-18.25],[-62.0,-16.88],[-63.38,-16.5],[-63.38,-15.5],[-64.38,-13.5],[-65.5,-12.38],[-70.0,-12.12],[-70.62,-12.5],[-70.62,-13.25],[-68.5,-13.88],[-67.5,-15.62],[-67.0,-15.62],[-65.5,-17.12],[-64.0,-17.62],[-63.38,-18.25],[-63.88,-19.0],[-63.12,-19.5],[-63.38,-20.75],[-64.12,-21.0],[-63.62,-21.75],[-64.62,-23.75],[-64.12,-24.25],[-65.12,-25.75],[-64.62,-26.0],[-65.0,-26.62],[-65.38,-26.25],[-65.88,-27.25],[-65.38,-28.75],[-65.75,-28.38],[-66.38,-28.75],[-66.5,-27.62],[-66.88,-28.0],[-66.62,-29.0],[-67.38,-30.75],[-66.75,-31.12],[-66.38,-30.75]]]]}},{"type":"Feature","properties":{"kind":"blob","cls":4,"id":31},"geometry":{"type":"Polygon","coordinates":[[[87.5,57.12],[90.75,57.12],[92.38,58.25],[92.38,59.5],[91.25,60.62],[89.5,61.12],[87.5,61.12],[85.75,60.62],[84.62,59.25],[84.88,58.5],[85.75,57.62],[87.5,57.12]]]}},{"type":"Feature","properties":{"kind":"blob","cls":3,"id":32},"geometry":{"type":"Polygon","coordinates":[[[-75.0,-39.88],[-74.0,-39.62],[-72.88,-38.5],[-72.62,-37.5],[-73.5,-36.12],[-74.5,-35.62],[-76.25,-35.62],[-77.88,-36.75],[-78.12,-38.0],[-77.25,-39.12],[-76.75,-38.12],[-76.0,-38.12],[-75.0,-39.88]]]}},{"type":"Feature","properties":{"kind":"blob","cls":3,"id":33},"geometry":{"type":"Polygon","coordinates":[[[168.0,-45.12],[168.25,-44.38],[171.12,-43.0],[171.38,-41.5],[170.0,-39.88],[168.25,-39.62],[166.38,-40.75],[165.62,-43.75],[166.25,-44.62],[168.0,-45.12]]]}},{"type":"Feature","properties":{"kind":"blob","cls":1,"id":34},"geometry":{"type":"Polygon","coordinates":[[[-121.25,37.12],[-120.5,37.38],[-120.12,38.0],[-121.88,40.25],[-122.0,41.12],[-123.5,41.12],[-124.38,40.25],[-124.62,39.0],[-123.25,37.38],[-121.25,37.12]],[[-122.75,39.38],[-123.12,39.5],[-123.5,40.62],[-122.88,40.5],[-122.75,39.38]]]}},{"type":"Feature","properties":{"kind":"blob","cls":4,"id":35},"geometry":{"type":"Polygon","coordinates":[[[-30.75,62.62],[-28.25,63.12],[-26.75,63.88],[-26.12,65.0],[-27.0,66.12],[-28.25,66.62],[-31.75,66.88],[-34.0,66.38],[-35.88,65.0],[-35.88,64.0],[-35.5,63.62],[-34.0,62.88],[-30.75,62.62]]]}},{"type":"Feature","properties":{"kind":"blob","cls":4,"id":36},"geometry":{"type":"Polygon","coordinates":[[[-120.0,76.38],[-104.75,76.38],[-101.75,77.12],[-100.88,77.75],[-100.88,78.25],[-102.75,79.38],[-109.5,80.62],[-112.25,80.62],[-113.75,80.12],[-124.0,78.88],[-130.0,78.88],[-130.38,78.5],[-128.75,77.38],[-127.0,76.88],[-120.0,76.38]]]}},{"type":"Feature","properties":{"kind":"blob","cls":3,"id":37},"geometry":{"type":"Polygon","coordinates":[[[71.25,28.88],[73.12,29.75],[73.62,30.5],[73.62,32.0],[73.25,32.38],[70.12,31.75],[70.12,30.0],[69.38,29.5],[71.25,28.88]]]}},{"type":"Feature","properties":{"kind":"blob","cls":3,"id":38},"geometry":{"type":"Polygon","coordinates":[[[-3.5,43.62],[-2.25,44.12],[-0.38,46.25],[-0.12,47.75],[-1.0,48.62],[-2.25,49.12],[-4.0,49.12],[-5.25,48.62],[-6.88,46.5],[-6.88,45.25],[-6.0,44.12],[-3.5,43.62]]]}},{"type":"Feature","properties":{"kind":"blob","cls":4,"id":39},"geometry":{"type":"MultiPolygon","coordinates":[[[[168.38,-45.0],[169.62,-44.75],[169.25,-44.38],[168.38,-45.0]]],[[[169.62,-44.5],[170.25,-44.62],[170.62,-44.0],[170.25,-43.88],[169.62,-44.5]]]]}},{"type":"Feature","properties":{"kind":"blob","cls":4,"id":40},"geometry":{"type":"Polygon","coordinates":[[[47.0,30.62],[48.25,31.12],[48.88,32.0],[48.88,32.75],[47.75,33.38],[47.25,32.88],[45.75,34.38],[45.25,34.38],[44.38,33.75],[44.12,32.25],[44.75,31.38],[47.0,30.62]]]}},{"type":"Feature","properties":{"kind":"blob","cls":5,"id":41},"geometry":{"type":"Polygon","coordinates":[[[96.62,24.75],[95.75,25.62],[95.12,25.5],[95.5,24.88],[96.62,24.75]]]}},{"type":"Feature","properties":{"kind":"center","id":1,"lat":-61.25,"lon":118.0,"mslp":936.0,"hvtl":119.7,"hvtu":-46.9,"hb":-33.4,"idx":1.2,"cls":1,"psfc":936.0,"terrain":false,"radius_km":200,"name":"sym shallow warm","track":"T01"},"geometry":{"type":"Point","coordinates":[118.0,-61.25]}},{"type":"Feature","properties":{"kind":"center","id":2,"lat":-68.0,"lon":178.75,"mslp":951.3,"hvtl":295.6,"hvtu":-133.7,"hb":55.4,"idx":1.1,"cls":3,"psfc":951.2,"terrain":false,"radius_km":200,"name":"asym shallow warm","track":"T13"},"geometry":{"type":"Point","coordinates":[178.75,-68.0]}},{"type":"Feature","properties":{"kind":"center","id":3,"lat":-63.75,"lon":-6.75,"mslp":958.6,"hvtl":-35.1,"hvtu":23.7,"hb":-23.8,"idx":-0.4,"cls":6,"psfc":958.6,"terrain":false,"radius_km":200,"name":"shallow cold","track":"T24"},"geometry":{"type":"Point","coordinates":[-6.75,-63.75]}},{"type":"Feature","properties":{"kind":"center","id":4,"lat":-65.75,"lon":13.25,"mslp":959.1,"hvtl":84.9,"hvtu":-158.7,"hb":3.8,"idx":0.5,"cls":1,"psfc":959.1,"terrain":false,"radius_km":200,"name":"sym shallow warm","track":"T05"},"geometry":{"type":"Point","coordinates":[13.25,-65.75]}},{"type":"Feature","properties":{"kind":"center","id":5,"lat":39.25,"lon":151.0,"mslp":959.8,"hvtl":66.7,"hvtu":83.8,"hb":79.6,"idx":1.9,"cls":2,"psfc":959.8,"terrain":false,"radius_km":200,"name":"asym deep warm","track":"T02"},"geometry":{"type":"Point","coordinates":[151.0,39.25]}},{"type":"Feature","properties":{"kind":"center","id":6,"lat":-67.0,"lon":29.5,"mslp":960.3,"hvtl":32.9,"hvtu":-18.4,"hb":3.7,"idx":0.5,"cls":1,"psfc":960.3,"terrain":false,"radius_km":200,"name":"sym shallow warm","track":"T21"},"geometry":{"type":"Point","coordinates":[29.5,-67.0]}},{"type":"Feature","properties":{"kind":"center","id":7,"lat":-64.75,"lon":-117.25,"mslp":962.3,"hvtl":42.2,"hvtu":36.8,"hb":5.9,"idx":1.2,"cls":0,"psfc":962.3,"terrain":false,"radius_km":200,"name":"sym deep warm","track":"T25"},"geometry":{"type":"Point","coordinates":[-117.25,-64.75]}},{"type":"Feature","properties":{"kind":"center","id":8,"lat":-79.5,"lon":-168.25,"mslp":969.1,"hvtl":46.0,"hvtu":-133.3,"hb":20.7,"idx":-0.0,"cls":3,"psfc":961.7,"terrain":false,"radius_km":200,"name":"asym shallow warm","track":"T32"},"geometry":{"type":"Point","coordinates":[-168.25,-79.5]}},{"type":"Feature","properties":{"kind":"center","id":9,"lat":-53.0,"lon":-127.75,"mslp":970.0,"hvtl":100.7,"hvtu":-184.7,"hb":0.5,"idx":0.6,"cls":1,"psfc":970.0,"terrain":false,"radius_km":200,"name":"sym shallow warm","track":"T39"},"geometry":{"type":"Point","coordinates":[-127.75,-53.0]}},{"type":"Feature","properties":{"kind":"center","id":10,"lat":73.25,"lon":44.75,"mslp":973.4,"hvtl":8.2,"hvtu":-120.0,"hb":19.8,"idx":-0.7,"cls":3,"psfc":973.4,"terrain":false,"radius_km":200,"name":"asym shallow warm","track":"T50"},"geometry":{"type":"Point","coordinates":[44.75,73.25]}},{"type":"Feature","properties":{"kind":"center","id":11,"lat":-47.75,"lon":-0.25,"mslp":974.3,"hvtl":-104.5,"hvtu":-314.2,"hb":97.5,"idx":-2.6,"cls":4,"psfc":974.3,"terrain":false,"radius_km":200,"name":"asym cold","track":"T20"},"geometry":{"type":"Point","coordinates":[-0.25,-47.75]}},{"type":"Feature","properties":{"kind":"center","id":12,"lat":-53.0,"lon":101.75,"mslp":974.8,"hvtl":-315.9,"hvtu":-238.5,"hb":62.2,"idx":-3.0,"cls":4,"psfc":974.8,"terrain":false,"radius_km":200,"name":"asym cold","track":"T18"},"geometry":{"type":"Point","coordinates":[101.75,-53.0]}},{"type":"Feature","properties":{"kind":"center","id":13,"lat":60.0,"lon":156.25,"mslp":976.1,"hvtl":26.5,"hvtu":-341.0,"hb":54.8,"idx":-0.5,"cls":3,"psfc":976.1,"terrain":false,"radius_km":200,"name":"asym shallow warm","track":"T53"},"geometry":{"type":"Point","coordinates":[156.25,60.0]}},{"type":"Feature","properties":{"kind":"center","id":14,"lat":-75.0,"lon":-23.25,"mslp":976.6,"hvtl":-158.4,"hvtu":-167.4,"hb":39.4,"idx":-2.8,"cls":4,"psfc":972.3,"terrain":false,"radius_km":200,"name":"asym cold"},"geometry":{"type":"Point","coordinates":[-23.25,-75.0]}},{"type":"Feature","properties":{"kind":"center","id":15,"lat":20.75,"lon":-119.5,"mslp":978.3,"hvtl":81.9,"hvtu":160.1,"hb":4.6,"idx":2.3,"cls":0,"psfc":978.3,"terrain":false,"radius_km":200,"name":"sym deep warm","track":"T42"},"geometry":{"type":"Point","coordinates":[-119.5,20.75]}},{"type":"Feature","properties":{"kind":"center","id":16,"lat":57.0,"lon":-52.25,"mslp":979.1,"hvtl":87.9,"hvtu":-230.7,"hb":24.3,"idx":0.4,"cls":3,"psfc":979.1,"terrain":false,"radius_km":200,"name":"asym shallow warm","track":"T56"},"geometry":{"type":"Point","coordinates":[-52.25,57.0]}},{"type":"Feature","properties":{"kind":"center","id":17,"lat":-58.75,"lon":59.5,"mslp":979.1,"hvtl":-453.7,"hvtu":-517.3,"hb":81.0,"idx":-3.0,"cls":4,"psfc":979.1,"terrain":false,"radius_km":200,"name":"asym cold"},"geometry":{"type":"Point","coordinates":[59.5,-58.75]}},{"type":"Feature","properties":{"kind":"center","id":18,"lat":58.75,"lon":142.5,"mslp":982.0,"hvtl":-19.2,"hvtu":9.9,"hb":-41.4,"idx":-0.3,"cls":6,"psfc":982.0,"terrain":false,"radius_km":200,"name":"shallow cold","track":"T43"},"geometry":{"type":"Point","coordinates":[142.5,58.75]}},{"type":"Feature","properties":{"kind":"center","id":19,"lat":-79.0,"lon":-62.0,"mslp":984.3,"hvtl":-203.1,"hvtu":-87.9,"hb":61.6,"idx":-2.6,"cls":4,"psfc":976.2,"terrain":false,"radius_km":200,"name":"asym cold","track":"T51"},"geometry":{"type":"Point","coordinates":[-62.0,-79.0]}},{"type":"Feature","properties":{"kind":"center","id":20,"lat":51.0,"lon":-57.5,"mslp":986.6,"hvtl":-53.1,"hvtu":-131.6,"hb":11.4,"idx":-1.8,"cls":4,"psfc":986.6,"terrain":false,"radius_km":200,"name":"asym cold","track":"T61"},"geometry":{"type":"Point","coordinates":[-57.5,51.0]}},{"type":"Feature","properties":{"kind":"center","id":21,"lat":-64.25,"lon":-82.75,"mslp":986.9,"hvtl":-92.6,"hvtu":-194.4,"hb":22.2,"idx":-2.4,"cls":4,"psfc":986.9,"terrain":false,"radius_km":200,"name":"asym cold","track":"T68"},"geometry":{"type":"Point","coordinates":[-82.75,-64.25]}},{"type":"Feature","properties":{"kind":"center","id":22,"lat":-78.5,"lon":-75.75,"mslp":989.4,"hvtl":-226.6,"hvtu":-95.6,"hb":45.0,"idx":-2.7,"cls":4,"psfc":973.8,"terrain":false,"radius_km":200,"name":"asym cold","track":"T55"},"geometry":{"type":"Point","coordinates":[-75.75,-78.5]}},{"type":"Feature","properties":{"kind":"center","id":23,"lat":-81.5,"lon":-56.5,"mslp":990.0,"hvtl":-259.0,"hvtu":-110.7,"hb":51.9,"idx":-2.8,"cls":4,"psfc":972.9,"terrain":false,"radius_km":200,"name":"asym cold","track":"T79"},"geometry":{"type":"Point","coordinates":[-56.5,-81.5]}},{"type":"Feature","properties":{"kind":"center","id":24,"lat":62.0,"lon":148.25,"mslp":990.5,"hvtl":75.4,"hvtu":1.0,"hb":12.4,"idx":1.3,"cls":2,"psfc":906.1,"terrain":false,"radius_km":200,"name":"asym deep warm"},"geometry":{"type":"Point","coordinates":[148.25,62.0]}},{"type":"Feature","properties":{"kind":"center","id":25,"lat":61.75,"lon":149.25,"mslp":992.4,"hvtl":90.8,"hvtu":-48.4,"hb":25.0,"idx":1.0,"cls":3,"psfc":900.0,"terrain":true,"radius_km":200,"name":"asym shallow warm"},"geometry":{"type":"Point","coordinates":[149.25,61.75]}},{"type":"Feature","properties":{"kind":"center","id":26,"lat":27.0,"lon":163.0,"mslp":995.5,"hvtl":101.3,"hvtu":23.8,"hb":1.0,"idx":1.8,"cls":0,"psfc":995.5,"terrain":false,"radius_km":200,"name":"sym deep warm","track":"T44"},"geometry":{"type":"Point","coordinates":[163.0,27.0]}},{"type":"Feature","properties":{"kind":"center","id":27,"lat":59.25,"lon":-92.25,"mslp":997.1,"hvtl":-10.6,"hvtu":-46.7,"hb":23.7,"idx":-0.6,"cls":4,"psfc":997.2,"terrain":false,"radius_km":200,"name":"asym cold","track":"T90"},"geometry":{"type":"Point","coordinates":[-92.25,59.25]}},{"type":"Feature","properties":{"kind":"center","id":28,"lat":75.0,"lon":128.0,"mslp":997.2,"hvtl":-104.0,"hvtu":-184.3,"hb":49.7,"idx":-2.5,"cls":4,"psfc":997.2,"terrain":false,"radius_km":200,"name":"asym cold"},"geometry":{"type":"Point","coordinates":[128.0,75.0]}},{"type":"Feature","properties":{"kind":"center","id":29,"lat":51.75,"lon":-83.25,"mslp":999.0,"hvtl":-219.1,"hvtu":-237.8,"hb":51.5,"idx":-2.9,"cls":4,"psfc":990.7,"terrain":false,"radius_km":200,"name":"asym cold","track":"T87"},"geometry":{"type":"Point","coordinates":[-83.25,51.75]}},{"type":"Feature","properties":{"kind":"center","id":30,"lat":-29.0,"lon":-66.0,"mslp":999.2,"hvtl":-17.4,"hvtu":-320.6,"hb":69.7,"idx":-1.3,"cls":4,"psfc":963.6,"terrain":false,"radius_km":200,"name":"asym cold","track":"T97"},"geometry":{"type":"Point","coordinates":[-66.0,-29.0]}},{"type":"Feature","properties":{"kind":"center","id":31,"lat":59.0,"lon":88.5,"mslp":1003.6,"hvtl":-127.3,"hvtu":-89.6,"hb":35.7,"idx":-2.4,"cls":4,"psfc":985.9,"terrain":false,"radius_km":200,"name":"asym cold","track":"T111"},"geometry":{"type":"Point","coordinates":[88.5,59.0]}},{"type":"Feature","properties":{"kind":"center","id":32,"lat":-37.75,"lon":-75.25,"mslp":1006.6,"hvtl":18.4,"hvtu":-47.7,"hb":17.0,"idx":-0.1,"cls":3,"psfc":1006.6,"terrain":false,"radius_km":200,"name":"asym shallow warm","track":"T102"},"geometry":{"type":"Point","coordinates":[-75.25,-37.75]}},{"type":"Feature","properties":{"kind":"center","id":33,"lat":-43.25,"lon":168.25,"mslp":1007.9,"hvtl":49.3,"hvtu":-95.2,"hb":50.0,"idx":0.2,"cls":3,"psfc":1007.9,"terrain":false,"radius_km":200,"name":"asym shallow warm","track":"T120"},"geometry":{"type":"Point","coordinates":[168.25,-43.25]}},{"type":"Feature","properties":{"kind":"center","id":34,"lat":39.0,"lon":-122.0,"mslp":1009.2,"hvtl":35.2,"hvtu":-155.9,"hb":-1.6,"idx":-0.2,"cls":1,"psfc":1004.2,"terrain":false,"radius_km":200,"name":"sym shallow warm"},"geometry":{"type":"Point","coordinates":[-122.0,39.0]}},{"type":"Feature","properties":{"kind":"center","id":35,"lat":64.25,"lon":-27.5,"mslp":1009.6,"hvtl":-77.5,"hvtu":-463.7,"hb":18.2,"idx":-2.3,"cls":4,"psfc":1009.6,"terrain":false,"radius_km":200,"name":"asym cold","track":"T62"},"geometry":{"type":"Point","coordinates":[-27.5,64.25]}},{"type":"Feature","properties":{"kind":"center","id":36,"lat":78.5,"lon":-116.0,"mslp":1010.2,"hvtl":-117.3,"hvtu":-123.8,"hb":26.9,"idx":-2.5,"cls":4,"psfc":1010.2,"terrain":false,"radius_km":200,"name":"asym cold","track":"T126"},"geometry":{"type":"Point","coordinates":[-116.0,78.5]}},{"type":"Feature","properties":{"kind":"center","id":37,"lat":31.0,"lon":71.0,"mslp":1010.6,"hvtl":26.2,"hvtu":-58.9,"hb":12.4,"idx":-0.0,"cls":3,"psfc":993.7,"terrain":false,"radius_km":200,"name":"asym shallow warm","track":"T103"},"geometry":{"type":"Point","coordinates":[71.0,31.0]}},{"type":"Feature","properties":{"kind":"center","id":38,"lat":45.5,"lon":-3.75,"mslp":1010.8,"hvtl":105.6,"hvtu":-121.4,"hb":20.4,"idx":0.7,"cls":3,"psfc":1010.8,"terrain":false,"radius_km":200,"name":"asym shallow warm","track":"T129"},"geometry":{"type":"Point","coordinates":[-3.75,45.5]}},{"type":"Feature","properties":{"kind":"center","id":39,"lat":-44.5,"lon":170.25,"mslp":1011.3,"hvtl":-17.1,"hvtu":-143.4,"hb":58.4,"idx":-1.2,"cls":4,"psfc":922.7,"terrain":false,"radius_km":200,"name":"asym cold"},"geometry":{"type":"Point","coordinates":[170.25,-44.5]}},{"type":"Feature","properties":{"kind":"center","id":40,"lat":32.5,"lon":47.0,"mslp":1013.2,"hvtl":-208.2,"hvtu":-117.1,"hb":64.1,"idx":-2.8,"cls":4,"psfc":1004.6,"terrain":false,"radius_km":200,"name":"asym cold"},"geometry":{"type":"Point","coordinates":[47.0,32.5]}},{"type":"Feature","properties":{"kind":"center","id":41,"lat":25.5,"lon":95.5,"mslp":1013.4,"hvtl":-51.6,"hvtu":-155.1,"hb":2.2,"idx":-1.9,"cls":5,"psfc":989.9,"terrain":false,"radius_km":200,"name":"sym cold","track":"T122"},"geometry":{"type":"Point","coordinates":[95.5,25.5]}}]}