{"type":"FeatureCollection","features":[{"type":"Feature","properties":{"kind":"blob","cls":4,"id":1},"geometry":{"type":"Polygon","coordinates":[[[119.0,-66.38],[127.25,-66.62],[128.12,-65.75],[128.12,-65.25],[126.5,-63.88],[122.75,-63.38],[119.75,-64.12],[121.75,-64.38],[122.62,-65.0],[118.5,-65.38],[118.38,-65.75],[119.0,-66.38]]]}},{"type":"Feature","properties":{"kind":"blob","cls":1,"id":2},"geometry":{"type":"Polygon","coordinates":[[[-167.0,-70.62],[-165.25,-69.88],[-164.62,-69.0],[-166.5,-67.12],[-172.0,-65.88],[-176.5,-66.12],[-178.62,-67.25],[-178.62,-68.5],[-177.5,-69.38],[-173.75,-70.62],[-167.0,-70.62]],[[-170.0,-69.38],[-170.62,-68.75],[-169.5,-67.88],[-166.38,-67.75],[-166.5,-68.38],[-167.5,-68.88],[-170.0,-69.38]]]}},{"type":"Feature","properties":{"kind":"blob","cls":4,"id":3},"geometry":{"type":"Polygon","coordinates":[[[0.0,-63.12],[3.25,-62.38],[5.12,-61.0],[5.38,-59.75],[4.25,-58.62],[2.5,-58.12],[0.25,-58.12],[-3.0,-58.88],[-4.88,-60.5],[-4.88,-61.75],[-3.25,-62.88],[0.0,-63.12]],[[-2.0,-62.62],[-2.88,-61.5],[-2.0,-61.12],[-0.5,-61.88],[-0.12,-62.75],[-2.0,-62.62]]]}},{"type":"Feature","properties":{"kind":"blob","cls":1,"id":4},"geometry":{"type":"Polygon","coordinates":[[[18.0,-67.12],[18.38,-66.5],[17.75,-65.62],[16.75,-65.12],[13.75,-64.38],[10.75,-64.38],[8.12,-65.25],[8.5,-65.62],[18.0,-67.12]]]}},{"type":"Feature","properties":{"kind":"blob","cls":4,"id":5},"geometry":{"type":"Polygon","coordinates":[[[43.5,-67.12],[47.75,-67.12],[49.0,-66.62],[49.88,-65.75],[49.88,-65.25],[49.0,-64.38],[47.75,-63.88],[43.75,-63.62],[41.5,-64.12],[40.12,-65.25],[40.12,-65.75],[41.0,-66.62],[43.5,-67.12]]]}},{"type":"Feature","properties":{"kind":"blob","cls":4,"id":6},"geometry":{"type":"Polygon","coordinates":[[[13.25,-54.38],[14.75,-53.88],[15.62,-53.0],[15.62,-51.75],[14.5,-50.62],[12.5,-49.88],[10.75,-49.88],[9.25,-50.38],[8.38,-51.25],[8.38,-52.25],[9.75,-53.62],[13.25,-54.38]]]}},{"type":"Feature","properties":{"kind":"blob","cls":1,"id":7},"geometry":{"type":"Polygon","coordinates":[[[14.88,-68.25],[7.38,-66.25],[8.0,-67.38],[9.75,-68.12],[14.88,-68.25]]]}},{"type":"Feature","properties":{"kind":"blob","cls":4,"id":8},"geometry":{"type":"Polygon","coordinates":[[[81.75,-61.38],[84.25,-60.62],[85.38,-59.25],[85.38,-58.25],[84.75,-57.62],[82.75,-56.88],[78.25,-56.88],[75.5,-57.62],[74.62,-58.5],[74.38,-59.25],[75.5,-60.62],[81.75,-61.38]]]}},{"type":"Feature","properties":{"kind":"blob","cls":4,"id":9},"geometry":{"type":"Polygon","coordinates":[[[39.0,-68.38],[39.12,-67.25],[37.0,-66.12],[32.5,-65.88],[29.25,-66.88],[28.88,-68.0],[39.0,-68.38]]]}},{"type":"Feature","properties":{"kind":"blob","cls":6,"id":10},"geometry":{"type":"Polygon","coordinates":[[[-120.75,-70.62],[-117.25,-69.62],[-118.25,-69.38],[-119.25,-69.62],[-120.88,-69.0],[-120.5,-68.38],[-118.75,-67.88],[-116.0,-67.88],[-113.75,-68.38],[-113.75,-68.88],[-115.38,-69.25],[-112.75,-69.88],[-105.75,-69.62],[-104.0,-68.88],[-103.38,-68.0],[-104.0,-66.88],[-108.0,-65.12],[-115.25,-64.62],[-118.5,-65.62],[-119.5,-67.12],[-122.75,-66.88],[-125.25,-67.38],[-126.62,-68.25],[-126.62,-69.25],[-126.25,-69.62],[-124.25,-70.38],[-120.75,-70.62]]]}},{"type":"Feature","properties":{"kind":"blob","cls":4,"id":11},"geometry":{"type":"Polygon","coordinates":[[[69.0,-68.62],[77.75,-68.88],[79.5,-68.12],[82.38,-67.75],[80.5,-66.88],[76.25,-66.62],[72.0,-67.62],[69.0,-67.88],[69.38,-68.5],[69.0,-68.62]]]}},{"type":"Feature","properties":{"kind":"blob","cls":5,"id":12},"geometry":{"type":"Polygon","coordinates":[[[32.5,-69.62],[33.62,-69.5],[33.5,-69.38],[32.5,-69.62]]]}},{"type":"Feature","properties":{"kind":"blob","cls":1,"id":13},"geometry":{"type":"Polygon","coordinates":[[[148.5,54.38],[150.25,54.88],[151.38,56.0],[151.38,57.0],[150.5,57.88],[148.75,58.38],[145.75,57.88],[144.62,56.5],[144.88,55.75],[146.25,54.62],[148.5,54.38]]]}},{"type":"Feature","properties":{"kind":"blob","cls":4,"id":14},"geometry":{"type":"Polygon","coordinates":[[[153.5,-68.88],[156.5,-68.12],[157.88,-67.0],[157.88,-66.5],[156.5,-65.38],[152.0,-64.38],[147.5,-64.38],[145.5,-64.88],[144.12,-65.75],[144.12,-66.75],[145.5,-67.62],[153.5,-68.88]]]}},{"type":"Feature","properties":{"kind":"blob","cls":5,"id":15},"geometry":{"type":"Polygon","coordinates":[[[34.5,-69.62],[35.38,-69.5],[35.25,-69.38],[34.5,-69.62]]]}},{"type":"Feature","properties":{"kind":"blob","cls":4,"id":16},"geometry":{"type":"Polygon","coordinates":[[[162.25,43.12],[164.62,44.5],[165.12,46.25],[164.25,47.38],[162.0,47.88],[160.0,47.12],[159.12,46.25],[159.12,44.5],[160.0,43.62],[162.25,43.12]]]}},{"type":"Feature","properties":{"kind":"blob","cls":1,"id":17},"geometry":{"type":"Polygon","coordinates":[[[-119.0,-56.88],[-117.0,-56.12],[-116.38,-55.5],[-116.38,-54.5],[-115.38,-53.5],[-115.38,-52.5],[-116.75,-51.38],[-118.75,-51.12],[-119.12,-50.0],[-120.25,-49.12],[-123.5,-49.12],[-124.62,-50.0],[-124.88,-51.25],[-124.0,-52.38],[-121.62,-53.0],[-123.12,-54.0],[-123.38,-55.5],[-121.75,-56.62],[-119.0,-56.88]]]}},{"type":"Feature","properties":{"kind":"blob","cls":3,"id":18},"geometry":{"type":"MultiPolygon","coordinates":[[[[36.38,74.25],[37.12,74.25],[37.0,74.38],[36.38,74.25]]],[[[42.5,73.62],[49.5,73.62],[51.5,74.12],[52.88,75.25],[52.0,76.38],[50.75,76.88],[47.0,77.88],[43.0,78.38],[33.5,78.12],[31.25,77.62],[30.25,77.12],[29.62,76.25],[30.0,75.62],[32.75,74.62],[36.25,74.38],[34.0,75.12],[31.62,76.5],[32.5,77.12],[35.75,76.88],[39.75,75.62],[41.75,74.62],[42.5,73.62]]]]}},{"type":"Feature","properties":{"kind":"blob","cls":3,"id":19},"geometry":{"type":"Polygon","coordinates":[[[-179.0,-80.12],[-175.75,-80.38],[-165.0,-79.88],[-157.5,-80.38],[-156.88,-79.75],[-158.75,-78.62],[-162.5,-77.88],[-171.75,-77.62],[-178.5,-78.62],[-179.62,-79.25],[-179.62,-79.75],[-179.0,-80.12]]]}},{"type":"Feature","properties":{"kind":"blob","cls":4,"id":20},"geometry":{"type":"Polygon","coordinates":[[[112.75,-50.38],[114.5,-49.62],[115.38,-48.5],[115.38,-47.5],[114.5,-46.62],[113.25,-46.12],[111.75,-46.12],[110.5,-46.62],[109.38,-47.5],[109.12,-49.0],[109.5,-49.62],[112.75,-50.38]]]}},{"type":"Feature","properties":{"kind":"blob","cls":4,"id":21},"geometry":{"type":"Polygon","coordinates":[[[-57.5,-81.12],[-46.25,-81.38],[-42.25,-80.62],[-40.25,-79.62],[-35.75,-79.88],[-30.75,-78.88],[-35.38,-78.5],[-33.0,-77.38],[-31.5,-77.38],[-29.62,-76.75],[-31.5,-76.38],[-39.25,-76.62],[-42.5,-77.38],[-43.25,-78.12],[-48.5,-77.38],[-56.75,-77.38],[-62.75,-78.12],[-64.38,-79.0],[-64.0,-79.88],[-62.0,-80.62],[-57.5,-81.12]],[[-47.75,-80.12],[-48.12,-79.75],[-47.25,-79.12],[-45.0,-79.12],[-44.12,-79.5],[-45.25,-80.12],[-47.75,-80.12]]]}},{"type":"Feature","properties":{"kind":"blob","cls":4,"id":22},"geometry":{"type":"Polygon","coordinates":[[[-110.0,-56.88],[-108.0,-56.12],[-107.38,-55.5],[-107.62,-54.0],[-108.25,-53.38],[-110.25,-52.62],[-111.5,-52.62],[-113.5,-53.38],[-114.12,-54.25],[-114.12,-55.5],[-112.5,-56.62],[-110.0,-56.88]]]}},{"type":"Feature","properties":{"kind":"blob","cls":1,"id":23},"geometry":{"type":"Polygon","coordinates":[[[164.5,-75.12],[165.25,-75.38],[167.0,-74.88],[168.12,-74.0],[168.12,-73.5],[167.75,-73.12],[166.75,-73.12],[165.75,-73.88],[165.0,-73.62],[164.5,-75.12]]]}},{"type":"Feature","properties":{"kind":"blob","cls":1,"id":24},"geometry":{"type":"Polygon","coordinates":[[[-52.5,54.12],[-50.75,54.62],[-49.88,55.5],[-49.88,56.75],[-51.0,57.88],[-52.75,58.38],[-55.75,57.88],[-56.88,56.5],[-56.62,55.5],[-55.25,54.38],[-52.5,54.12]]]}},{"type":"Feature","properties":{"kind":"blob","cls":3,"id":25},"geometry":{"type":"MultiPolygon","coordinates":[[[[153.0,61.88],[152.88,61.75],[153.0,61.62],[153.0,61.88]]],[[[157.75,60.12],[160.25,60.88],[161.12,61.5],[161.62,63.5],[160.5,64.38],[160.12,63.75],[160.88,63.25],[160.5,62.88],[159.5,63.12],[159.25,62.38],[156.5,61.88],[156.88,62.5],[156.62,63.5],[157.0,63.88],[157.75,63.62],[157.62,64.0],[158.25,64.62],[159.25,64.12],[159.38,65.0],[157.25,65.62],[153.75,65.12],[152.12,63.5],[153.25,61.88],[154.25,61.62],[155.12,62.75],[154.88,63.5],[155.38,63.5],[156.12,62.5],[156.12,61.5],[154.62,60.5],[157.75,60.12]]],[[[160.38,64.5],[160.25,64.62],[160.12,64.5],[160.38,64.5]]]]}},{"type":"Feature","properties":{"kind":"blob","cls":4,"id":26},"geometry":{"type":"Polygon","coordinates":[[[-30.12,-78.5],[-30.0,-78.62],[-29.88,-78.5],[-30.12,-78.5]]]}},{"type":"Feature","properties":{"kind":"blob","cls":0,"id":27},"geometry":{"type":"Polygon","coordinates":[[[-121.5,20.12],[-119.75,20.12],[-118.88,21.0],[-118.88,22.5],[-119.75,23.38],[-121.25,23.62],[-122.88,22.5],[-122.88,21.0],[-122.0,20.88],[-121.5,20.12]]]}},{"type":"Feature","properties":{"kind":"blob","cls":4,"id":28},"geometry":{"type":"MultiPolygon","coordinates":[[[[163.0,52.38],[165.0,53.12],[165.62,54.0],[165.38,55.0],[163.0,56.12],[161.5,55.88],[161.0,54.88],[160.25,54.88],[160.38,55.25],[160.0,55.38],[159.62,55.0],[160.12,54.5],[159.38,54.5],[159.62,53.5],[163.0,52.38]]],[[[160.5,55.62],[160.38,55.5],[160.5,55.38],[160.5,55.62]]]]}},{"type":"Feature","properties":{"kind":"blob","cls":4,"id":29},"geometry":{"type":"Polygon","coordinates":[[[-74.0,-68.62],[-71.25,-68.12],[-69.5,-67.38],[-68.88,-66.5],[-69.75,-65.38],[-72.75,-64.38],[-77.5,-64.38],[-79.5,-64.88],[-80.88,-65.75],[-81.12,-66.5],[-80.5,-67.38],[-78.25,-68.38],[-74.0,-68.62]]]}},{"type":"Feature","properties":{"kind":"blob","cls":5,"id":30},"geometry":{"type":"Polygon","coordinates":[[[-57.25,-66.38],[-54.5,-65.88],[-52.88,-65.0],[-52.62,-64.0],[-53.0,-63.38],[-54.5,-62.62],[-60.0,-62.38],[-62.5,-62.88],[-64.38,-64.0],[-64.38,-65.0],[-63.5,-65.38],[-60.0,-63.88],[-58.88,-64.0],[-62.0,-64.88],[-62.88,-65.75],[-62.5,-66.12],[-57.25,-66.38]],[[-57.75,-64.38],[-57.88,-64.25],[-57.75,-64.12],[-57.75,-64.38]]]}},{"type":"Feature","properties":{"kind":"blob","cls":4,"id":31},"geometry":{"type":"Polygon","coordinates":[[[-78.5,-79.88],[-76.75,-79.38],[-75.62,-78.5],[-77.5,-77.38],[-79.0,-77.38],[-78.88,-78.25],[-79.38,-79.25],[-78.5,-79.88]]]}},{"type":"Feature","properties":{"kind":"blob","cls":4,"id":32},"geometry":{"type":"Polygon","coordinates":[[[-36.25,57.88],[-34.75,58.38],[-33.62,59.5],[-33.62,60.0],[-34.75,61.12],[-37.25,61.88],[-39.75,61.88],[-42.0,61.38],[-43.25,60.88],[-44.38,59.75],[-44.38,59.25],[-43.25,58.12],[-36.25,57.88]]]}},{"type":"Feature","properties":{"kind":"blob","cls":1,"id":33},"geometry":{"type":"MultiPolygon","coordinates":[[[[-64.75,-24.38],[-64.88,-24.5],[-64.75,-24.62],[-64.75,-24.38]]],[[[-65.75,-27.62],[-65.5,-28.12],[-65.0,-28.12],[-62.88,-25.25],[-62.88,-24.5],[-61.5,-24.12],[-60.62,-23.25],[-60.62,-21.0],[-61.88,-20.0],[-61.38,-19.25],[-61.38,-18.25],[-62.25,-17.12],[-63.0,-16.88],[-64.62,-17.25],[-63.38,-18.25],[-63.88,-19.0],[-63.12,-19.75],[-63.38,-20.75],[-64.12,-21.0],[-63.62,-21.75],[-64.62,-23.75],[-64.12,-24.25],[-65.12,-25.75],[-64.62,-26.0],[-65.0,-26.62],[-65.38,-26.25],[-65.75,-27.62]]]]}},{"type":"Feature","properties":{"kind":"blob","cls":4,"id":34},"geometry":{"type":"Polygon","coordinates":[[[-79.0,52.12],[-77.0,52.88],[-76.38,53.75],[-76.62,55.0],[-79.5,56.38],[-81.25,56.38],[-83.25,55.62],[-83.88,54.75],[-83.62,53.75],[-82.75,52.88],[-79.0,52.12]]]}},{"type":"Feature","properties":{"kind":"blob","cls":1,"id":35},"geometry":{"type":"Polygon","coordinates":[[[160.75,26.62],[161.88,28.0],[161.62,29.0],[160.5,30.12],[158.5,30.12],[157.12,28.5],[157.38,27.5],[158.25,26.62],[160.75,26.62]]]}},{"type":"Feature","properties":{"kind":"blob","cls":4,"id":36},"geometry":{"type":"Polygon","coordinates":[[[137.25,70.12],[140.5,70.62],[142.75,71.38],[144.12,72.75],[143.25,73.88],[140.0,74.88],[133.5,75.12],[129.0,74.12],[127.62,72.75],[128.25,71.88],[130.0,71.12],[137.25,70.12]]]}},{"type":"Feature","properties":{"kind":"blob","cls":4,"id":37},"geometry":{"type":"Polygon","coordinates":[[[-91.75,58.38],[-90.88,58.75],[-97.0,61.38],[-97.88,61.25],[-97.88,60.25],[-97.0,59.38],[-91.75,58.38]]]}},{"type":"Feature","properties":{"kind":"blob","cls":3,"id":38},"geometry":{"type":"Polygon","coordinates":[[[-51.0,62.12],[-48.88,62.25],[-49.62,62.75],[-49.75,63.62],[-50.62,63.75],[-49.75,63.88],[-49.38,64.5],[-50.12,65.0],[-49.88,65.5],[-50.25,65.88],[-52.25,65.62],[-52.88,66.25],[-49.75,66.38],[-50.0,67.12],[-56.75,66.88],[-58.0,66.38],[-58.88,65.25],[-57.75,63.88],[-55.75,63.12],[-54.75,63.12],[-54.62,64.25],[-53.75,64.88],[-52.5,64.62],[-51.62,63.75],[-51.0,62.12]]]}},{"type":"Feature","properties":{"kind":"blob","cls":1,"id":39},"geometry":{"type":"Polygon","coordinates":[[[-89.12,59.5],[-88.88,60.5],[-90.0,61.88],[-92.25,62.62],[-94.62,62.5],[-90.0,59.62],[-89.12,59.5]]]}},{"type":"Feature","properties":{"kind":"blob","cls":0,"id":40},"geometry":{"type":"Polygon","coordinates":[[[154.5,12.88],[156.0,12.88],[156.88,14.0],[156.62,15.5],[155.25,16.38],[154.0,16.12],[153.12,15.0],[153.38,13.5],[154.5,12.88]]]}},{"type":"Feature","properties":{"kind":"blob","cls":3,"id":41},"geometry":{"type":"Polygon","coordinates":[[[-66.5,-28.12],[-66.38,-27.75],[-66.5,-27.62],[-66.5,-28.12]]]}},{"type":"Feature","properties":{"kind":"blob","cls":3,"id":42},"geometry":{"type":"Polygon","coordinates":[[[-56.0,-36.38],[-54.38,-35.5],[-54.12,-34.0],[-54.75,-33.12],[-56.5,-32.62],[-58.12,-33.5],[-58.12,-35.5],[-56.0,-36.38]]]}},{"type":"Feature","properties":{"kind":"blob","cls":1,"id":43},"geometry":{"type":"Polygon","coordinates":[[[86.75,58.62],[89.0,58.38],[90.75,58.88],[92.12,60.0],[92.12,61.0],[90.25,62.38],[86.0,62.88],[85.75,62.38],[87.38,61.75],[87.0,60.88],[82.88,61.0],[82.88,60.25],[83.5,59.62],[86.75,58.62]]]}},{"type":"Feature","properties":{"kind":"blob","cls":3,"id":44},"geometry":{"type":"Polygon","coordinates":[[[-51.0,68.12],[-50.62,68.5],[-51.88,71.0],[-52.75,71.88],[-56.0,71.38],[-57.0,70.88],[-57.62,70.0],[-57.0,69.12],[-56.0,68.62],[-51.0,68.12]],[[-53.5,69.62],[-53.88,70.0],[-52.62,69.75],[-53.5,69.62]],[[-53.12,70.5],[-52.12,70.5],[-52.25,70.38],[-53.12,70.5]]]}},{"type":"Feature","properties":{"kind":"blob","cls":3,"id":45},"geometry":{"type":"Polygon","coordinates":[[[-77.5,28.38],[-76.12,30.0],[-76.38,31.0],[-77.25,31.88],[-79.25,31.88],[-80.62,30.25],[-80.38,29.25],[-79.5,28.38],[-77.5,28.38]]]}},{"type":"Feature","properties":{"kind":"blob","cls":0,"id":46},"geometry":{"type":"Polygon","coordinates":[[[110.0,15.38],[111.5,15.38],[112.38,16.5],[112.12,18.0],[110.75,18.88],[109.5,18.62],[108.62,17.5],[108.88,16.0],[110.0,15.38]]]}},{"type":"Feature","properties":{"kind":"blob","cls":3,"id":47},"geometry":{"type":"Polygon","coordinates":[[[-68.75,-32.88],[-68.0,-32.62],[-67.38,-31.75],[-67.5,-31.38],[-68.12,-31.5],[-67.62,-31.0],[-68.25,-29.88],[-68.62,-30.5],[-68.75,-32.88]]]}},{"type":"Feature","properties":{"kind":"blob","cls":2,"id":48},"geometry":{"type":"Polygon","coordinates":[[[41.38,11.5],[41.5,11.12],[42.25,11.38],[42.88,12.0],[43.12,13.5],[41.5,15.62],[39.5,15.62],[40.12,13.25],[39.88,12.0],[41.38,11.5]]]}},{"type":"Feature","properties":{"kind":"blob","cls":6,"id":49},"geometry":{"type":"Polygon","coordinates":[[[168.5,-41.38],[170.12,-40.25],[170.62,-38.5],[169.25,-36.88],[167.0,-36.62],[165.75,-37.12],[164.88,-38.0],[164.88,-40.0],[166.0,-41.12],[168.5,-41.38]],[[167.62,-39.5],[166.88,-39.0],[167.25,-38.12],[167.88,-38.5],[167.62,-39.5]]]}},{"type":"Feature","properties":{"kind":"blob","cls":5,"id":50},"geometry":{"type":"Polygon","coordinates":[[[-109.75,76.62],[-100.5,77.62],[-97.0,78.38],[-96.12,79.0],[-96.12,79.5],[-97.0,80.12],[-98.0,80.12],[-114.25,78.88],[-119.5,79.38],[-120.62,80.0],[-120.25,80.38],[-121.0,80.38],[-123.62,79.25],[-123.62,78.5],[-122.5,77.62],[-119.25,76.88],[-109.75,76.62]]]}},{"type":"Feature","properties":{"kind":"blob","cls":3,"id":51},"geometry":{"type":"MultiPolygon","coordinates":[[[[-77.75,-39.62],[-77.88,-39.75],[-77.75,-39.88],[-77.75,-39.62]]],[[[-77.88,-39.5],[-78.0,-39.38],[-78.12,-39.5],[-77.88,-39.5]]],[[[-75.62,-39.5],[-75.88,-40.0],[-75.5,-40.12],[-73.88,-39.0],[-73.88,-37.25],[-75.5,-36.12],[-77.75,-36.38],[-78.88,-37.75],[-78.62,-39.0],[-78.12,-39.25],[-78.12,-38.25],[-77.75,-37.88],[-76.75,-37.88],[-75.62,-39.5]]]]}},{"type":"Feature","properties":{"kind":"blob","cls":4,"id":52},"geometry":{"type":"Polygon","coordinates":[[[71.5,28.88],[73.5,29.88],[74.38,31.0],[74.38,32.0],[74.0,32.38],[72.0,32.38],[70.25,31.88],[70.12,30.0],[69.12,29.5],[71.5,28.88]]]}},{"type":"Feature","properties":{"kind":"blob","cls":4,"id":53},"geometry":{"type":"Polygon","coordinates":[[[121.5,41.62],[122.75,42.12],[123.38,42.75],[123.38,44.5],[122.25,45.38],[120.5,45.88],[120.25,46.62],[118.75,45.88],[119.12,46.75],[119.88,47.25],[119.0,47.88],[117.25,48.12],[116.0,47.62],[114.88,46.25],[115.88,46.0],[116.12,45.5],[115.62,44.75],[116.0,44.38],[116.88,44.75],[116.75,45.12],[118.25,44.88],[119.25,45.38],[119.88,45.25],[118.75,43.88],[118.25,44.12],[117.88,43.5],[118.75,42.12],[121.5,41.62]],[[116.62,45.75],[117.25,46.12],[117.38,45.75],[116.62,45.75]],[[117.62,46.0],[118.38,46.0],[118.25,45.88],[117.62,46.0]],[[119.75,45.62],[119.62,45.75],[119.75,45.88],[119.75,45.62]]]}},{"type":"Feature","properties":{"kind":"blob","cls":1,"id":54},"geometry":{"type":"Polygon","coordinates":[[[-2.62,43.75],[-1.12,47.25],[-0.5,47.88],[-3.0,48.12],[-4.25,47.62],[-5.12,46.75],[-5.12,45.0],[-4.25,44.12],[-2.62,43.75]]]}},{"type":"Feature","properties":{"kind":"blob","cls":4,"id":55},"geometry":{"type":"MultiPolygon","coordinates":[[[[-71.12,-32.5],[-71.0,-32.62],[-70.88,-32.25],[-71.12,-32.5]]],[[[-71.62,-31.75],[-71.25,-32.12],[-70.88,-31.75],[-71.0,-30.38],[-71.62,-30.75],[-71.62,-31.75]]]]}},{"type":"Feature","properties":{"kind":"blob","cls":3,"id":56},"geometry":{"type":"Polygon","coordinates":[[[-71.12,-30.0],[-71.0,-30.12],[-70.88,-30.0],[-71.12,-30.0]]]}},{"type":"Feature","properties":{"kind":"blob","cls":3,"id":57},"geometry":{"type":"MultiPolygon","coordinates":[[[[-1.25,44.12],[-1.38,44.0],[-1.25,43.88],[-1.25,44.12]]],[[[-1.12,44.25],[-0.75,44.12],[0.88,45.75],[0.88,46.5],[0.25,47.38],[-0.12,46.0],[-1.12,44.25]]],[[[0.12,47.5],[0.0,47.62],[-0.12,47.5],[0.12,47.5]]]]}},{"type":"Feature","properties":{"kind":"blob","cls":5,"id":58},"geometry":{"type":"Polygon","coordinates":[[[96.0,23.62],[97.12,24.25],[95.5,25.88],[94.5,24.88],[93.88,24.75],[94.75,23.88],[96.0,23.62]]]}},{"type":"Feature","properties":{"kind":"blob","cls":4,"id":59},"geometry":{"type":"MultiPolygon","coordinates":[[[[48.0,30.88],[48.88,31.5],[49.12,32.5],[47.75,33.38],[47.25,32.88],[46.75,33.12],[45.75,34.62],[45.25,34.62],[44.12,33.5],[44.12,32.25],[45.0,31.12],[48.0,30.88]]],[[[46.0,34.88],[45.88,34.75],[46.0,34.62],[46.0,34.88]]]]}},{"type":"Feature","properties":{"kind":"blob","cls":5,"id":60},"geometry":{"type":"Polygon","coordinates":[[[93.5,25.12],[94.62,26.25],[93.25,26.88],[92.0,26.88],[92.12,26.0],[93.5,25.12]]]}},{"type":"Feature","properties":{"kind":"blob","cls":5,"id":61},"geometry":{"type":"MultiPolygon","coordinates":[[[[-119.88,80.5],[-118.38,80.5],[-118.5,80.62],[-119.88,80.5]]],[[[-118.38,80.75],[-108.25,80.88],[-105.88,81.25],[-112.5,81.38],[-118.38,80.75]]]]}},{"type":"Feature","properties":{"kind":"blob","cls":3,"id":62},"geometry":{"type":"Polygon","coordinates":[[[63.0,29.38],[63.88,30.0],[62.5,30.38],[61.88,31.0],[62.38,32.75],[61.62,33.0],[61.5,33.62],[60.62,33.0],[60.38,31.0],[61.0,30.12],[63.0,29.38]]]}},{"type":"Feature","properties":{"kind":"blob","cls":5,"id":63},"geometry":{"type":"MultiPolygon","coordinates":[[[[64.75,29.62],[64.62,29.5],[65.0,29.38],[64.75,29.62]]],[[[65.25,29.88],[65.12,29.75],[65.5,29.62],[65.25,29.88]]]]}},{"type":"Feature","properties":{"kind":"blob","cls":4,"id":64},"geometry":{"type":"Polygon","coordinates":[[[-19.75,70.38],[-16.25,71.12],[-15.12,72.0],[-14.38,73.5],[-16.25,74.62],[-19.25,75.12],[-22.0,75.12],[-21.62,74.75],[-22.25,74.38],[-24.5,74.38],[-25.38,72.5],[-24.12,72.0],[-26.38,71.5],[-24.25,70.62],[-19.75,70.38]]]}},{"type":"Feature","properties":{"kind":"blob","cls":3,"id":65},"geometry":{"type":"Polygon","coordinates":[[[55.88,35.0],[55.0,35.62],[54.62,35.25],[54.75,35.12],[55.88,35.0]]]}},{"type":"Feature","properties":{"kind":"blob","cls":4,"id":66},"geometry":{"type":"MultiPolygon","coordinates":[[[[63.62,36.25],[64.0,35.88],[65.0,35.88],[68.38,38.5],[68.0,38.62],[66.5,37.62],[66.38,38.25],[67.12,39.0],[66.75,39.38],[65.5,39.12],[63.62,37.75],[63.62,36.25]]],[[[67.0,39.62],[66.88,39.5],[67.25,39.38],[67.0,39.62]]]]}},{"type":"Feature","properties":{"kind":"center","id":1,"lat":-65.5,"lon":123.25,"mslp":947.9,"hvtl":-4.9,"hvtu":-9.2,"hb":10.3,"idx":-0.2,"cls":4,"psfc":947.9,"terrain":false,"radius_km":200,"name":"asym cold","track":"T01"},"geometry":{"type":"Point","coordinates":[123.25,-65.5]}},{"type":"Feature","properties":{"kind":"center","id":2,"lat":-68.5,"lon":-172.25,"mslp":952.8,"hvtl":171.0,"hvtu":-20.6,"hb":-15.0,"idx":1.7,"cls":1,"psfc":952.8,"terrain":false,"radius_km":200,"name":"sym shallow warm","track":"T13"},"geometry":{"type":"Point","coordinates":[-172.25,-68.5]}},{"type":"Feature","properties":{"kind":"center","id":3,"lat":-60.5,"lon":-0.25,"mslp":959.7,"hvtl":-141.3,"hvtu":-2.3,"hb":29.9,"idx":-1.8,"cls":4,"psfc":959.7,"terrain":false,"radius_km":200,"name":"asym cold","track":"T24"},"geometry":{"type":"Point","coordinates":[-0.25,-60.5]}},{"type":"Feature","properties":{"kind":"center","id":4,"lat":-66.25,"lon":12.75,"mslp":966.3,"hvtl":63.8,"hvtu":-102.2,"hb":-4.3,"idx":0.4,"cls":1,"psfc":966.3,"terrain":false,"radius_km":200,"name":"sym shallow warm","track":"T05"},"geometry":{"type":"Point","coordinates":[12.75,-66.25]}},{"type":"Feature","properties":{"kind":"center","id":5,"lat":-65.5,"lon":45.0,"mslp":966.6,"hvtl":-58.4,"hvtu":-147.1,"hb":20.4,"idx":-2.0,"cls":4,"psfc":966.6,"terrain":false,"radius_km":200,"name":"asym cold","track":"T41"},"geometry":{"type":"Point","coordinates":[45.0,-65.5]}},{"type":"Feature","properties":{"kind":"center","id":6,"lat":-52.0,"lon":11.75,"mslp":967.6,"hvtl":-198.9,"hvtu":-309.3,"hb":95.2,"idx":-2.9,"cls":4,"psfc":967.6,"terrain":false,"radius_km":200,"name":"asym cold","track":"T20"},"geometry":{"type":"Point","coordinates":[11.75,-52.0]}},{"type":"Feature","properties":{"kind":"center","id":7,"lat":-66.75,"lon":8.75,"mslp":968.2,"hvtl":0.2,"hvtu":-51.3,"hb":9.6,"idx":-0.5,"cls":1,"psfc":968.2,"terrain":false,"radius_km":200,"name":"sym shallow warm"},"geometry":{"type":"Point","coordinates":[8.75,-66.75]}},{"type":"Feature","properties":{"kind":"center","id":8,"lat":-59.0,"lon":80.25,"mslp":968.4,"hvtl":-402.0,"hvtu":-478.4,"hb":80.0,"idx":-3.0,"cls":4,"psfc":968.4,"terrain":false,"radius_km":200,"name":"asym cold","track":"T23"},"geometry":{"type":"Point","coordinates":[80.25,-59.0]}},{"type":"Feature","properties":{"kind":"center","id":9,"lat":-67.0,"lon":33.25,"mslp":968.5,"hvtl":-36.3,"hvtu":-172.5,"hb":10.3,"idx":-1.6,"cls":4,"psfc":968.5,"terrain":false,"radius_km":200,"name":"asym cold","track":"T21"},"geometry":{"type":"Point","coordinates":[33.25,-67.0]}},{"type":"Feature","properties":{"kind":"center","id":10,"lat":-66.75,"lon":-113.75,"mslp":969.0,"hvtl":-84.1,"hvtu":10.6,"hb":8.5,"idx":-1.3,"cls":6,"psfc":969.0,"terrain":false,"radius_km":200,"name":"shallow cold","track":"T25"},"geometry":{"type":"Point","coordinates":[-113.75,-66.75]}},{"type":"Feature","properties":{"kind":"center","id":11,"lat":-68.0,"lon":80.75,"mslp":969.4,"hvtl":-223.5,"hvtu":-155.9,"hb":36.4,"idx":-2.9,"cls":4,"psfc":911.2,"terrain":false,"radius_km":200,"name":"asym cold"},"geometry":{"type":"Point","coordinates":[80.75,-68.0]}},{"type":"Feature","properties":{"kind":"center","id":12,"lat":-69.5,"lon":33.25,"mslp":970.2,"hvtl":-75.0,"hvtu":-105.5,"hb":-4.3,"idx":-2.1,"cls":5,"psfc":930.6,"terrain":false,"radius_km":200,"name":"sym cold"},"geometry":{"type":"Point","coordinates":[33.25,-69.5]}},{"type":"Feature","properties":{"kind":"center","id":13,"lat":56.5,"lon":148.0,"mslp":970.6,"hvtl":28.9,"hvtu":-25.0,"hb":9.4,"idx":0.3,"cls":1,"psfc":970.6,"terrain":false,"radius_km":200,"name":"sym shallow warm","track":"T43"},"geometry":{"type":"Point","coordinates":[148.0,56.5]}},{"type":"Feature","properties":{"kind":"center","id":14,"lat":-66.75,"lon":151.5,"mslp":970.9,"hvtl":-74.1,"hvtu":-298.8,"hb":38.3,"idx":-2.3,"cls":4,"psfc":970.9,"terrain":false,"radius_km":200,"name":"asym cold","track":"T46"},"geometry":{"type":"Point","coordinates":[151.5,-66.75]}},{"type":"Feature","properties":{"kind":"center","id":15,"lat":-69.5,"lon":35.25,"mslp":970.9,"hvtl":-69.5,"hvtu":-101.7,"hb":-8.2,"idx":-2.0,"cls":5,"psfc":960.3,"terrain":false,"radius_km":200,"name":"sym cold"},"geometry":{"type":"Point","coordinates":[35.25,-69.5]}},{"type":"Feature","properties":{"kind":"center","id":16,"lat":45.75,"lon":162.0,"mslp":972.6,"hvtl":-69.5,"hvtu":-328.1,"hb":112.7,"idx":-2.2,"cls":4,"psfc":972.6,"terrain":false,"radius_km":200,"name":"asym cold","track":"T02"},"geometry":{"type":"Point","coordinates":[162.0,45.75]}},{"type":"Feature","properties":{"kind":"center","id":17,"lat":-50.75,"lon":-121.75,"mslp":972.9,"hvtl":45.7,"hvtu":-112.8,"hb":0.4,"idx":0.0,"cls":1,"psfc":972.9,"terrain":false,"radius_km":200,"name":"sym shallow warm","track":"T39"},"geometry":{"type":"Point","coordinates":[-121.75,-50.75]}},{"type":"Feature","properties":{"kind":"center","id":18,"lat":76.25,"lon":39.25,"mslp":974.5,"hvtl":159.0,"hvtu":-83.5,"hb":16.3,"idx":1.2,"cls":3,"psfc":974.5,"terrain":false,"radius_km":200,"name":"asym shallow warm","track":"T50"},"geometry":{"type":"Point","coordinates":[39.25,76.25]}},{"type":"Feature","properties":{"kind":"center","id":19,"lat":-79.5,"lon":-168.75,"mslp":974.8,"hvtl":77.8,"hvtu":-190.6,"hb":19.4,"idx":0.3,"cls":3,"psfc":967.3,"terrain":false,"radius_km":200,"name":"asym shallow warm","track":"T32"},"geometry":{"type":"Point","coordinates":[-168.75,-79.5]}},{"type":"Feature","properties":{"kind":"center","id":20,"lat":-48.25,"lon":112.25,"mslp":978.0,"hvtl":-63.0,"hvtu":-230.8,"hb":21.7,"idx":-2.1,"cls":4,"psfc":978.0,"terrain":false,"radius_km":200,"name":"asym cold","track":"T18"},"geometry":{"type":"Point","coordinates":[112.25,-48.25]}},{"type":"Feature","properties":{"kind":"center","id":21,"lat":-79.5,"lon":-52.25,"mslp":978.3,"hvtl":-167.5,"hvtu":-68.4,"hb":63.1,"idx":-2.5,"cls":4,"psfc":969.7,"terrain":false,"radius_km":200,"name":"asym cold","track":"T51"},"geometry":{"type":"Point","coordinates":[-52.25,-79.5]}},{"type":"Feature","properties":{"kind":"center","id":22,"lat":-54.25,"lon":-112.75,"mslp":978.3,"hvtl":-203.5,"hvtu":-211.2,"hb":54.2,"idx":-2.9,"cls":4,"psfc":978.3,"terrain":false,"radius_km":200,"name":"asym cold"},"geometry":{"type":"Point","coordinates":[-112.75,-54.25]}},{"type":"Feature","properties":{"kind":"center","id":23,"lat":-73.5,"lon":167.5,"mslp":980.8,"hvtl":82.7,"hvtu":-106.7,"hb":-10.7,"idx":0.6,"cls":1,"psfc":966.7,"terrain":false,"radius_km":200,"name":"sym shallow warm","track":"T64"},"geometry":{"type":"Point","coordinates":[167.5,-73.5]}},{"type":"Feature","properties":{"kind":"center","id":24,"lat":56.25,"lon":-53.25,"mslp":981.1,"hvtl":128.4,"hvtu":-76.6,"hb":-3.1,"idx":1.1,"cls":1,"psfc":981.1,"terrain":false,"radius_km":200,"name":"sym shallow warm","track":"T56"},"geometry":{"type":"Point","coordinates":[-53.25,56.25]}},{"type":"Feature","properties":{"kind":"center","id":25,"lat":63.5,"lon":156.5,"mslp":981.2,"hvtl":97.8,"hvtu":-127.3,"hb":30.1,"idx":0.6,"cls":3,"psfc":910.9,"terrain":false,"radius_km":200,"name":"asym shallow warm"},"geometry":{"type":"Point","coordinates":[156.5,63.5]}},{"type":"Feature","properties":{"kind":"center","id":26,"lat":-78.5,"lon":-30.0,"mslp":981.9,"hvtl":-353.5,"hvtu":-115.0,"hb":38.7,"idx":-2.8,"cls":4,"psfc":901.6,"terrain":false,"radius_km":200,"name":"asym cold"},"geometry":{"type":"Point","coordinates":[-30.0,-78.5]}},{"type":"Feature","properties":{"kind":"center","id":27,"lat":21.75,"lon":-120.75,"mslp":982.3,"hvtl":77.5,"hvtu":159.0,"hb":4.7,"idx":2.2,"cls":0,"psfc":982.3,"terrain":false,"radius_km":200,"name":"sym deep warm","track":"T42"},"geometry":{"type":"Point","coordinates":[-120.75,21.75]}},{"type":"Feature","properties":{"kind":"center","id":28,"lat":54.5,"lon":163.25,"mslp":984.5,"hvtl":-395.4,"hvtu":-582.5,"hb":73.6,"idx":-3.0,"cls":4,"psfc":984.5,"terrain":false,"radius_km":200,"name":"asym cold"},"geometry":{"type":"Point","coordinates":[163.25,54.5]}},{"type":"Feature","properties":{"kind":"center","id":29,"lat":-66.5,"lon":-75.5,"mslp":984.9,"hvtl":-139.0,"hvtu":-95.0,"hb":20.1,"idx":-2.5,"cls":4,"psfc":984.9,"terrain":false,"radius_km":200,"name":"asym cold","track":"T68"},"geometry":{"type":"Point","coordinates":[-75.5,-66.5]}},{"type":"Feature","properties":{"kind":"center","id":30,"lat":-65.75,"lon":-62.75,"mslp":986.1,"hvtl":-40.6,"hvtu":-94.5,"hb":9.6,"idx":-1.5,"cls":5,"psfc":910.1,"terrain":false,"radius_km":200,"name":"sym cold"},"geometry":{"type":"Point","coordinates":[-62.75,-65.75]}},{"type":"Feature","properties":{"kind":"center","id":31,"lat":-79.5,"lon":-77.5,"mslp":988.0,"hvtl":-149.3,"hvtu":-62.8,"hb":45.7,"idx":-2.4,"cls":4,"psfc":938.1,"terrain":false,"radius_km":200,"name":"asym cold","track":"T55"},"geometry":{"type":"Point","coordinates":[-77.5,-79.5]}},{"type":"Feature","properties":{"kind":"center","id":32,"lat":59.75,"lon":-39.5,"mslp":994.9,"hvtl":-192.8,"hvtu":-417.2,"hb":76.8,"idx":-2.9,"cls":4,"psfc":994.9,"terrain":false,"radius_km":200,"name":"asym cold","track":"T62"},"geometry":{"type":"Point","coordinates":[-39.5,59.75]}},{"type":"Feature","properties":{"kind":"center","id":33,"lat":-18.75,"lon":-63.5,"mslp":995.2,"hvtl":62.1,"hvtu":-75.5,"hb":-2.8,"idx":0.5,"cls":1,"psfc":920.8,"terrain":false,"radius_km":200,"name":"sym shallow warm","track":"T91"},"geometry":{"type":"Point","coordinates":[-63.5,-18.75]}},{"type":"Feature","properties":{"kind":"center","id":34,"lat":54.25,"lon":-80.25,"mslp":996.0,"hvtl":-92.5,"hvtu":-123.2,"hb":34.7,"idx":-2.3,"cls":4,"psfc":996.0,"terrain":false,"radius_km":200,"name":"asym cold","track":"T87"},"geometry":{"type":"Point","coordinates":[-80.25,54.25]}},{"type":"Feature","properties":{"kind":"center","id":35,"lat":28.25,"lon":159.5,"mslp":998.1,"hvtl":80.0,"hvtu":-15.1,"hb":9.5,"idx":1.2,"cls":1,"psfc":998.1,"terrain":false,"radius_km":200,"name":"sym shallow warm","track":"T44"},"geometry":{"type":"Point","coordinates":[159.5,28.25]}},{"type":"Feature","properties":{"kind":"center","id":36,"lat":72.75,"lon":136.25,"mslp":998.1,"hvtl":-26.1,"hvtu":-158.7,"hb":41.2,"idx":-1.4,"cls":4,"psfc":998.1,"terrain":false,"radius_km":200,"name":"asym cold"},"geometry":{"type":"Point","coordinates":[136.25,72.75]}},{"type":"Feature","properties":{"kind":"center","id":37,"lat":58.75,"lon":-91.0,"mslp":998.9,"hvtl":-31.5,"hvtu":-13.9,"hb":18.5,"idx":-0.7,"cls":4,"psfc":998.9,"terrain":false,"radius_km":200,"name":"asym cold","track":"T90"},"geometry":{"type":"Point","coordinates":[-91.0,58.75]}},{"type":"Feature","properties":{"kind":"center","id":38,"lat":65.25,"lon":-54.0,"mslp":999.6,"hvtl":125.5,"hvtu":-168.7,"hb":29.6,"idx":0.8,"cls":3,"psfc":999.6,"terrain":false,"radius_km":200,"name":"asym shallow warm"},"geometry":{"type":"Point","coordinates":[-54.0,65.25]}},{"type":"Feature","properties":{"kind":"center","id":39,"lat":61.25,"lon":-92.5,"mslp":999.7,"hvtl":169.0,"hvtu":-69.2,"hb":-12.4,"idx":1.3,"cls":1,"psfc":999.7,"terrain":false,"radius_km":200,"name":"sym shallow warm"},"geometry":{"type":"Point","coordinates":[-92.5,61.25]}},{"type":"Feature","properties":{"kind":"center","id":40,"lat":14.5,"lon":155.0,"mslp":1001.5,"hvtl":0.9,"hvtu":35.0,"hb":2.8,"idx":0.4,"cls":0,"psfc":1001.5,"terrain":false,"radius_km":200,"name":"sym deep warm"},"geometry":{"type":"Point","coordinates":[155.0,14.5]}},{"type":"Feature","properties":{"kind":"center","id":41,"lat":-27.75,"lon":-66.5,"mslp":1002.3,"hvtl":181.2,"hvtu":-319.5,"hb":85.7,"idx":0.9,"cls":3,"psfc":910.6,"terrain":true,"radius_km":200,"name":"asym shallow warm"},"geometry":{"type":"Point","coordinates":[-66.5,-27.75]}},{"type":"Feature","properties":{"kind":"center","id":42,"lat":-34.5,"lon":-56.25,"mslp":1002.7,"hvtl":23.5,"hvtu":-110.6,"hb":52.5,"idx":-0.3,"cls":3,"psfc":999.3,"terrain":false,"radius_km":200,"name":"asym shallow warm","track":"T110"},"geometry":{"type":"Point","coordinates":[-56.25,-34.5]}},{"type":"Feature","properties":{"kind":"center","id":43,"lat":60.5,"lon":88.0,"mslp":1003.5,"hvtl":34.8,"hvtu":-87.9,"hb":-25.6,"idx":-0.0,"cls":1,"psfc":989.5,"terrain":false,"radius_km":200,"name":"sym shallow warm","track":"T111"},"geometry":{"type":"Point","coordinates":[88.0,60.5]}},{"type":"Feature","properties":{"kind":"center","id":44,"lat":69.25,"lon":-51.25,"mslp":1003.5,"hvtl":40.1,"hvtu":-264.9,"hb":40.0,"idx":-0.2,"cls":3,"psfc":1000.8,"terrain":false,"radius_km":200,"name":"asym shallow warm"},"geometry":{"type":"Point","coordinates":[-51.25,69.25]}},{"type":"Feature","properties":{"kind":"center","id":45,"lat":30.25,"lon":-78.25,"mslp":1007.1,"hvtl":77.6,"hvtu":-130.9,"hb":19.6,"idx":0.4,"cls":3,"psfc":1007.1,"terrain":false,"radius_km":200,"name":"asym shallow warm","track":"T116"},"geometry":{"type":"Point","coordinates":[-78.25,30.25]}},{"type":"Feature","properties":{"kind":"center","id":46,"lat":17.0,"lon":110.5,"mslp":1008.5,"hvtl":57.3,"hvtu":31.7,"hb":-16.8,"idx":1.3,"cls":0,"psfc":1008.5,"terrain":false,"radius_km":200,"name":"sym deep warm"},"geometry":{"type":"Point","coordinates":[110.5,17.0]}},{"type":"Feature","properties":{"kind":"center","id":47,"lat":-30.0,"lon":-68.25,"mslp":1008.7,"hvtl":87.9,"hvtu":-300.6,"hb":56.6,"idx":0.4,"cls":3,"psfc":903.7,"terrain":true,"radius_km":200,"name":"asym shallow warm"},"geometry":{"type":"Point","coordinates":[-68.25,-30.0]}},{"type":"Feature","properties":{"kind":"center","id":48,"lat":14.0,"lon":40.5,"mslp":1008.7,"hvtl":64.8,"hvtu":14.5,"hb":11.9,"idx":1.3,"cls":2,"psfc":1020.3,"terrain":false,"radius_km":200,"name":"asym deep warm"},"geometry":{"type":"Point","coordinates":[40.5,14.0]}},{"type":"Feature","properties":{"kind":"center","id":49,"lat":-39.0,"lon":168.0,"mslp":1008.9,"hvtl":-26.1,"hvtu":23.7,"hb":43.4,"idx":-0.3,"cls":6,"psfc":1008.9,"terrain":false,"radius_km":200,"name":"shallow cold","track":"T120"},"geometry":{"type":"Point","coordinates":[168.0,-39.0]}},{"type":"Feature","properties":{"kind":"center","id":50,"lat":79.0,"lon":-111.75,"mslp":1009.4,"hvtl":-44.6,"hvtu":-59.5,"hb":7.6,"idx":-1.4,"cls":5,"psfc":1009.4,"terrain":false,"radius_km":200,"name":"sym cold","track":"T126"},"geometry":{"type":"Point","coordinates":[-111.75,79.0]}},{"type":"Feature","properties":{"kind":"center","id":51,"lat":-38.25,"lon":-76.25,"mslp":1010.1,"hvtl":84.8,"hvtu":-53.8,"hb":16.6,"idx":0.9,"cls":3,"psfc":1010.1,"terrain":false,"radius_km":200,"name":"asym shallow warm","track":"T102"},"geometry":{"type":"Point","coordinates":[-76.25,-38.25]}},{"type":"Feature","properties":{"kind":"center","id":52,"lat":31.75,"lon":71.75,"mslp":1010.4,"hvtl":-78.6,"hvtu":-51.8,"hb":10.1,"idx":-1.8,"cls":4,"psfc":989.8,"terrain":false,"radius_km":200,"name":"asym cold","track":"T103"},"geometry":{"type":"Point","coordinates":[71.75,31.75]}},{"type":"Feature","properties":{"kind":"center","id":53,"lat":45.75,"lon":117.5,"mslp":1011.8,"hvtl":-237.2,"hvtu":-294.2,"hb":92.6,"idx":-3.0,"cls":4,"psfc":900.9,"terrain":true,"radius_km":200,"name":"asym cold"},"geometry":{"type":"Point","coordinates":[117.5,45.75]}},{"type":"Feature","properties":{"kind":"center","id":54,"lat":46.0,"lon":-2.25,"mslp":1012.6,"hvtl":170.7,"hvtu":-126.6,"hb":-27.6,"idx":1.0,"cls":1,"psfc":1012.6,"terrain":false,"radius_km":200,"name":"sym shallow warm","track":"T129"},"geometry":{"type":"Point","coordinates":[-2.25,46.0]}},{"type":"Feature","properties":{"kind":"center","id":55,"lat":-31.75,"lon":-71.0,"mslp":1012.6,"hvtl":-76.2,"hvtu":-234.2,"hb":41.4,"idx":-2.3,"cls":4,"psfc":902.8,"terrain":true,"radius_km":200,"name":"asym cold"},"geometry":{"type":"Point","coordinates":[-71.0,-31.75]}},{"type":"Feature","properties":{"kind":"center","id":56,"lat":-30.0,"lon":-71.0,"mslp":1013.3,"hvtl":47.9,"hvtu":-279.7,"hb":39.5,"idx":-0.1,"cls":3,"psfc":932.4,"terrain":false,"radius_km":200,"name":"asym shallow warm","track":"T97"},"geometry":{"type":"Point","coordinates":[-71.0,-30.0]}},{"type":"Feature","properties":{"kind":"center","id":57,"lat":46.25,"lon":0.0,"mslp":1013.7,"hvtl":145.0,"hvtu":-143.8,"hb":23.4,"idx":0.9,"cls":3,"psfc":997.7,"terrain":false,"radius_km":200,"name":"asym shallow warm"},"geometry":{"type":"Point","coordinates":[0.0,46.25]}},{"type":"Feature","properties":{"kind":"center","id":58,"lat":24.25,"lon":96.5,"mslp":1013.7,"hvtl":-4.9,"hvtu":-107.5,"hb":4.3,"idx":-0.9,"cls":5,"psfc":997.9,"terrain":false,"radius_km":200,"name":"sym cold","track":"T122"},"geometry":{"type":"Point","coordinates":[96.5,24.25]}},{"type":"Feature","properties":{"kind":"center","id":59,"lat":31.75,"lon":48.75,"mslp":1013.8,"hvtl":-29.7,"hvtu":-83.1,"hb":24.8,"idx":-1.3,"cls":4,"psfc":1010.5,"terrain":false,"radius_km":200,"name":"asym cold"},"geometry":{"type":"Point","coordinates":[48.75,31.75]}},{"type":"Feature","properties":{"kind":"center","id":60,"lat":26.5,"lon":92.25,"mslp":1014.1,"hvtl":-60.5,"hvtu":-77.1,"hb":0.3,"idx":-1.7,"cls":5,"psfc":1006.8,"terrain":false,"radius_km":200,"name":"sym cold","track":"T124"},"geometry":{"type":"Point","coordinates":[92.25,26.5]}},{"type":"Feature","properties":{"kind":"center","id":61,"lat":81.0,"lon":-108.25,"mslp":1014.2,"hvtl":-64.3,"hvtu":-5.1,"hb":-1.4,"idx":-1.2,"cls":5,"psfc":1014.2,"terrain":false,"radius_km":200,"name":"sym cold","track":"T112"},"geometry":{"type":"Point","coordinates":[-108.25,81.0]}},{"type":"Feature","properties":{"kind":"center","id":62,"lat":31.5,"lon":61.75,"mslp":1014.4,"hvtl":118.6,"hvtu":-64.2,"hb":20.7,"idx":1.1,"cls":3,"psfc":958.8,"terrain":false,"radius_km":200,"name":"asym shallow warm","track":"T133"},"geometry":{"type":"Point","coordinates":[61.75,31.5]}},{"type":"Feature","properties":{"kind":"center","id":63,"lat":29.5,"lon":65.0,"mslp":1015.0,"hvtl":-37.1,"hvtu":-48.0,"hb":4.1,"idx":-1.2,"cls":5,"psfc":919.7,"terrain":true,"radius_km":200,"name":"sym cold"},"geometry":{"type":"Point","coordinates":[65.0,29.5]}},{"type":"Feature","properties":{"kind":"center","id":64,"lat":73.25,"lon":-19.0,"mslp":1015.4,"hvtl":-159.1,"hvtu":-174.3,"hb":28.2,"idx":-2.8,"cls":4,"psfc":1015.4,"terrain":false,"radius_km":200,"name":"asym cold","track":"T57"},"geometry":{"type":"Point","coordinates":[-19.0,73.25]}},{"type":"Feature","properties":{"kind":"center","id":65,"lat":35.0,"lon":55.75,"mslp":1016.6,"hvtl":62.2,"hvtu":-80.2,"hb":105.7,"idx":0.4,"cls":3,"psfc":936.8,"terrain":false,"radius_km":200,"name":"asym shallow warm","track":"T117"},"geometry":{"type":"Point","coordinates":[55.75,35.0]}},{"type":"Feature","properties":{"kind":"center","id":66,"lat":37.25,"lon":67.0,"mslp":1019.2,"hvtl":-51.4,"hvtu":-126.0,"hb":77.0,"idx":-1.8,"cls":4,"psfc":985.5,"terrain":false,"radius_km":200,"name":"asym cold"},"geometry":{"type":"Point","coordinates":[67.0,37.25]}}]}