{"type":"FeatureCollection","features":[{"type":"Feature","properties":{"kind":"blob","cls":3,"id":1},"geometry":{"type":"Polygon","coordinates":[[[8.0,-64.62],[10.5,-63.88],[11.38,-62.75],[11.38,-61.5],[9.0,-59.88],[6.25,-59.38],[2.5,-59.62],[0.88,-60.75],[0.88,-61.75],[1.5,-62.38],[4.5,-64.12],[8.0,-64.62]],[[6.75,-61.38],[4.62,-60.0],[6.5,-59.88],[9.12,-61.25],[9.0,-61.62],[6.75,-61.38]]]}},{"type":"Feature","properties":{"kind":"blob","cls":0,"id":2},"geometry":{"type":"Polygon","coordinates":[[[145.75,24.38],[146.62,25.25],[146.62,26.75],[145.75,27.62],[144.25,27.88],[142.62,26.75],[142.62,25.25],[143.5,24.38],[145.75,24.38]],[[143.38,25.0],[143.38,25.5],[144.0,25.62],[144.12,25.0],[143.38,25.0]]]}},{"type":"Feature","properties":{"kind":"blob","cls":3,"id":3},"geometry":{"type":"Polygon","coordinates":[[[139.75,-62.62],[141.75,-61.62],[142.38,-61.0],[142.62,-60.0],[140.5,-57.88],[139.75,-57.62],[136.5,-57.38],[134.75,-57.88],[133.38,-59.25],[133.12,-61.0],[135.5,-62.62],[139.75,-62.62]]]}},{"type":"Feature","properties":{"kind":"blob","cls":3,"id":4},"geometry":{"type":"Polygon","coordinates":[[[-145.5,-76.38],[-145.25,-75.88],[-143.5,-75.62],[-140.75,-75.88],[-139.75,-75.38],[-136.25,-74.88],[-129.5,-74.88],[-128.88,-74.5],[-128.62,-73.25],[-129.75,-72.12],[-132.0,-71.12],[-135.75,-70.38],[-138.75,-70.38],[-142.75,-71.12],[-143.25,-71.88],[-144.5,-72.12],[-145.0,-72.62],[-150.5,-73.12],[-152.38,-74.25],[-152.38,-74.75],[-151.25,-75.62],[-145.5,-76.38]]]}},{"type":"Feature","properties":{"kind":"blob","cls":3,"id":5},"geometry":{"type":"Polygon","coordinates":[[[90.25,-55.62],[92.25,-54.88],[93.12,-53.5],[92.62,-52.5],[90.5,-51.62],[89.0,-51.62],[87.0,-52.38],[86.38,-53.5],[86.62,-54.5],[88.0,-55.38],[90.25,-55.62]]]}},{"type":"Feature","properties":{"kind":"blob","cls":2,"id":6},"geometry":{"type":"Polygon","coordinates":[[[-133.0,-60.62],[-131.25,-59.88],[-129.25,-59.62],[-127.62,-58.5],[-127.38,-57.25],[-128.0,-56.38],[-130.0,-55.62],[-131.5,-55.62],[-133.25,-56.38],[-136.75,-56.88],[-138.38,-58.0],[-138.38,-59.25],[-136.75,-60.38],[-133.0,-60.62]]]}},{"type":"Feature","properties":{"kind":"blob","cls":3,"id":7},"geometry":{"type":"Polygon","coordinates":[[[-123.75,-63.12],[-122.75,-62.62],[-121.88,-61.5],[-122.75,-60.38],[-125.0,-59.62],[-127.0,-59.62],[-129.25,-60.38],[-130.12,-61.5],[-129.88,-62.0],[-128.25,-63.12],[-123.75,-63.12]]]}},{"type":"Feature","properties":{"kind":"blob","cls":4,"id":8},"geometry":{"type":"Polygon","coordinates":[[[-163.5,-70.38],[-161.0,-69.88],[-158.75,-68.88],[-158.12,-68.0],[-159.0,-66.88],[-160.75,-66.12],[-166.0,-65.88],[-169.0,-66.62],[-170.0,-67.12],[-170.62,-68.0],[-170.0,-68.88],[-168.0,-69.88],[-163.5,-70.38]]]}},{"type":"Feature","properties":{"kind":"blob","cls":0,"id":9},"geometry":{"type":"MultiPolygon","coordinates":[[[[-115.5,18.62],[-115.62,18.5],[-115.25,18.38],[-115.5,18.62]]],[[[-116.38,18.75],[-116.5,18.88],[-116.62,18.75],[-116.38,18.75]]],[[[-115.12,18.75],[-114.5,18.62],[-113.62,19.75],[-113.88,21.25],[-115.25,22.12],[-116.5,21.88],[-117.38,20.75],[-117.12,19.25],[-116.75,18.88],[-116.0,20.12],[-115.5,20.12],[-114.88,19.75],[-115.12,18.75]]]]}},{"type":"Feature","properties":{"kind":"blob","cls":4,"id":10},"geometry":{"type":"Polygon","coordinates":[[[-103.25,-69.12],[-100.0,-68.12],[-98.62,-66.5],[-98.88,-65.25],[-100.75,-63.88],[-103.0,-63.38],[-106.25,-63.62],[-108.0,-64.38],[-109.38,-65.75],[-109.62,-67.25],[-108.0,-68.62],[-103.25,-69.12]]]}},{"type":"Feature","properties":{"kind":"blob","cls":4,"id":11},"geometry":{"type":"Polygon","coordinates":[[[179.75,-82.88],[180.0,-80.12],[168.0,-79.12],[167.0,-78.38],[165.0,-77.88],[163.88,-78.0],[164.75,-78.62],[161.88,-78.75],[162.5,-79.62],[164.5,-80.62],[168.25,-81.62],[174.5,-82.62],[179.75,-82.88]]]}},{"type":"Feature","properties":{"kind":"blob","cls":4,"id":11},"geometry":{"type":"Polygon","coordinates":[[[-179.88,-80.25],[-180.0,-82.88],[-177.25,-83.12],[-174.88,-82.25],[-175.0,-81.62],[-176.0,-81.12],[-179.88,-80.25]]]}},{"type":"Feature","properties":{"kind":"blob","cls":5,"id":12},"geometry":{"type":"Polygon","coordinates":[[[95.25,-66.62],[101.75,-66.12],[104.75,-66.38],[104.88,-65.25],[104.0,-64.12],[102.75,-63.62],[99.25,-63.38],[96.5,-64.12],[95.12,-65.5],[95.25,-66.62]]]}},{"type":"Feature","properties":{"kind":"blob","cls":6,"id":13},"geometry":{"type":"Polygon","coordinates":[[[163.38,-77.75],[163.5,-77.88],[163.62,-77.75],[163.38,-77.75]]]}},{"type":"Feature","properties":{"kind":"blob","cls":0,"id":14},"geometry":{"type":"Polygon","coordinates":[[[177.5,24.12],[178.38,25.0],[178.38,26.5],[176.75,27.62],[175.5,27.38],[174.62,26.5],[174.62,25.0],[175.5,24.12],[177.5,24.12]]]}},{"type":"Feature","properties":{"kind":"blob","cls":4,"id":15},"geometry":{"type":"Polygon","coordinates":[[[7.0,68.12],[15.75,68.12],[18.5,69.38],[19.12,70.5],[17.75,71.88],[15.25,72.88],[7.5,72.88],[5.0,71.88],[2.88,70.0],[4.0,68.62],[7.0,68.12]]]}},{"type":"Feature","properties":{"kind":"blob","cls":4,"id":16},"geometry":{"type":"Polygon","coordinates":[[[-109.75,-60.12],[-107.75,-59.38],[-107.12,-58.75],[-107.12,-57.5],[-108.0,-56.62],[-110.0,-55.88],[-111.75,-55.88],[-113.75,-56.62],[-114.62,-57.5],[-114.62,-58.5],[-112.5,-59.88],[-109.75,-60.12]]]}},{"type":"Feature","properties":{"kind":"blob","cls":4,"id":17},"geometry":{"type":"Polygon","coordinates":[[[-19.0,-74.88],[-14.38,-73.75],[-15.5,-73.38],[-11.75,-73.38],[-9.62,-72.0],[-12.75,-71.38],[-18.25,-71.62],[-20.75,-72.38],[-21.88,-73.25],[-21.5,-74.12],[-19.0,-74.88]]]}},{"type":"Feature","properties":{"kind":"blob","cls":3,"id":18},"geometry":{"type":"Polygon","coordinates":[[[86.5,-62.12],[88.12,-61.0],[88.12,-60.0],[86.5,-58.62],[84.75,-58.12],[81.5,-58.62],[80.38,-59.75],[80.62,-61.0],[82.25,-62.12],[86.5,-62.12]]]}},{"type":"Feature","properties":{"kind":"blob","cls":4,"id":19},"geometry":{"type":"Polygon","coordinates":[[[-0.5,63.12],[1.0,63.88],[1.88,65.0],[0.75,66.38],[-2.0,67.12],[-6.25,66.88],[-8.62,65.5],[-8.88,65.0],[-8.0,63.88],[-6.5,63.12],[-0.5,63.12]]]}},{"type":"Feature","properties":{"kind":"blob","cls":3,"id":20},"geometry":{"type":"Polygon","coordinates":[[[44.0,79.12],[50.5,79.62],[55.25,80.62],[56.12,81.25],[56.12,81.75],[53.0,82.88],[47.0,83.62],[32.25,83.88],[25.75,83.38],[22.0,82.38],[21.38,81.75],[26.75,81.62],[27.38,81.25],[26.5,80.62],[25.0,80.38],[25.25,79.88],[44.0,79.12]]]}},{"type":"Feature","properties":{"kind":"blob","cls":4,"id":21},"geometry":{"type":"Polygon","coordinates":[[[-96.25,-61.38],[-94.5,-60.88],[-93.12,-59.75],[-93.12,-58.5],[-94.0,-57.62],[-95.75,-57.12],[-98.5,-57.12],[-100.25,-57.62],[-101.62,-58.75],[-101.88,-59.75],[-100.75,-60.88],[-96.25,-61.38]]]}},{"type":"Feature","properties":{"kind":"blob","cls":5,"id":22},"geometry":{"type":"Polygon","coordinates":[[[-160.25,53.38],[-158.5,53.88],[-157.62,54.75],[-157.62,55.75],[-158.5,56.62],[-160.25,57.12],[-163.5,56.62],[-164.38,55.75],[-164.38,54.75],[-163.5,53.88],[-160.25,53.38]],[[-159.25,56.12],[-159.38,56.25],[-159.25,56.38],[-159.25,56.12]]]}},{"type":"Feature","properties":{"kind":"blob","cls":4,"id":23},"geometry":{"type":"Polygon","coordinates":[[[-105.75,-52.62],[-104.25,-52.12],[-103.38,-51.0],[-103.62,-49.75],[-104.75,-48.62],[-106.25,-48.12],[-109.25,-48.62],[-110.12,-49.75],[-109.88,-50.75],[-108.75,-51.88],[-105.75,-52.62]]]}},{"type":"Feature","properties":{"kind":"blob","cls":4,"id":24},"geometry":{"type":"Polygon","coordinates":[[[-142.25,62.88],[-141.62,64.0],[-144.0,63.88],[-145.38,65.0],[-144.88,65.25],[-145.0,65.62],[-148.5,65.12],[-149.88,64.0],[-147.25,64.12],[-146.0,63.62],[-145.25,63.88],[-142.25,62.88]]]}},{"type":"Feature","properties":{"kind":"blob","cls":4,"id":25},"geometry":{"type":"Polygon","coordinates":[[[-146.5,61.88],[-145.0,61.88],[-144.62,62.75],[-146.75,62.62],[-146.5,61.88]]]}},{"type":"Feature","properties":{"kind":"blob","cls":4,"id":26},"geometry":{"type":"Polygon","coordinates":[[[-40.5,-44.62],[-38.25,-43.38],[-37.62,-42.5],[-37.88,-41.0],[-39.75,-39.88],[-41.5,-39.88],[-43.0,-40.62],[-43.62,-41.5],[-43.62,-43.0],[-42.75,-44.12],[-40.5,-44.62]]]}},{"type":"Feature","properties":{"kind":"blob","cls":3,"id":27},"geometry":{"type":"Polygon","coordinates":[[[-122.0,64.88],[-117.75,64.88],[-116.0,65.62],[-115.38,67.0],[-116.75,68.12],[-119.75,68.88],[-124.75,68.62],[-126.0,68.12],[-126.88,67.25],[-126.88,66.75],[-125.25,65.38],[-122.0,64.88]]]}},{"type":"Feature","properties":{"kind":"blob","cls":4,"id":28},"geometry":{"type":"Polygon","coordinates":[[[-112.25,60.12],[-110.38,61.5],[-110.38,62.0],[-112.5,63.62],[-116.5,63.62],[-118.38,62.25],[-118.38,61.5],[-116.5,60.12],[-112.25,60.12]]]}},{"type":"Feature","properties":{"kind":"blob","cls":3,"id":29},"geometry":{"type":"Polygon","coordinates":[[[-144.5,65.12],[-143.62,65.25],[-143.75,65.38],[-144.5,65.12]]]}},{"type":"Feature","properties":{"kind":"blob","cls":1,"id":30},"geometry":{"type":"Polygon","coordinates":[[[-87.0,-40.38],[-85.38,-39.25],[-85.12,-38.0],[-86.5,-36.38],[-88.5,-36.12],[-90.12,-37.25],[-90.38,-38.75],[-89.25,-40.12],[-87.0,-40.38]]]}},{"type":"Feature","properties":{"kind":"blob","cls":4,"id":31},"geometry":{"type":"Polygon","coordinates":[[[65.25,52.38],[68.0,53.38],[68.62,54.25],[68.62,55.5],[68.0,56.12],[66.0,56.88],[63.5,56.88],[61.5,56.12],[60.62,55.0],[60.88,53.75],[62.5,52.62],[65.25,52.38]]]}},{"type":"Feature","properties":{"kind":"blob","cls":4,"id":32},"geometry":{"type":"Polygon","coordinates":[[[-52.0,-80.62],[-47.5,-80.12],[-46.25,-79.38],[-44.0,-79.12],[-43.12,-78.25],[-43.12,-77.75],[-44.75,-76.62],[-47.25,-76.12],[-54.5,-75.88],[-63.0,-77.38],[-64.88,-78.5],[-63.75,-79.38],[-61.0,-80.12],[-52.0,-80.62]]]}},{"type":"Feature","properties":{"kind":"blob","cls":4,"id":33},"geometry":{"type":"Polygon","coordinates":[[[67.25,59.38],[71.5,59.12],[74.5,59.88],[80.5,59.88],[82.75,60.62],[83.62,61.5],[83.62,62.0],[81.75,63.38],[78.5,63.88],[69.5,63.62],[67.25,63.12],[64.62,61.5],[64.62,60.5],[65.25,59.88],[67.25,59.38]]]}},{"type":"Feature","properties":{"kind":"blob","cls":1,"id":34},"geometry":{"type":"Polygon","coordinates":[[[-75.75,50.38],[-73.62,52.0],[-73.62,53.0],[-74.75,54.62],[-75.75,55.12],[-76.5,53.88],[-78.0,55.38],[-80.12,54.5],[-80.88,53.5],[-80.88,52.5],[-79.25,50.62],[-75.75,50.38]]]}},{"type":"Feature","properties":{"kind":"blob","cls":4,"id":35},"geometry":{"type":"Polygon","coordinates":[[[-34.5,62.12],[-32.0,62.88],[-30.88,64.25],[-30.88,65.25],[-33.25,66.62],[-35.0,66.62],[-36.75,66.12],[-39.5,64.62],[-41.38,64.25],[-39.0,62.88],[-34.5,62.12]]]}},{"type":"Feature","properties":{"kind":"blob","cls":0,"id":36},"geometry":{"type":"MultiPolygon","coordinates":[[[[-59.25,-54.12],[-56.62,-54.25],[-56.75,-53.88],[-58.25,-53.62],[-59.12,-53.0],[-59.38,-52.5],[-59.0,-51.88],[-54.62,-51.75],[-57.0,-50.12],[-59.0,-49.62],[-61.5,-50.12],[-62.38,-51.0],[-62.38,-52.0],[-60.75,-53.62],[-59.25,-54.12]]],[[[-54.5,-51.88],[-54.62,-52.0],[-54.5,-52.12],[-54.5,-51.88]]]]}},{"type":"Feature","properties":{"kind":"blob","cls":5,"id":37},"geometry":{"type":"Polygon","coordinates":[[[-60.25,68.12],[-54.5,68.12],[-53.0,68.62],[-51.62,70.0],[-52.0,70.62],[-53.0,70.38],[-52.12,70.75],[-53.25,71.38],[-56.75,72.12],[-61.0,71.88],[-64.12,70.5],[-64.38,70.0],[-63.25,68.62],[-60.25,68.12]],[[-53.25,69.62],[-53.88,70.0],[-52.62,69.75],[-53.25,69.62]]]}},{"type":"Feature","properties":{"kind":"blob","cls":4,"id":38},"geometry":{"type":"Polygon","coordinates":[[[-28.5,67.12],[-28.38,67.5],[-30.25,68.12],[-31.75,68.12],[-32.38,67.75],[-32.25,67.38],[-28.5,67.12]]]}},{"type":"Feature","properties":{"kind":"blob","cls":1,"id":39},"geometry":{"type":"MultiPolygon","coordinates":[[[[67.0,25.62],[68.25,25.38],[69.88,26.5],[70.38,28.5],[69.5,29.62],[68.0,30.12],[67.38,29.75],[67.12,27.5],[66.75,26.88],[65.88,26.5],[67.0,25.62]]],[[[72.75,28.88],[74.0,29.38],[74.88,30.5],[74.88,31.75],[74.25,32.38],[70.5,31.88],[70.12,31.5],[69.88,29.5],[72.75,28.88]]]]}},{"type":"Feature","properties":{"kind":"blob","cls":4,"id":40},"geometry":{"type":"Polygon","coordinates":[[[136.75,41.12],[138.0,41.62],[138.75,42.88],[140.12,43.75],[140.12,45.25],[139.0,46.12],[137.25,46.38],[134.25,44.88],[133.38,43.75],[133.38,42.5],[134.0,41.62],[136.75,41.12]]]}},{"type":"Feature","properties":{"kind":"blob","cls":0,"id":41},"geometry":{"type":"Polygon","coordinates":[[[-56.0,10.88],[-54.62,11.75],[-54.38,13.25],[-55.25,14.38],[-56.75,14.62],[-58.12,13.75],[-58.38,12.25],[-57.5,11.12],[-56.0,10.88]]]}},{"type":"Feature","properties":{"kind":"blob","cls":5,"id":42},"geometry":{"type":"Polygon","coordinates":[[[-66.25,-16.12],[-65.38,-15.0],[-65.62,-13.0],[-67.25,-11.88],[-69.0,-12.12],[-69.88,-13.5],[-68.5,-13.88],[-67.88,-15.25],[-66.25,-16.12]]]}},{"type":"Feature","properties":{"kind":"blob","cls":4,"id":43},"geometry":{"type":"Polygon","coordinates":[[[97.5,22.38],[98.12,22.75],[97.5,23.38],[97.0,22.62],[96.62,22.75],[97.38,23.75],[95.5,25.62],[94.25,24.62],[93.38,25.0],[93.38,24.25],[94.12,24.25],[93.88,23.75],[94.25,23.38],[97.5,22.38]]]}},{"type":"Feature","properties":{"kind":"blob","cls":4,"id":44},"geometry":{"type":"Polygon","coordinates":[[[-63.25,41.12],[-61.62,42.0],[-61.38,43.75],[-62.0,44.62],[-64.5,45.12],[-66.12,44.25],[-66.38,42.5],[-65.75,41.62],[-63.25,41.12]]]}},{"type":"Feature","properties":{"kind":"blob","cls":4,"id":45},"geometry":{"type":"Polygon","coordinates":[[[93.5,25.38],[94.38,26.25],[93.75,26.38],[93.5,25.38]]]}},{"type":"Feature","properties":{"kind":"blob","cls":1,"id":46},"geometry":{"type":"Polygon","coordinates":[[[45.5,-18.12],[46.25,-18.38],[47.25,-17.88],[47.5,-18.38],[47.75,-17.62],[48.25,-18.12],[48.88,-17.5],[50.12,-15.5],[50.12,-14.25],[49.25,-13.12],[49.25,-14.88],[44.88,-16.25],[44.88,-17.25],[45.5,-18.12]],[[48.0,-16.88],[47.88,-16.75],[48.0,-16.62],[48.0,-16.88]]]}},{"type":"Feature","properties":{"kind":"blob","cls":1,"id":47},"geometry":{"type":"Polygon","coordinates":[[[98.38,23.0],[98.5,22.88],[98.62,23.0],[98.38,23.0]]]}},{"type":"Feature","properties":{"kind":"center","id":1,"lat":-61.75,"lon":6.5,"mslp":938.0,"hvtl":191.1,"hvtu":-56.7,"hb":27.5,"idx":1.4,"cls":3,"psfc":938.0,"terrain":false,"radius_km":200,"name":"asym shallow warm","track":"T05"},"geometry":{"type":"Point","coordinates":[6.5,-61.75]}},{"type":"Feature","properties":{"kind":"center","id":2,"lat":26.0,"lon":144.5,"mslp":939.9,"hvtl":154.8,"hvtu":222.2,"hb":-4.4,"idx":2.8,"cls":0,"psfc":939.9,"terrain":false,"radius_km":200,"name":"sym deep warm","track":"T02"},"geometry":{"type":"Point","coordinates":[144.5,26.0]}},{"type":"Feature","properties":{"kind":"center","id":3,"lat":-59.75,"lon":138.0,"mslp":942.5,"hvtl":77.3,"hvtu":-217.9,"hb":42.3,"idx":0.3,"cls":3,"psfc":942.5,"terrain":false,"radius_km":200,"name":"asym shallow warm","track":"T04"},"geometry":{"type":"Point","coordinates":[138.0,-59.75]}},{"type":"Feature","properties":{"kind":"center","id":4,"lat":-73.5,"lon":-136.25,"mslp":949.9,"hvtl":71.0,"hvtu":-4.7,"hb":19.8,"idx":1.2,"cls":3,"psfc":949.9,"terrain":false,"radius_km":200,"name":"asym shallow warm","track":"T03"},"geometry":{"type":"Point","coordinates":[-136.25,-73.5]}},{"type":"Feature","properties":{"kind":"center","id":5,"lat":-53.5,"lon":89.75,"mslp":950.9,"hvtl":123.2,"hvtu":-227.3,"hb":20.7,"idx":0.7,"cls":3,"psfc":950.9,"terrain":false,"radius_km":200,"name":"asym shallow warm","track":"T14"},"geometry":{"type":"Point","coordinates":[89.75,-53.5]}},{"type":"Feature","properties":{"kind":"center","id":6,"lat":-58.5,"lon":-134.0,"mslp":958.0,"hvtl":165.3,"hvtu":42.3,"hb":16.9,"idx":2.3,"cls":2,"psfc":958.0,"terrain":false,"radius_km":200,"name":"asym deep warm","track":"T10"},"geometry":{"type":"Point","coordinates":[-134.0,-58.5]}},{"type":"Feature","properties":{"kind":"center","id":7,"lat":-61.5,"lon":-125.75,"mslp":961.7,"hvtl":67.9,"hvtu":-65.6,"hb":11.7,"idx":0.6,"cls":3,"psfc":961.7,"terrain":false,"radius_km":200,"name":"asym shallow warm","track":"T25"},"geometry":{"type":"Point","coordinates":[-125.75,-61.5]}},{"type":"Feature","properties":{"kind":"center","id":8,"lat":-68.0,"lon":-164.5,"mslp":962.8,"hvtl":-340.9,"hvtu":-244.8,"hb":90.6,"idx":-3.0,"cls":4,"psfc":962.8,"terrain":false,"radius_km":200,"name":"asym cold","track":"T31"},"geometry":{"type":"Point","coordinates":[-164.5,-68.0]}},{"type":"Feature","properties":{"kind":"center","id":9,"lat":20.25,"lon":-115.5,"mslp":973.3,"hvtl":66.4,"hvtu":227.4,"hb":5.7,"idx":2.1,"cls":0,"psfc":973.3,"terrain":false,"radius_km":200,"name":"sym deep warm","track":"T42"},"geometry":{"type":"Point","coordinates":[-115.5,20.25]}},{"type":"Feature","properties":{"kind":"center","id":10,"lat":-66.25,"lon":-104.25,"mslp":975.0,"hvtl":-260.2,"hvtu":-208.8,"hb":76.5,"idx":-2.9,"cls":4,"psfc":975.0,"terrain":false,"radius_km":200,"name":"asym cold","track":"T45"},"geometry":{"type":"Point","coordinates":[-104.25,-66.25]}},{"type":"Feature","properties":{"kind":"center","id":11,"lat":-81.25,"lon":167.25,"mslp":975.0,"hvtl":-254.0,"hvtu":-56.7,"hb":54.9,"idx":-2.5,"cls":4,"psfc":968.6,"terrain":false,"radius_km":200,"name":"asym cold"},"geometry":{"type":"Point","coordinates":[167.25,-81.25]}},{"type":"Feature","properties":{"kind":"center","id":12,"lat":-65.75,"lon":101.5,"mslp":975.4,"hvtl":-9.4,"hvtu":-153.5,"hb":2.1,"idx":-1.1,"cls":5,"psfc":974.9,"terrain":false,"radius_km":200,"name":"sym cold"},"geometry":{"type":"Point","coordinates":[101.5,-65.75]}},{"type":"Feature","properties":{"kind":"center","id":13,"lat":-77.75,"lon":163.5,"mslp":975.6,"hvtl":-255.4,"hvtu":18.1,"hb":51.5,"idx":-1.8,"cls":6,"psfc":903.2,"terrain":false,"radius_km":200,"name":"shallow cold","track":"T17"},"geometry":{"type":"Point","coordinates":[163.5,-77.75]}},{"type":"Feature","properties":{"kind":"center","id":14,"lat":25.75,"lon":176.5,"mslp":976.0,"hvtl":88.8,"hvtu":264.4,"hb":-2.1,"idx":2.4,"cls":0,"psfc":976.0,"terrain":false,"radius_km":200,"name":"sym deep warm","track":"T44"},"geometry":{"type":"Point","coordinates":[176.5,25.75]}},{"type":"Feature","properties":{"kind":"center","id":15,"lat":70.25,"lon":11.5,"mslp":978.5,"hvtl":-9.9,"hvtu":-148.4,"hb":16.0,"idx":-1.1,"cls":4,"psfc":978.5,"terrain":false,"radius_km":200,"name":"asym cold","track":"T50"},"geometry":{"type":"Point","coordinates":[11.5,70.25]}},{"type":"Feature","properties":{"kind":"center","id":16,"lat":-58.0,"lon":-111.0,"mslp":978.7,"hvtl":-143.7,"hvtu":-151.6,"hb":37.4,"idx":-2.7,"cls":4,"psfc":978.7,"terrain":false,"radius_km":200,"name":"asym cold","track":"T19"},"geometry":{"type":"Point","coordinates":[-111.0,-58.0]}},{"type":"Feature","properties":{"kind":"center","id":17,"lat":-73.25,"lon":-15.0,"mslp":979.2,"hvtl":-184.8,"hvtu":-166.5,"hb":24.9,"idx":-2.8,"cls":4,"psfc":912.0,"terrain":false,"radius_km":200,"name":"asym cold","track":"T24"},"geometry":{"type":"Point","coordinates":[-15.0,-73.25]}},{"type":"Feature","properties":{"kind":"center","id":18,"lat":-60.5,"lon":84.5,"mslp":979.3,"hvtl":31.1,"hvtu":-109.6,"hb":34.0,"idx":-0.2,"cls":3,"psfc":979.3,"terrain":false,"radius_km":200,"name":"asym shallow warm","track":"T08"},"geometry":{"type":"Point","coordinates":[84.5,-60.5]}},{"type":"Feature","properties":{"kind":"center","id":19,"lat":64.75,"lon":-3.25,"mslp":979.6,"hvtl":-122.7,"hvtu":-337.4,"hb":22.2,"idx":-2.7,"cls":4,"psfc":979.6,"terrain":false,"radius_km":200,"name":"asym cold","track":"T59"},"geometry":{"type":"Point","coordinates":[-3.25,64.75]}},{"type":"Feature","properties":{"kind":"center","id":20,"lat":81.5,"lon":37.5,"mslp":980.5,"hvtl":91.6,"hvtu":-185.7,"hb":19.1,"idx":0.5,"cls":3,"psfc":980.5,"terrain":false,"radius_km":200,"name":"asym shallow warm","track":"T63"},"geometry":{"type":"Point","coordinates":[37.5,81.5]}},{"type":"Feature","properties":{"kind":"center","id":21,"lat":-59.25,"lon":-97.0,"mslp":981.7,"hvtl":-75.8,"hvtu":-107.6,"hb":14.5,"idx":-2.1,"cls":4,"psfc":981.7,"terrain":false,"radius_km":200,"name":"asym cold"},"geometry":{"type":"Point","coordinates":[-97.0,-59.25]}},{"type":"Feature","properties":{"kind":"center","id":22,"lat":55.25,"lon":-161.0,"mslp":985.4,"hvtl":-5.1,"hvtu":-183.1,"hb":8.5,"idx":-1.1,"cls":5,"psfc":983.1,"terrain":false,"radius_km":200,"name":"sym cold","track":"T40"},"geometry":{"type":"Point","coordinates":[-161.0,55.25]}},{"type":"Feature","properties":{"kind":"center","id":23,"lat":-50.25,"lon":-106.75,"mslp":990.4,"hvtl":-180.9,"hvtu":-208.6,"hb":37.7,"idx":-2.9,"cls":4,"psfc":990.4,"terrain":false,"radius_km":200,"name":"asym cold","track":"T68"},"geometry":{"type":"Point","coordinates":[-106.75,-50.25]}},{"type":"Feature","properties":{"kind":"center","id":24,"lat":63.75,"lon":-145.75,"mslp":991.9,"hvtl":-86.6,"hvtu":-32.1,"hb":11.4,"idx":-1.7,"cls":4,"psfc":902.0,"terrain":false,"radius_km":200,"name":"asym cold","track":"T82"},"geometry":{"type":"Point","coordinates":[-145.75,63.75]}},{"type":"Feature","properties":{"kind":"center","id":25,"lat":62.75,"lon":-145.75,"mslp":994.2,"hvtl":-67.6,"hvtu":-63.6,"hb":17.1,"idx":-1.7,"cls":4,"psfc":900.1,"terrain":true,"radius_km":200,"name":"asym cold"},"geometry":{"type":"Point","coordinates":[-145.75,62.75]}},{"type":"Feature","properties":{"kind":"center","id":26,"lat":-42.0,"lon":-40.75,"mslp":995.0,"hvtl":-56.6,"hvtu":-322.7,"hb":57.5,"idx":-2.0,"cls":4,"psfc":995.0,"terrain":false,"radius_km":200,"name":"asym cold","track":"T20"},"geometry":{"type":"Point","coordinates":[-40.75,-42.0]}},{"type":"Feature","properties":{"kind":"center","id":27,"lat":66.75,"lon":-121.0,"mslp":995.1,"hvtl":27.8,"hvtu":-149.5,"hb":38.2,"idx":-0.4,"cls":3,"psfc":975.8,"terrain":false,"radius_km":200,"name":"asym shallow warm"},"geometry":{"type":"Point","coordinates":[-121.0,66.75]}},{"type":"Feature","properties":{"kind":"center","id":28,"lat":61.75,"lon":-114.75,"mslp":995.2,"hvtl":-234.7,"hvtu":-175.0,"hb":57.8,"idx":-2.9,"cls":4,"psfc":976.1,"terrain":false,"radius_km":200,"name":"asym cold"},"geometry":{"type":"Point","coordinates":[-114.75,61.75]}},{"type":"Feature","properties":{"kind":"center","id":29,"lat":65.25,"lon":-143.75,"mslp":996.5,"hvtl":44.8,"hvtu":-23.8,"hb":10.5,"idx":0.6,"cls":3,"psfc":906.7,"terrain":false,"radius_km":200,"name":"asym shallow warm","track":"T76"},"geometry":{"type":"Point","coordinates":[-143.75,65.25]}},{"type":"Feature","properties":{"kind":"center","id":30,"lat":-38.25,"lon":-88.0,"mslp":997.1,"hvtl":63.8,"hvtu":-49.9,"hb":-0.9,"idx":0.7,"cls":1,"psfc":997.1,"terrain":false,"radius_km":200,"name":"sym shallow warm","track":"T93"},"geometry":{"type":"Point","coordinates":[-88.0,-38.25]}},{"type":"Feature","properties":{"kind":"center","id":31,"lat":54.5,"lon":64.25,"mslp":997.2,"hvtl":-92.5,"hvtu":-53.8,"hb":19.3,"idx":-1.9,"cls":4,"psfc":982.4,"terrain":false,"radius_km":200,"name":"asym cold","track":"T84"},"geometry":{"type":"Point","coordinates":[64.25,54.5]}},{"type":"Feature","properties":{"kind":"center","id":32,"lat":-78.5,"lon":-54.5,"mslp":997.6,"hvtl":-228.4,"hvtu":-149.8,"hb":59.6,"idx":-2.9,"cls":4,"psfc":989.5,"terrain":false,"radius_km":200,"name":"asym cold","track":"T67"},"geometry":{"type":"Point","coordinates":[-54.5,-78.5]}},{"type":"Feature","properties":{"kind":"center","id":33,"lat":61.25,"lon":70.0,"mslp":998.0,"hvtl":-107.3,"hvtu":-193.3,"hb":46.1,"idx":-2.5,"cls":4,"psfc":993.8,"terrain":false,"radius_km":200,"name":"asym cold","track":"T92"},"geometry":{"type":"Point","coordinates":[70.0,61.25]}},{"type":"Feature","properties":{"kind":"center","id":34,"lat":52.75,"lon":-77.5,"mslp":998.9,"hvtl":108.7,"hvtu":-46.4,"hb":-20.5,"idx":1.2,"cls":1,"psfc":979.3,"terrain":false,"radius_km":200,"name":"sym shallow warm","track":"T61"},"geometry":{"type":"Point","coordinates":[-77.5,52.75]}},{"type":"Feature","properties":{"kind":"center","id":35,"lat":64.75,"lon":-36.5,"mslp":999.7,"hvtl":-120.8,"hvtu":-62.0,"hb":19.6,"idx":-2.2,"cls":4,"psfc":999.7,"terrain":false,"radius_km":200,"name":"asym cold","track":"T62"},"geometry":{"type":"Point","coordinates":[-36.5,64.75]}},{"type":"Feature","properties":{"kind":"center","id":36,"lat":-51.75,"lon":-58.75,"mslp":1000.1,"hvtl":9.2,"hvtu":17.6,"hb":-5.7,"idx":0.4,"cls":0,"psfc":984.7,"terrain":false,"radius_km":200,"name":"sym deep warm","track":"T86"},"geometry":{"type":"Point","coordinates":[-58.75,-51.75]}},{"type":"Feature","properties":{"kind":"center","id":37,"lat":70.0,"lon":-58.25,"mslp":1000.4,"hvtl":-34.4,"hvtu":-97.8,"hb":0.6,"idx":-1.4,"cls":5,"psfc":1000.4,"terrain":false,"radius_km":200,"name":"sym cold","track":"T69"},"geometry":{"type":"Point","coordinates":[-58.25,70.0]}},{"type":"Feature","properties":{"kind":"center","id":38,"lat":67.5,"lon":-30.0,"mslp":1001.4,"hvtl":-36.4,"hvtu":-14.2,"hb":27.8,"idx":-0.8,"cls":4,"psfc":1001.4,"terrain":false,"radius_km":200,"name":"asym cold","track":"T80"},"geometry":{"type":"Point","coordinates":[-30.0,67.5]}},{"type":"Feature","properties":{"kind":"center","id":39,"lat":28.0,"lon":68.0,"mslp":1002.6,"hvtl":49.4,"hvtu":-43.7,"hb":0.9,"idx":0.5,"cls":1,"psfc":997.1,"terrain":false,"radius_km":200,"name":"sym shallow warm"},"geometry":{"type":"Point","coordinates":[68.0,28.0]}},{"type":"Feature","properties":{"kind":"center","id":40,"lat":44.5,"lon":137.75,"mslp":1003.0,"hvtl":-98.8,"hvtu":-380.7,"hb":52.2,"idx":-2.5,"cls":4,"psfc":1003.0,"terrain":false,"radius_km":200,"name":"asym cold","track":"T94"},"geometry":{"type":"Point","coordinates":[137.75,44.5]}},{"type":"Feature","properties":{"kind":"center","id":41,"lat":12.75,"lon":-56.5,"mslp":1006.8,"hvtl":66.8,"hvtu":12.5,"hb":-10.8,"idx":1.3,"cls":0,"psfc":1006.8,"terrain":false,"radius_km":200,"name":"sym deep warm"},"geometry":{"type":"Point","coordinates":[-56.5,12.75]}},{"type":"Feature","properties":{"kind":"center","id":42,"lat":-15.0,"lon":-65.5,"mslp":1007.4,"hvtl":-45.1,"hvtu":-141.6,"hb":1.9,"idx":-1.7,"cls":5,"psfc":988.7,"terrain":false,"radius_km":200,"name":"sym cold","track":"T89"},"geometry":{"type":"Point","coordinates":[-65.5,-15.0]}},{"type":"Feature","properties":{"kind":"center","id":43,"lat":24.25,"lon":96.5,"mslp":1008.2,"hvtl":-2.3,"hvtu":-80.2,"hb":14.2,"idx":-0.7,"cls":4,"psfc":992.5,"terrain":false,"radius_km":200,"name":"asym cold","track":"T122"},"geometry":{"type":"Point","coordinates":[96.5,24.25]}},{"type":"Feature","properties":{"kind":"center","id":44,"lat":43.25,"lon":-64.0,"mslp":1009.9,"hvtl":-261.0,"hvtu":-376.7,"hb":61.0,"idx":-3.0,"cls":4,"psfc":1009.9,"terrain":false,"radius_km":200,"name":"asym cold"},"geometry":{"type":"Point","coordinates":[-64.0,43.25]}},{"type":"Feature","properties":{"kind":"center","id":45,"lat":25.75,"lon":93.5,"mslp":1010.3,"hvtl":-11.4,"hvtu":-111.3,"hb":11.3,"idx":-1.0,"cls":4,"psfc":983.5,"terrain":false,"radius_km":200,"name":"asym cold"},"geometry":{"type":"Point","coordinates":[93.5,25.75]}},{"type":"Feature","properties":{"kind":"center","id":46,"lat":-16.75,"lon":47.0,"mslp":1010.5,"hvtl":95.3,"hvtu":-77.1,"hb":8.2,"idx":0.8,"cls":1,"psfc":1001.5,"terrain":false,"radius_km":200,"name":"sym shallow warm"},"geometry":{"type":"Point","coordinates":[47.0,-16.75]}},{"type":"Feature","properties":{"kind":"center","id":47,"lat":23.0,"lon":98.5,"mslp":1011.4,"hvtl":85.7,"hvtu":-63.6,"hb":-7.1,"idx":0.8,"cls":1,"psfc":903.6,"terrain":true,"radius_km":200,"name":"sym shallow warm"},"geometry":{"type":"Point","coordinates":[98.5,23.0]}}]}