{"type":"FeatureCollection","features":[{"type":"Feature","properties":{"kind":"blob","cls":3,"id":1},"geometry":{"type":"Polygon","coordinates":[[[55.5,-63.38],[57.0,-62.62],[57.88,-61.5],[56.75,-59.88],[55.75,-59.38],[49.75,-59.38],[47.38,-61.0],[47.12,-62.0],[49.0,-63.38],[55.5,-63.38]]]}},{"type":"Feature","properties":{"kind":"blob","cls":0,"id":2},"geometry":{"type":"Polygon","coordinates":[[[179.75,59.62],[180.0,61.62],[179.0,61.38],[178.62,62.0],[180.0,62.62],[180.0,63.62],[177.0,63.38],[175.12,62.0],[175.38,61.0],[176.0,60.38],[178.25,59.62],[179.75,59.62]]]}},{"type":"Feature","properties":{"kind":"blob","cls":0,"id":2},"geometry":{"type":"Polygon","coordinates":[[[-179.88,63.5],[-180.0,62.62],[-179.0,62.62],[-178.88,62.25],[-180.0,61.62],[-180.0,59.62],[-177.5,60.38],[-176.62,61.5],[-176.88,62.0],[-178.75,63.38],[-179.88,63.5]]]}},{"type":"Feature","properties":{"kind":"blob","cls":1,"id":3},"geometry":{"type":"Polygon","coordinates":[[[-125.0,-65.88],[-123.38,-65.0],[-123.12,-63.75],[-125.0,-62.38],[-127.0,-61.88],[-129.5,-62.12],[-128.62,-63.25],[-129.25,-63.88],[-130.25,-63.62],[-130.88,-62.5],[-129.25,-61.88],[-128.38,-61.0],[-128.38,-60.0],[-129.25,-59.12],[-130.5,-58.62],[-134.0,-58.38],[-136.62,-59.5],[-136.88,-61.0],[-136.0,-61.88],[-133.75,-62.62],[-131.75,-62.62],[-132.38,-63.5],[-131.88,-65.0],[-130.25,-65.88],[-125.0,-65.88]],[[-131.25,-62.62],[-131.38,-62.5],[-131.25,-62.38],[-131.25,-62.62]]]}},{"type":"Feature","properties":{"kind":"blob","cls":0,"id":4},"geometry":{"type":"Polygon","coordinates":[[[123.25,-60.62],[126.0,-59.38],[128.25,-60.38],[130.5,-60.38],[132.5,-59.62],[133.25,-58.88],[134.5,-59.38],[136.25,-59.38],[138.75,-58.38],[139.38,-57.0],[138.0,-55.62],[135.75,-55.12],[134.5,-53.88],[131.5,-53.38],[129.75,-53.88],[128.88,-54.75],[129.0,-56.38],[127.0,-56.88],[126.25,-57.88],[125.0,-58.38],[121.62,-58.75],[123.0,-57.62],[124.62,-57.25],[124.5,-56.88],[123.5,-56.62],[121.0,-56.62],[119.0,-57.38],[118.38,-58.0],[118.38,-59.25],[120.0,-60.38],[123.25,-60.62]]]}},{"type":"Feature","properties":{"kind":"blob","cls":4,"id":5},"geometry":{"type":"Polygon","coordinates":[[[148.5,-62.38],[150.12,-61.25],[150.12,-60.25],[149.25,-59.38],[147.0,-58.62],[144.75,-58.62],[142.5,-59.38],[141.88,-60.0],[141.88,-61.0],[143.75,-62.38],[148.5,-62.38]]]}},{"type":"Feature","properties":{"kind":"blob","cls":3,"id":6},"geometry":{"type":"Polygon","coordinates":[[[42.0,-68.12],[43.75,-67.38],[44.38,-66.5],[43.5,-65.38],[40.25,-64.38],[35.62,-67.5],[36.75,-68.12],[42.0,-68.12]]]}},{"type":"Feature","properties":{"kind":"blob","cls":4,"id":7},"geometry":{"type":"Polygon","coordinates":[[[-47.5,-72.12],[-43.0,-71.38],[-41.25,-70.62],[-40.12,-69.5],[-40.12,-69.0],[-41.25,-67.88],[-43.25,-67.12],[-49.5,-66.88],[-53.5,-67.62],[-55.62,-69.0],[-55.62,-69.75],[-54.5,-70.88],[-51.5,-71.88],[-47.5,-72.12]]]}},{"type":"Feature","properties":{"kind":"blob","cls":0,"id":8},"geometry":{"type":"Polygon","coordinates":[[[160.25,12.88],[161.75,12.88],[162.62,14.0],[162.38,15.75],[161.0,16.62],[159.75,16.38],[158.88,15.25],[159.12,13.5],[160.25,12.88]],[[159.88,14.75],[160.75,15.38],[162.0,15.38],[162.38,15.0],[161.5,14.38],[159.88,14.75]]]}},{"type":"Feature","properties":{"kind":"blob","cls":1,"id":9},"geometry":{"type":"Polygon","coordinates":[[[-2.25,63.12],[0.5,63.88],[1.62,65.25],[1.38,65.75],[-0.25,66.88],[-1.88,67.25],[-0.25,67.38],[1.5,68.12],[2.38,69.0],[2.38,69.5],[0.75,70.62],[-1.75,71.12],[-6.75,70.88],[-8.5,70.12],[-9.12,69.0],[-8.25,68.12],[-6.0,67.38],[-5.88,66.75],[-6.75,66.12],[-8.75,66.38],[-9.62,65.25],[-8.75,64.12],[-7.75,63.62],[-2.25,63.12]]]}},{"type":"Feature","properties":{"kind":"blob","cls":5,"id":10},"geometry":{"type":"Polygon","coordinates":[[[-13.25,-58.62],[-12.25,-58.12],[-10.88,-56.5],[-12.25,-54.88],[-14.75,-54.12],[-17.5,-54.12],[-19.75,-54.88],[-20.62,-55.75],[-20.62,-57.0],[-19.0,-58.38],[-13.25,-58.62]]]}},{"type":"Feature","properties":{"kind":"blob","cls":4,"id":11},"geometry":{"type":"MultiPolygon","coordinates":[[[[-3.5,-71.62],[-3.62,-71.75],[-3.5,-71.88],[-3.5,-71.62]]],[[[-3.38,-71.5],[8.88,-70.75],[6.0,-70.12],[3.5,-70.12],[-3.38,-71.5]]]]}},{"type":"Feature","properties":{"kind":"blob","cls":4,"id":12},"geometry":{"type":"Polygon","coordinates":[[[158.0,-69.38],[158.62,-68.25],[157.25,-67.12],[154.75,-66.62],[151.25,-66.88],[149.75,-67.38],[149.12,-68.0],[150.75,-68.62],[158.0,-69.38]]]}},{"type":"Feature","properties":{"kind":"blob","cls":0,"id":13},"geometry":{"type":"Polygon","coordinates":[[[145.75,15.88],[146.38,16.75],[146.12,18.25],[144.75,19.12],[143.5,18.88],[142.62,17.75],[142.62,16.75],[144.5,16.62],[145.75,15.88]]]}},{"type":"Feature","properties":{"kind":"blob","cls":6,"id":14},"geometry":{"type":"Polygon","coordinates":[[[-78.75,-79.38],[-77.5,-79.62],[-75.62,-78.5],[-77.25,-77.38],[-78.5,-77.38],[-78.75,-79.38]]]}},{"type":"Feature","properties":{"kind":"blob","cls":5,"id":15},"geometry":{"type":"Polygon","coordinates":[[[162.5,-79.62],[166.75,-79.62],[169.75,-78.88],[170.62,-78.25],[169.5,-77.62],[166.62,-77.5],[169.12,-77.25],[168.0,-76.62],[163.5,-76.12],[162.38,-77.0],[164.62,-78.5],[161.75,-78.62],[162.5,-79.62]]]}},{"type":"Feature","properties":{"kind":"blob","cls":4,"id":16},"geometry":{"type":"Polygon","coordinates":[[[164.5,-75.38],[166.0,-75.38],[167.75,-74.88],[168.88,-74.0],[168.88,-73.5],[168.25,-72.88],[166.75,-73.12],[165.75,-73.88],[165.0,-73.62],[164.5,-75.38]]]}},{"type":"Feature","properties":{"kind":"blob","cls":3,"id":17},"geometry":{"type":"Polygon","coordinates":[[[58.75,76.38],[63.0,77.12],[65.38,78.5],[63.75,79.62],[60.5,80.62],[54.5,81.38],[47.0,81.38],[42.0,80.88],[38.88,80.0],[41.0,79.12],[38.12,79.0],[39.5,78.12],[43.5,76.88],[46.0,76.38],[58.75,76.38]]]}},{"type":"Feature","properties":{"kind":"blob","cls":3,"id":18},"geometry":{"type":"Polygon","coordinates":[[[-92.75,-46.88],[-91.5,-46.38],[-90.62,-45.25],[-90.88,-44.0],[-92.75,-42.88],[-94.25,-42.88],[-95.5,-43.38],[-96.38,-44.5],[-96.38,-45.25],[-95.5,-46.38],[-92.75,-46.88]]]}},{"type":"Feature","properties":{"kind":"blob","cls":4,"id":19},"geometry":{"type":"Polygon","coordinates":[[[-110.5,50.12],[-109.88,50.75],[-109.88,51.75],[-110.75,52.62],[-112.75,53.62],[-115.12,53.75],[-114.75,53.12],[-114.0,53.12],[-112.0,52.12],[-111.88,51.25],[-110.5,50.12]]]}},{"type":"Feature","properties":{"kind":"blob","cls":2,"id":20},"geometry":{"type":"Polygon","coordinates":[[[-125.75,22.38],[-124.38,23.5],[-124.38,25.0],[-125.5,26.12],[-127.75,26.12],[-128.62,24.5],[-128.62,23.25],[-127.75,22.38],[-125.75,22.38]]]}},{"type":"Feature","properties":{"kind":"blob","cls":1,"id":21},"geometry":{"type":"Polygon","coordinates":[[[179.75,28.38],[180.0,31.62],[178.62,30.25],[178.88,29.25],[179.75,28.38]]]}},{"type":"Feature","properties":{"kind":"blob","cls":1,"id":21},"geometry":{"type":"Polygon","coordinates":[[[-179.75,31.62],[-180.0,28.38],[-178.0,28.38],[-176.88,29.75],[-177.12,30.75],[-178.75,31.88],[-179.75,31.62]]]}},{"type":"Feature","properties":{"kind":"blob","cls":4,"id":22},"geometry":{"type":"Polygon","coordinates":[[[43.5,60.88],[45.12,61.75],[45.38,62.75],[44.25,64.12],[41.75,64.88],[39.25,64.88],[36.0,63.88],[35.38,63.25],[35.62,61.75],[37.25,60.88],[43.5,60.88]]]}},{"type":"Feature","properties":{"kind":"blob","cls":4,"id":23},"geometry":{"type":"Polygon","coordinates":[[[148.25,70.38],[158.25,70.38],[160.5,71.12],[161.38,72.0],[161.38,72.5],[159.5,73.88],[157.0,74.62],[151.0,74.88],[145.75,73.88],[143.62,72.5],[143.62,72.0],[145.0,70.88],[148.25,70.38]]]}},{"type":"Feature","properties":{"kind":"blob","cls":4,"id":24},"geometry":{"type":"Polygon","coordinates":[[[15.25,57.62],[17.0,58.12],[18.12,59.25],[18.12,59.75],[17.0,60.88],[13.75,61.88],[11.5,61.88],[8.88,60.75],[9.12,60.25],[8.38,59.5],[9.5,58.38],[15.25,57.62]]]}},{"type":"Feature","properties":{"kind":"blob","cls":1,"id":25},"geometry":{"type":"Polygon","coordinates":[[[-76.25,54.88],[-73.75,55.62],[-72.62,56.75],[-72.88,58.25],[-76.25,58.88],[-78.25,59.88],[-80.25,59.12],[-81.12,58.0],[-80.88,56.5],[-78.75,55.12],[-76.25,54.88]]]}},{"type":"Feature","properties":{"kind":"blob","cls":4,"id":26},"geometry":{"type":"Polygon","coordinates":[[[-54.25,46.88],[-52.38,47.75],[-51.62,51.0],[-52.5,52.12],[-55.25,52.62],[-57.5,51.88],[-58.62,51.0],[-58.88,50.0],[-57.88,48.5],[-57.0,47.62],[-54.25,46.88]]]}},{"type":"Feature","properties":{"kind":"blob","cls":4,"id":27},"geometry":{"type":"Polygon","coordinates":[[[-121.5,37.62],[-120.38,38.25],[-121.88,40.25],[-122.0,41.12],[-122.88,40.5],[-122.75,39.12],[-123.62,40.5],[-123.38,41.5],[-124.0,41.62],[-124.88,40.75],[-124.88,39.5],[-123.5,37.88],[-121.5,37.62]]]}},{"type":"Feature","properties":{"kind":"blob","cls":3,"id":28},"geometry":{"type":"Polygon","coordinates":[[[-118.0,34.88],[-116.75,34.88],[-116.12,35.25],[-116.5,35.62],[-117.25,35.12],[-116.62,35.75],[-117.75,35.88],[-118.0,34.88]]]}},{"type":"Feature","properties":{"kind":"blob","cls":4,"id":29},"geometry":{"type":"Polygon","coordinates":[[[-122.62,41.75],[-122.5,41.62],[-122.38,41.75],[-122.62,41.75]]]}},{"type":"Feature","properties":{"kind":"blob","cls":3,"id":30},"geometry":{"type":"Polygon","coordinates":[[[-118.62,35.25],[-118.62,36.0],[-119.75,37.38],[-119.88,36.0],[-118.62,35.25]]]}},{"type":"Feature","properties":{"kind":"blob","cls":1,"id":31},"geometry":{"type":"Polygon","coordinates":[[[68.25,24.88],[69.88,26.0],[70.0,28.88],[72.5,28.62],[74.38,30.0],[74.38,31.25],[73.5,32.38],[70.5,31.88],[69.75,29.62],[68.75,29.62],[68.0,30.12],[67.38,29.75],[66.88,27.0],[65.38,26.75],[66.5,25.12],[68.25,24.88]]]}},{"type":"Feature","properties":{"kind":"blob","cls":4,"id":32},"geometry":{"type":"MultiPolygon","coordinates":[[[[-57.0,34.88],[-55.25,34.62],[-54.25,35.12],[-52.88,36.5],[-52.88,38.0],[-54.75,39.38],[-56.0,39.38],[-57.5,38.62],[-58.38,37.75],[-58.38,36.0],[-57.0,34.88]]],[[[-54.25,39.38],[-51.75,39.38],[-50.62,40.5],[-50.62,41.75],[-52.5,43.12],[-54.5,42.88],[-55.62,41.75],[-55.62,40.5],[-54.25,39.38]]]]}},{"type":"Feature","properties":{"kind":"blob","cls":0,"id":33},"geometry":{"type":"Polygon","coordinates":[[[-105.0,12.88],[-103.75,14.38],[-101.75,14.62],[-101.62,15.0],[-102.75,15.62],[-104.25,15.38],[-105.12,14.25],[-105.0,12.88]]]}},{"type":"Feature","properties":{"kind":"blob","cls":4,"id":34},"geometry":{"type":"Polygon","coordinates":[[[-44.25,58.38],[-41.25,58.12],[-38.75,59.12],[-38.25,60.38],[-36.0,60.12],[-33.0,60.88],[-30.62,62.5],[-30.62,63.75],[-32.5,65.12],[-34.5,65.62],[-38.5,65.12],[-40.75,63.88],[-41.75,62.38],[-42.75,62.38],[-44.0,60.38],[-44.75,60.62],[-45.25,61.38],[-46.0,61.38],[-46.62,60.75],[-46.88,59.75],[-46.5,59.12],[-44.25,58.38]]]}},{"type":"Feature","properties":{"kind":"blob","cls":0,"id":35},"geometry":{"type":"MultiPolygon","coordinates":[[[[-102.75,11.38],[-101.62,12.0],[-104.62,12.25],[-102.75,11.38]]],[[[-104.75,12.62],[-104.88,12.5],[-104.75,12.38],[-104.75,12.62]]]]}},{"type":"Feature","properties":{"kind":"blob","cls":5,"id":36},"geometry":{"type":"MultiPolygon","coordinates":[[[[179.75,79.12],[180.0,79.88],[172.88,79.25],[173.0,79.12],[179.75,79.12]]],[[[179.75,80.88],[180.0,83.62],[168.75,83.38],[163.5,82.62],[161.38,81.75],[161.5,81.12],[164.0,80.12],[168.75,79.38],[171.0,79.38],[174.25,80.38],[179.75,80.88]]]]}},{"type":"Feature","properties":{"kind":"blob","cls":5,"id":36},"geometry":{"type":"Polygon","coordinates":[[[-179.75,83.62],[-180.0,80.88],[-174.5,81.38],[-170.38,81.25],[-172.75,80.62],[-179.25,80.12],[-180.0,79.88],[-180.0,79.12],[-170.25,79.62],[-165.75,80.38],[-163.62,81.25],[-164.25,82.38],[-167.5,83.12],[-173.5,83.62],[-179.75,83.62]]]}},{"type":"Feature","properties":{"kind":"blob","cls":4,"id":37},"geometry":{"type":"Polygon","coordinates":[[[-122.88,42.25],[-122.75,42.12],[-122.62,42.25],[-122.88,42.25]]]}},{"type":"Feature","properties":{"kind":"blob","cls":1,"id":38},"geometry":{"type":"Polygon","coordinates":[[[-73.75,-11.38],[-73.0,-11.38],[-72.62,-11.0],[-74.0,-10.62],[-73.75,-11.38]]]}},{"type":"Feature","properties":{"kind":"blob","cls":4,"id":39},"geometry":{"type":"Polygon","coordinates":[[[-63.25,72.62],[-60.0,73.12],[-58.75,73.62],[-58.12,74.75],[-60.0,75.88],[-66.5,76.38],[-67.0,77.12],[-68.0,76.88],[-67.38,77.25],[-68.75,77.88],[-72.75,78.38],[-76.5,78.38],[-79.0,77.62],[-81.75,77.62],[-83.12,76.75],[-82.75,75.62],[-80.75,75.38],[-80.75,74.88],[-77.0,74.38],[-71.5,74.62],[-70.25,73.38],[-63.25,72.62]]]}},{"type":"Feature","properties":{"kind":"blob","cls":1,"id":40},"geometry":{"type":"Polygon","coordinates":[[[-75.0,-10.62],[-74.62,-10.5],[-75.0,-10.12],[-75.0,-10.62]]]}},{"type":"Feature","properties":{"kind":"blob","cls":3,"id":41},"geometry":{"type":"Polygon","coordinates":[[[-32.25,66.38],[-27.5,66.38],[-25.75,67.12],[-25.12,68.0],[-25.75,68.88],[-30.5,68.62],[-34.38,66.75],[-32.25,66.38]]]}},{"type":"Feature","properties":{"kind":"blob","cls":3,"id":42},"geometry":{"type":"Polygon","coordinates":[[[59.25,28.38],[59.88,28.75],[59.5,30.62],[58.12,29.75],[59.25,28.38]]]}},{"type":"Feature","properties":{"kind":"blob","cls":4,"id":43},"geometry":{"type":"Polygon","coordinates":[[[96.75,59.38],[100.25,59.38],[102.5,61.12],[105.25,59.62],[109.25,59.38],[111.5,60.12],[112.88,61.5],[112.88,62.25],[111.5,63.62],[109.0,64.38],[105.25,64.38],[103.25,63.88],[102.75,63.38],[101.5,63.88],[101.12,62.75],[100.5,62.38],[98.5,62.62],[96.5,64.12],[94.5,63.62],[93.38,62.5],[93.62,61.0],[94.75,59.88],[96.75,59.38]]]}},{"type":"Feature","properties":{"kind":"blob","cls":3,"id":44},"geometry":{"type":"Polygon","coordinates":[[[161.75,31.88],[163.0,32.38],[163.88,33.5],[163.75,34.88],[164.5,34.38],[165.5,34.38],[166.5,34.88],[167.12,35.5],[167.12,37.0],[165.5,38.12],[164.5,38.12],[162.88,37.0],[162.75,35.62],[161.25,36.12],[160.0,35.62],[159.12,34.5],[159.12,33.25],[159.75,32.38],[161.75,31.88]]]}},{"type":"Feature","properties":{"kind":"blob","cls":1,"id":45},"geometry":{"type":"Polygon","coordinates":[[[-74.5,-11.38],[-74.12,-11.25],[-74.25,-11.12],[-74.5,-11.38]]]}},{"type":"Feature","properties":{"kind":"blob","cls":4,"id":46},"geometry":{"type":"Polygon","coordinates":[[[-64.5,-17.38],[-64.38,-17.0],[-65.25,-15.88],[-66.5,-15.62],[-66.62,-16.0],[-64.5,-17.38]]]}},{"type":"Feature","properties":{"kind":"blob","cls":1,"id":47},"geometry":{"type":"Polygon","coordinates":[[[58.0,28.12],[58.38,28.25],[57.75,28.88],[58.0,28.12]]]}},{"type":"Feature","properties":{"kind":"blob","cls":0,"id":48},"geometry":{"type":"Polygon","coordinates":[[[-76.38,-8.75],[-76.25,-8.88],[-76.12,-8.75],[-76.38,-8.75]]]}},{"type":"Feature","properties":{"kind":"blob","cls":0,"id":49},"geometry":{"type":"Polygon","coordinates":[[[-76.12,-9.25],[-76.0,-9.38],[-75.88,-9.25],[-76.12,-9.25]]]}},{"type":"Feature","properties":{"kind":"blob","cls":4,"id":50},"geometry":{"type":"Polygon","coordinates":[[[168.25,-37.88],[170.12,-36.5],[170.38,-34.75],[169.5,-33.38],[167.25,-32.62],[164.88,-33.75],[164.62,-35.75],[165.75,-37.38],[168.25,-37.88]],[[166.5,-36.62],[165.88,-36.0],[166.75,-35.62],[167.12,-36.25],[166.5,-36.62]]]}},{"type":"Feature","properties":{"kind":"blob","cls":1,"id":51},"geometry":{"type":"Polygon","coordinates":[[[-75.62,-9.75],[-75.5,-9.88],[-75.38,-9.75],[-75.62,-9.75]]]}},{"type":"Feature","properties":{"kind":"blob","cls":4,"id":52},"geometry":{"type":"Polygon","coordinates":[[[-24.0,-36.38],[-22.38,-35.5],[-22.12,-34.0],[-22.75,-33.12],[-24.5,-32.62],[-26.12,-33.5],[-26.12,-35.5],[-24.0,-36.38]]]}},{"type":"Feature","properties":{"kind":"blob","cls":3,"id":53},"geometry":{"type":"MultiPolygon","coordinates":[[[[61.75,30.38],[61.62,30.25],[61.75,30.12],[61.75,30.38]]],[[[61.25,30.62],[61.12,30.5],[61.5,30.38],[61.25,30.62]]]]}},{"type":"Feature","properties":{"kind":"blob","cls":3,"id":54},"geometry":{"type":"Polygon","coordinates":[[[60.62,30.25],[60.75,30.12],[60.88,30.5],[60.62,30.25]]]}},{"type":"Feature","properties":{"kind":"blob","cls":3,"id":55},"geometry":{"type":"Polygon","coordinates":[[[62.88,29.75],[63.0,29.62],[63.12,29.75],[62.88,29.75]]]}},{"type":"Feature","properties":{"kind":"blob","cls":5,"id":56},"geometry":{"type":"Polygon","coordinates":[[[-70.12,-23.5],[-70.12,-21.0],[-70.5,-20.38],[-71.38,-21.25],[-71.38,-22.75],[-70.12,-23.5]]]}},{"type":"Feature","properties":{"kind":"blob","cls":4,"id":57},"geometry":{"type":"Polygon","coordinates":[[[-71.25,-32.62],[-70.62,-32.75],[-71.12,-32.0],[-71.0,-29.62],[-71.62,-30.5],[-71.62,-32.0],[-71.25,-32.62]]]}},{"type":"Feature","properties":{"kind":"blob","cls":3,"id":58},"geometry":{"type":"MultiPolygon","coordinates":[[[[61.0,33.12],[60.88,33.0],[61.0,32.88],[61.0,33.12]]],[[[61.38,33.25],[61.25,33.38],[61.12,33.25],[61.38,33.25]]],[[[61.62,33.5],[61.5,33.62],[61.38,33.5],[61.62,33.5]]]]}},{"type":"Feature","properties":{"kind":"blob","cls":4,"id":59},"geometry":{"type":"Polygon","coordinates":[[[-64.0,-21.38],[-63.62,-21.25],[-64.0,-20.62],[-64.0,-21.38]]]}},{"type":"Feature","properties":{"kind":"blob","cls":4,"id":60},"geometry":{"type":"MultiPolygon","coordinates":[[[[-65.38,-26.0],[-65.25,-26.38],[-65.12,-26.25],[-65.38,-26.0]]],[[[-65.12,-24.75],[-65.0,-25.12],[-64.88,-25.0],[-65.12,-24.75]]],[[[-65.0,-25.62],[-64.75,-26.12],[-64.12,-25.5],[-64.12,-24.0],[-64.5,-23.62],[-64.38,-24.5],[-65.0,-25.62]]],[[[-64.88,-24.25],[-64.75,-24.62],[-64.62,-24.5],[-64.88,-24.25]]]]}},{"type":"Feature","properties":{"kind":"blob","cls":4,"id":61},"geometry":{"type":"Polygon","coordinates":[[[-67.0,-27.88],[-66.5,-28.12],[-66.12,-27.75],[-66.5,-27.62],[-67.0,-27.88]]]}},{"type":"Feature","properties":{"kind":"blob","cls":3,"id":62},"geometry":{"type":"Polygon","coordinates":[[[-68.75,-33.12],[-68.0,-32.88],[-67.38,-32.0],[-67.5,-31.38],[-68.12,-31.5],[-67.62,-31.0],[-68.25,-29.88],[-68.62,-30.5],[-68.75,-33.12]]]}},{"type":"Feature","properties":{"kind":"blob","cls":4,"id":63},"geometry":{"type":"Polygon","coordinates":[[[-65.88,-27.25],[-65.75,-27.38],[-65.62,-27.25],[-65.88,-27.25]]]}},{"type":"Feature","properties":{"kind":"blob","cls":3,"id":64},"geometry":{"type":"Polygon","coordinates":[[[-67.62,-30.5],[-67.5,-30.62],[-67.38,-30.5],[-67.62,-30.5]]]}},{"type":"Feature","properties":{"kind":"center","id":1,"lat":-61.25,"lon":52.75,"mslp":945.4,"hvtl":137.0,"hvtu":-169.3,"hb":33.6,"idx":0.8,"cls":3,"psfc":945.4,"terrain":false,"radius_km":200,"name":"asym shallow warm","track":"T07"},"geometry":{"type":"Point","coordinates":[52.75,-61.25]}},{"type":"Feature","properties":{"kind":"center","id":2,"lat":61.5,"lon":179.5,"mslp":949.1,"hvtl":155.0,"hvtu":63.7,"hb":3.7,"idx":2.4,"cls":0,"psfc":949.2,"terrain":false,"radius_km":200,"name":"sym deep warm","track":"T02"},"geometry":{"type":"Point","coordinates":[179.5,61.5]}},{"type":"Feature","properties":{"kind":"center","id":3,"lat":-60.5,"lon":-132.75,"mslp":950.6,"hvtl":54.1,"hvtu":-82.1,"hb":-9.1,"idx":0.3,"cls":1,"psfc":950.6,"terrain":false,"radius_km":200,"name":"sym shallow warm","track":"T11"},"geometry":{"type":"Point","coordinates":[-132.75,-60.5]}},{"type":"Feature","properties":{"kind":"center","id":4,"lat":-59.0,"lon":122.25,"mslp":956.2,"hvtl":207.7,"hvtu":34.4,"hb":0.9,"idx":2.3,"cls":0,"psfc":956.2,"terrain":false,"radius_km":200,"name":"sym deep warm","track":"T18"},"geometry":{"type":"Point","coordinates":[122.25,-59.0]}},{"type":"Feature","properties":{"kind":"center","id":5,"lat":-60.75,"lon":146.0,"mslp":960.2,"hvtl":-72.0,"hvtu":-265.7,"hb":50.3,"idx":-2.2,"cls":4,"psfc":960.2,"terrain":false,"radius_km":200,"name":"asym cold","track":"T15"},"geometry":{"type":"Point","coordinates":[146.0,-60.75]}},{"type":"Feature","properties":{"kind":"center","id":6,"lat":-66.5,"lon":39.25,"mslp":961.3,"hvtl":110.2,"hvtu":-197.5,"hb":15.0,"idx":0.6,"cls":3,"psfc":961.3,"terrain":false,"radius_km":200,"name":"asym shallow warm","track":"T20"},"geometry":{"type":"Point","coordinates":[39.25,-66.5]}},{"type":"Feature","properties":{"kind":"center","id":7,"lat":-69.25,"lon":-48.5,"mslp":966.1,"hvtl":-83.2,"hvtu":-244.6,"hb":37.7,"idx":-2.3,"cls":4,"psfc":966.1,"terrain":false,"radius_km":200,"name":"asym cold"},"geometry":{"type":"Point","coordinates":[-48.5,-69.25]}},{"type":"Feature","properties":{"kind":"center","id":8,"lat":14.25,"lon":160.75,"mslp":974.6,"hvtl":121.9,"hvtu":216.1,"hb":-7.8,"idx":2.7,"cls":0,"psfc":974.6,"terrain":false,"radius_km":200,"name":"sym deep warm","track":"T12"},"geometry":{"type":"Point","coordinates":[160.75,14.25]}},{"type":"Feature","properties":{"kind":"center","id":9,"lat":65.25,"lon":-4.0,"mslp":979.5,"hvtl":5.6,"hvtu":-109.0,"hb":7.6,"idx":-0.7,"cls":1,"psfc":979.5,"terrain":false,"radius_km":200,"name":"sym shallow warm","track":"T57"},"geometry":{"type":"Point","coordinates":[-4.0,65.25]}},{"type":"Feature","properties":{"kind":"center","id":10,"lat":-56.5,"lon":-16.25,"mslp":980.0,"hvtl":-22.4,"hvtu":-85.6,"hb":5.9,"idx":-1.1,"cls":5,"psfc":980.0,"terrain":false,"radius_km":200,"name":"sym cold","track":"T54"},"geometry":{"type":"Point","coordinates":[-16.25,-56.5]}},{"type":"Feature","properties":{"kind":"center","id":11,"lat":-71.25,"lon":-1.75,"mslp":980.3,"hvtl":-132.2,"hvtu":-104.5,"hb":33.2,"idx":-2.5,"cls":4,"psfc":973.4,"terrain":false,"radius_km":200,"name":"asym cold"},"geometry":{"type":"Point","coordinates":[-1.75,-71.25]}},{"type":"Feature","properties":{"kind":"center","id":12,"lat":-68.5,"lon":153.75,"mslp":981.7,"hvtl":-63.5,"hvtu":-385.0,"hb":44.3,"idx":-2.1,"cls":4,"psfc":955.9,"terrain":false,"radius_km":200,"name":"asym cold","track":"T37"},"geometry":{"type":"Point","coordinates":[153.75,-68.5]}},{"type":"Feature","properties":{"kind":"center","id":13,"lat":17.25,"lon":144.5,"mslp":983.7,"hvtl":76.8,"hvtu":110.0,"hb":4.5,"idx":2.1,"cls":0,"psfc":983.7,"terrain":false,"radius_km":200,"name":"sym deep warm","track":"T06"},"geometry":{"type":"Point","coordinates":[144.5,17.25]}},{"type":"Feature","properties":{"kind":"center","id":14,"lat":-79.25,"lon":-76.75,"mslp":984.9,"hvtl":-277.2,"hvtu":2.4,"hb":51.8,"idx":-2.0,"cls":6,"psfc":967.4,"terrain":false,"radius_km":200,"name":"shallow cold","track":"T58"},"geometry":{"type":"Point","coordinates":[-76.75,-79.25]}},{"type":"Feature","properties":{"kind":"center","id":15,"lat":-79.25,"lon":168.0,"mslp":986.2,"hvtl":-47.1,"hvtu":-61.6,"hb":-6.0,"idx":-1.4,"cls":5,"psfc":978.5,"terrain":false,"radius_km":200,"name":"sym cold","track":"T66"},"geometry":{"type":"Point","coordinates":[168.0,-79.25]}},{"type":"Feature","properties":{"kind":"center","id":16,"lat":-73.75,"lon":165.0,"mslp":987.1,"hvtl":-67.1,"hvtu":-206.8,"hb":26.0,"idx":-2.1,"cls":4,"psfc":908.5,"terrain":false,"radius_km":200,"name":"asym cold","track":"T46"},"geometry":{"type":"Point","coordinates":[165.0,-73.75]}},{"type":"Feature","properties":{"kind":"center","id":17,"lat":78.75,"lon":51.0,"mslp":987.8,"hvtl":16.0,"hvtu":-24.1,"hb":11.5,"idx":0.1,"cls":3,"psfc":987.8,"terrain":false,"radius_km":200,"name":"asym shallow warm","track":"T50"},"geometry":{"type":"Point","coordinates":[51.0,78.75]}},{"type":"Feature","properties":{"kind":"center","id":18,"lat":-44.75,"lon":-93.5,"mslp":989.0,"hvtl":66.6,"hvtu":-104.9,"hb":20.5,"idx":0.4,"cls":3,"psfc":989.0,"terrain":false,"radius_km":200,"name":"asym shallow warm","track":"T74"},"geometry":{"type":"Point","coordinates":[-93.5,-44.75]}},{"type":"Feature","properties":{"kind":"center","id":19,"lat":51.25,"lon":-111.75,"mslp":989.7,"hvtl":-166.2,"hvtu":-251.8,"hb":112.4,"idx":-2.8,"cls":4,"psfc":905.1,"terrain":false,"radius_km":200,"name":"asym cold","track":"T72"},"geometry":{"type":"Point","coordinates":[-111.75,51.25]}},{"type":"Feature","properties":{"kind":"center","id":20,"lat":24.25,"lon":-126.5,"mslp":992.6,"hvtl":70.7,"hvtu":36.1,"hb":10.1,"idx":1.6,"cls":2,"psfc":992.6,"terrain":false,"radius_km":200,"name":"asym deep warm","track":"T42"},"geometry":{"type":"Point","coordinates":[-126.5,24.25]}},{"type":"Feature","properties":{"kind":"center","id":21,"lat":30.0,"lon":-179.0,"mslp":995.5,"hvtl":51.0,"hvtu":-72.6,"hb":5.9,"idx":0.3,"cls":1,"psfc":995.5,"terrain":false,"radius_km":200,"name":"sym shallow warm","track":"T70"},"geometry":{"type":"Point","coordinates":[-179.0,30.0]}},{"type":"Feature","properties":{"kind":"center","id":22,"lat":62.75,"lon":40.25,"mslp":995.7,"hvtl":-102.2,"hvtu":-64.4,"hb":60.2,"idx":-2.1,"cls":4,"psfc":982.3,"terrain":false,"radius_km":200,"name":"asym cold","track":"T81"},"geometry":{"type":"Point","coordinates":[40.25,62.75]}},{"type":"Feature","properties":{"kind":"center","id":23,"lat":72.25,"lon":151.5,"mslp":997.2,"hvtl":-46.1,"hvtu":-142.8,"hb":21.5,"idx":-1.8,"cls":4,"psfc":997.2,"terrain":false,"radius_km":200,"name":"asym cold","track":"T88"},"geometry":{"type":"Point","coordinates":[151.5,72.25]}},{"type":"Feature","properties":{"kind":"center","id":24,"lat":61.75,"lon":11.75,"mslp":998.5,"hvtl":-182.3,"hvtu":-309.9,"hb":46.5,"idx":-2.9,"cls":4,"psfc":906.0,"terrain":true,"radius_km":200,"name":"asym cold"},"geometry":{"type":"Point","coordinates":[11.75,61.75]}},{"type":"Feature","properties":{"kind":"center","id":25,"lat":57.25,"lon":-77.0,"mslp":1001.3,"hvtl":50.2,"hvtu":-27.9,"hb":-6.0,"idx":0.7,"cls":1,"psfc":1001.3,"terrain":false,"radius_km":200,"name":"sym shallow warm","track":"T87"},"geometry":{"type":"Point","coordinates":[-77.0,57.25]}},{"type":"Feature","properties":{"kind":"center","id":26,"lat":48.75,"lon":-54.75,"mslp":1001.5,"hvtl":-206.8,"hvtu":-436.3,"hb":56.1,"idx":-2.9,"cls":4,"psfc":979.8,"terrain":false,"radius_km":200,"name":"asym cold","track":"T49"},"geometry":{"type":"Point","coordinates":[-54.75,48.75]}},{"type":"Feature","properties":{"kind":"center","id":27,"lat":39.75,"lon":-122.25,"mslp":1001.5,"hvtl":-46.2,"hvtu":-144.7,"hb":64.4,"idx":-1.8,"cls":4,"psfc":990.8,"terrain":false,"radius_km":200,"name":"asym cold"},"geometry":{"type":"Point","coordinates":[-122.25,39.75]}},{"type":"Feature","properties":{"kind":"center","id":28,"lat":35.25,"lon":-116.25,"mslp":1002.4,"hvtl":35.7,"hvtu":-152.3,"hb":24.7,"idx":-0.2,"cls":3,"psfc":943.9,"terrain":false,"radius_km":200,"name":"asym shallow warm","track":"T107"},"geometry":{"type":"Point","coordinates":[-116.25,35.25]}},{"type":"Feature","properties":{"kind":"center","id":29,"lat":41.75,"lon":-122.5,"mslp":1002.7,"hvtl":-50.4,"hvtu":-123.5,"hb":81.8,"idx":-1.8,"cls":4,"psfc":904.5,"terrain":true,"radius_km":200,"name":"asym cold"},"geometry":{"type":"Point","coordinates":[-122.5,41.75]}},{"type":"Feature","properties":{"kind":"center","id":30,"lat":35.5,"lon":-119.25,"mslp":1003.3,"hvtl":0.4,"hvtu":-136.9,"hb":48.9,"idx":-0.9,"cls":3,"psfc":990.0,"terrain":false,"radius_km":200,"name":"asym shallow warm"},"geometry":{"type":"Point","coordinates":[-119.25,35.5]}},{"type":"Feature","properties":{"kind":"center","id":31,"lat":27.25,"lon":67.5,"mslp":1003.3,"hvtl":2.2,"hvtu":-20.0,"hb":-9.5,"idx":-0.2,"cls":1,"psfc":994.2,"terrain":false,"radius_km":200,"name":"sym shallow warm","track":"T113"},"geometry":{"type":"Point","coordinates":[67.5,27.25]}},{"type":"Feature","properties":{"kind":"center","id":32,"lat":41.0,"lon":-53.0,"mslp":1003.3,"hvtl":-77.1,"hvtu":-307.5,"hb":49.0,"idx":-2.3,"cls":4,"psfc":1003.3,"terrain":false,"radius_km":200,"name":"asym cold","track":"T105"},"geometry":{"type":"Point","coordinates":[-53.0,41.0]}},{"type":"Feature","properties":{"kind":"center","id":33,"lat":14.5,"lon":-103.5,"mslp":1003.6,"hvtl":48.7,"hvtu":16.4,"hb":3.1,"idx":1.1,"cls":0,"psfc":1003.7,"terrain":false,"radius_km":200,"name":"sym deep warm","track":"T104"},"geometry":{"type":"Point","coordinates":[-103.5,14.5]}},{"type":"Feature","properties":{"kind":"center","id":34,"lat":62.75,"lon":-36.75,"mslp":1004.1,"hvtl":-156.2,"hvtu":-242.8,"hb":40.8,"idx":-2.8,"cls":4,"psfc":1004.1,"terrain":false,"radius_km":200,"name":"asym cold","track":"T65"},"geometry":{"type":"Point","coordinates":[-36.75,62.75]}},{"type":"Feature","properties":{"kind":"center","id":35,"lat":12.0,"lon":-103.25,"mslp":1004.5,"hvtl":60.9,"hvtu":9.8,"hb":-13.8,"idx":1.2,"cls":0,"psfc":1004.5,"terrain":false,"radius_km":200,"name":"sym deep warm","track":"T115"},"geometry":{"type":"Point","coordinates":[-103.25,12.0]}},{"type":"Feature","properties":{"kind":"center","id":36,"lat":81.0,"lon":179.5,"mslp":1005.4,"hvtl":-58.0,"hvtu":-143.1,"hb":-21.0,"idx":-1.9,"cls":5,"psfc":1005.4,"terrain":false,"radius_km":200,"name":"sym cold","track":"T96"},"geometry":{"type":"Point","coordinates":[179.5,81.0]}},{"type":"Feature","properties":{"kind":"center","id":37,"lat":42.25,"lon":-122.75,"mslp":1006.2,"hvtl":-75.1,"hvtu":-111.8,"hb":81.9,"idx":-2.1,"cls":4,"psfc":907.0,"terrain":true,"radius_km":200,"name":"asym cold"},"geometry":{"type":"Point","coordinates":[-122.75,42.25]}},{"type":"Feature","properties":{"kind":"center","id":38,"lat":-11.0,"lon":-73.0,"mslp":1006.8,"hvtl":69.0,"hvtu":-8.3,"hb":-7.4,"idx":1.1,"cls":1,"psfc":968.0,"terrain":false,"radius_km":200,"name":"sym shallow warm"},"geometry":{"type":"Point","coordinates":[-73.0,-11.0]}},{"type":"Feature","properties":{"kind":"center","id":39,"lat":76.25,"lon":-75.0,"mslp":1007.1,"hvtl":-54.0,"hvtu":-105.0,"hb":50.3,"idx":-1.8,"cls":4,"psfc":1007.1,"terrain":false,"radius_km":200,"name":"asym cold","track":"T112"},"geometry":{"type":"Point","coordinates":[-75.0,76.25]}},{"type":"Feature","properties":{"kind":"center","id":40,"lat":-10.25,"lon":-75.0,"mslp":1007.2,"hvtl":70.8,"hvtu":-2.8,"hb":-35.8,"idx":1.2,"cls":1,"psfc":966.0,"terrain":false,"radius_km":200,"name":"sym shallow warm"},"geometry":{"type":"Point","coordinates":[-75.0,-10.25]}},{"type":"Feature","properties":{"kind":"center","id":41,"lat":68.0,"lon":-28.0,"mslp":1007.6,"hvtl":235.0,"hvtu":-28.0,"hb":19.0,"idx":1.7,"cls":3,"psfc":1007.6,"terrain":false,"radius_km":200,"name":"asym shallow warm"},"geometry":{"type":"Point","coordinates":[-28.0,68.0]}},{"type":"Feature","properties":{"kind":"center","id":42,"lat":29.75,"lon":58.75,"mslp":1007.7,"hvtl":94.7,"hvtu":-68.9,"hb":24.3,"idx":0.9,"cls":3,"psfc":972.1,"terrain":false,"radius_km":200,"name":"asym shallow warm","track":"T114"},"geometry":{"type":"Point","coordinates":[58.75,29.75]}},{"type":"Feature","properties":{"kind":"center","id":43,"lat":62.0,"lon":107.5,"mslp":1007.9,"hvtl":-72.3,"hvtu":-67.6,"hb":17.8,"idx":-1.8,"cls":4,"psfc":966.9,"terrain":false,"radius_km":200,"name":"asym cold","track":"T100"},"geometry":{"type":"Point","coordinates":[107.5,62.0]}},{"type":"Feature","properties":{"kind":"center","id":44,"lat":34.0,"lon":161.5,"mslp":1007.9,"hvtl":106.2,"hvtu":-125.2,"hb":43.4,"idx":0.7,"cls":3,"psfc":1007.9,"terrain":false,"radius_km":200,"name":"asym shallow warm","track":"T44"},"geometry":{"type":"Point","coordinates":[161.5,34.0]}},{"type":"Feature","properties":{"kind":"center","id":45,"lat":-11.25,"lon":-74.25,"mslp":1008.2,"hvtl":67.0,"hvtu":-18.2,"hb":-25.9,"idx":1.0,"cls":1,"psfc":902.2,"terrain":true,"radius_km":200,"name":"sym shallow warm"},"geometry":{"type":"Point","coordinates":[-74.25,-11.25]}},{"type":"Feature","properties":{"kind":"center","id":46,"lat":-15.75,"lon":-66.0,"mslp":1008.9,"hvtl":-60.9,"hvtu":-158.0,"hb":32.5,"idx":-2.0,"cls":4,"psfc":983.8,"terrain":false,"radius_km":200,"name":"asym cold","track":"T91"},"geometry":{"type":"Point","coordinates":[-66.0,-15.75]}},{"type":"Feature","properties":{"kind":"center","id":47,"lat":28.5,"lon":57.75,"mslp":1009.0,"hvtl":46.3,"hvtu":-67.0,"hb":8.4,"idx":0.3,"cls":1,"psfc":939.6,"terrain":false,"radius_km":200,"name":"sym shallow warm","track":"T119"},"geometry":{"type":"Point","coordinates":[57.75,28.5]}},{"type":"Feature","properties":{"kind":"center","id":48,"lat":-8.75,"lon":-76.25,"mslp":1009.4,"hvtl":75.3,"hvtu":13.6,"hb":-40.2,"idx":1.4,"cls":0,"psfc":914.9,"terrain":true,"radius_km":200,"name":"sym deep warm"},"geometry":{"type":"Point","coordinates":[-76.25,-8.75]}},{"type":"Feature","properties":{"kind":"center","id":49,"lat":-9.25,"lon":-76.0,"mslp":1009.8,"hvtl":70.8,"hvtu":14.1,"hb":-42.5,"idx":1.4,"cls":0,"psfc":900.5,"terrain":true,"radius_km":200,"name":"sym deep warm"},"geometry":{"type":"Point","coordinates":[-76.0,-9.25]}},{"type":"Feature","properties":{"kind":"center","id":50,"lat":-35.25,"lon":167.75,"mslp":1009.8,"hvtl":-92.8,"hvtu":-17.2,"hb":10.8,"idx":-1.6,"cls":4,"psfc":1009.8,"terrain":false,"radius_km":200,"name":"asym cold","track":"T120"},"geometry":{"type":"Point","coordinates":[167.75,-35.25]}},{"type":"Feature","properties":{"kind":"center","id":51,"lat":-9.75,"lon":-75.5,"mslp":1010.1,"hvtl":70.8,"hvtu":-1.3,"hb":-40.7,"idx":1.2,"cls":1,"psfc":905.6,"terrain":true,"radius_km":200,"name":"sym shallow warm"},"geometry":{"type":"Point","coordinates":[-75.5,-9.75]}},{"type":"Feature","properties":{"kind":"center","id":52,"lat":-34.75,"lon":-25.25,"mslp":1011.3,"hvtl":-305.7,"hvtu":-323.4,"hb":70.7,"idx":-3.0,"cls":4,"psfc":1011.3,"terrain":false,"radius_km":200,"name":"asym cold","track":"T33"},"geometry":{"type":"Point","coordinates":[-25.25,-34.75]}},{"type":"Feature","properties":{"kind":"center","id":53,"lat":30.5,"lon":61.25,"mslp":1011.6,"hvtl":69.4,"hvtu":-68.8,"hb":24.6,"idx":0.6,"cls":3,"psfc":956.9,"terrain":false,"radius_km":200,"name":"asym shallow warm","track":"T121"},"geometry":{"type":"Point","coordinates":[61.25,30.5]}},{"type":"Feature","properties":{"kind":"center","id":54,"lat":30.25,"lon":60.75,"mslp":1012.6,"hvtl":68.3,"hvtu":-63.0,"hb":27.0,"idx":0.6,"cls":3,"psfc":913.5,"terrain":true,"radius_km":200,"name":"asym shallow warm"},"geometry":{"type":"Point","coordinates":[60.75,30.25]}},{"type":"Feature","properties":{"kind":"center","id":55,"lat":29.75,"lon":63.0,"mslp":1012.8,"hvtl":89.2,"hvtu":-50.0,"hb":12.9,"idx":1.0,"cls":3,"psfc":918.9,"terrain":true,"radius_km":200,"name":"asym shallow warm"},"geometry":{"type":"Point","coordinates":[63.0,29.75]}},{"type":"Feature","properties":{"kind":"center","id":56,"lat":-22.0,"lon":-70.5,"mslp":1013.3,"hvtl":-44.9,"hvtu":-182.7,"hb":9.0,"idx":-1.8,"cls":5,"psfc":1013.3,"terrain":false,"radius_km":200,"name":"sym cold"},"geometry":{"type":"Point","coordinates":[-70.5,-22.0]}},{"type":"Feature","properties":{"kind":"center","id":57,"lat":-30.75,"lon":-71.0,"mslp":1014.5,"hvtl":-48.6,"hvtu":-136.6,"hb":48.7,"idx":-1.8,"cls":4,"psfc":934.0,"terrain":false,"radius_km":200,"name":"asym cold"},"geometry":{"type":"Point","coordinates":[-71.0,-30.75]}},{"type":"Feature","properties":{"kind":"center","id":58,"lat":33.5,"lon":61.5,"mslp":1014.7,"hvtl":121.1,"hvtu":-103.8,"hb":89.4,"idx":0.9,"cls":3,"psfc":905.4,"terrain":true,"radius_km":200,"name":"asym shallow warm"},"geometry":{"type":"Point","coordinates":[61.5,33.5]}},{"type":"Feature","properties":{"kind":"center","id":59,"lat":-21.0,"lon":-63.75,"mslp":1015.3,"hvtl":-32.1,"hvtu":-215.4,"hb":56.6,"idx":-1.6,"cls":4,"psfc":925.7,"terrain":false,"radius_km":200,"name":"asym cold","track":"T132"},"geometry":{"type":"Point","coordinates":[-63.75,-21.0]}},{"type":"Feature","properties":{"kind":"center","id":60,"lat":-23.75,"lon":-64.5,"mslp":1016.1,"hvtl":-52.9,"hvtu":-192.6,"hb":27.2,"idx":-1.9,"cls":4,"psfc":966.0,"terrain":false,"radius_km":200,"name":"asym cold"},"geometry":{"type":"Point","coordinates":[-64.5,-23.75]}},{"type":"Feature","properties":{"kind":"center","id":61,"lat":-28.0,"lon":-66.5,"mslp":1016.2,"hvtl":-21.1,"hvtu":-144.3,"hb":38.4,"idx":-1.3,"cls":4,"psfc":928.4,"terrain":false,"radius_km":200,"name":"asym cold","track":"T127"},"geometry":{"type":"Point","coordinates":[-66.5,-28.0]}},{"type":"Feature","properties":{"kind":"center","id":62,"lat":-30.25,"lon":-68.25,"mslp":1018.8,"hvtl":24.8,"hvtu":-200.5,"hb":50.6,"idx":-0.5,"cls":3,"psfc":924.6,"terrain":true,"radius_km":200,"name":"asym shallow warm"},"geometry":{"type":"Point","coordinates":[-68.25,-30.25]}},{"type":"Feature","properties":{"kind":"center","id":63,"lat":-27.25,"lon":-65.75,"mslp":1020.4,"hvtl":-21.1,"hvtu":-156.3,"hb":29.5,"idx":-1.3,"cls":4,"psfc":932.6,"terrain":false,"radius_km":200,"name":"asym cold"},"geometry":{"type":"Point","coordinates":[-65.75,-27.25]}},{"type":"Feature","properties":{"kind":"center","id":64,"lat":-30.5,"lon":-67.5,"mslp":1020.5,"hvtl":31.8,"hvtu":-227.8,"hb":45.3,"idx":-0.4,"cls":3,"psfc":906.2,"terrain":true,"radius_km":200,"name":"asym shallow warm"},"geometry":{"type":"Point","coordinates":[-67.5,-30.5]}}]}