{"type":"FeatureCollection","features":[{"type":"Feature","properties":{"kind":"blob","cls":3,"id":1},"geometry":{"type":"Polygon","coordinates":[[[-123.25,-64.62],[-121.25,-64.12],[-119.88,-63.25],[-119.62,-62.25],[-120.75,-61.12],[-122.75,-60.62],[-126.5,-60.88],[-128.12,-61.75],[-128.38,-62.75],[-127.5,-63.88],[-123.25,-64.62]]]}},{"type":"Feature","properties":{"kind":"blob","cls":3,"id":2},"geometry":{"type":"Polygon","coordinates":[[[-1.75,-59.62],[0.25,-58.88],[0.88,-58.25],[1.38,-56.5],[0.88,-55.25],[-0.5,-53.88],[-2.5,-53.12],[-4.0,-53.12],[-6.25,-53.88],[-7.62,-55.25],[-7.88,-56.5],[-7.12,-58.0],[-5.0,-59.38],[-1.75,-59.62]]]}},{"type":"Feature","properties":{"kind":"blob","cls":4,"id":3},"geometry":{"type":"Polygon","coordinates":[[[-134.0,-73.12],[-130.75,-72.62],[-128.75,-71.88],[-128.12,-71.0],[-129.25,-69.62],[-130.0,-69.38],[-133.75,-68.62],[-137.25,-68.62],[-141.5,-69.62],[-142.88,-71.0],[-141.75,-72.12],[-139.25,-72.88],[-134.0,-73.12]]]}},{"type":"Feature","properties":{"kind":"blob","cls":3,"id":4},"geometry":{"type":"Polygon","coordinates":[[[-155.75,-62.88],[-153.75,-62.12],[-152.25,-62.62],[-147.5,-62.38],[-145.12,-61.0],[-145.12,-60.0],[-146.75,-58.88],[-148.0,-58.62],[-151.0,-58.62],[-153.5,-59.12],[-154.25,-59.62],[-155.75,-59.12],[-157.75,-59.12],[-160.0,-59.88],[-160.62,-60.5],[-160.62,-61.5],[-159.0,-62.62],[-155.75,-62.88]]]}},{"type":"Feature","properties":{"kind":"blob","cls":0,"id":5},"geometry":{"type":"Polygon","coordinates":[[[148.0,21.12],[148.88,22.0],[148.88,23.5],[148.0,24.38],[146.5,24.62],[144.88,23.5],[144.88,22.0],[145.75,21.12],[148.0,21.12]],[[145.62,22.5],[145.62,23.0],[146.25,23.12],[146.38,22.5],[145.62,22.5]]]}},{"type":"Feature","properties":{"kind":"blob","cls":6,"id":6},"geometry":{"type":"Polygon","coordinates":[[[179.75,-82.62],[180.0,-79.12],[167.5,-78.88],[162.62,-79.5],[166.5,-81.12],[171.25,-82.12],[178.0,-82.88],[179.75,-82.62]]]}},{"type":"Feature","properties":{"kind":"blob","cls":6,"id":6},"geometry":{"type":"Polygon","coordinates":[[[-179.75,-79.12],[-180.0,-82.62],[-176.0,-82.12],[-174.12,-81.25],[-174.5,-80.38],[-175.75,-79.88],[-179.75,-79.12]]]}},{"type":"Feature","properties":{"kind":"blob","cls":4,"id":7},"geometry":{"type":"Polygon","coordinates":[[[136.25,-65.62],[138.12,-64.25],[138.12,-63.5],[137.0,-62.38],[134.0,-61.38],[129.75,-61.62],[127.88,-62.75],[127.62,-63.5],[128.5,-64.62],[130.25,-65.38],[136.25,-65.62]]]}},{"type":"Feature","properties":{"kind":"blob","cls":4,"id":8},"geometry":{"type":"Polygon","coordinates":[[[107.5,-65.88],[109.0,-65.12],[109.38,-64.5],[108.75,-64.12],[104.25,-63.62],[102.88,-63.0],[105.75,-62.12],[101.5,-62.38],[99.62,-63.75],[100.25,-65.12],[101.75,-65.88],[107.5,-65.88]]]}},{"type":"Feature","properties":{"kind":"blob","cls":4,"id":9},"geometry":{"type":"Polygon","coordinates":[[[110.0,-53.88],[112.0,-53.12],[113.12,-52.0],[113.12,-50.75],[112.25,-49.88],[110.75,-49.38],[107.5,-49.62],[106.0,-50.12],[105.12,-51.0],[105.12,-52.0],[106.25,-53.12],[110.0,-53.88]]]}},{"type":"Feature","properties":{"kind":"blob","cls":4,"id":10},"geometry":{"type":"Polygon","coordinates":[[[176.75,-74.38],[179.0,-73.62],[179.62,-72.25],[178.75,-71.38],[177.5,-70.88],[170.25,-69.62],[165.5,-69.88],[163.38,-70.75],[164.5,-71.12],[164.5,-70.62],[166.25,-70.62],[170.5,-71.62],[169.88,-72.25],[170.38,-72.5],[169.5,-73.12],[168.5,-72.88],[166.62,-73.5],[166.75,-73.88],[168.5,-74.38],[176.75,-74.38]],[[169.75,-73.62],[169.62,-73.5],[169.75,-73.38],[169.75,-73.62]]]}},{"type":"Feature","properties":{"kind":"blob","cls":4,"id":11},"geometry":{"type":"Polygon","coordinates":[[[99.25,-58.12],[101.5,-57.38],[102.38,-56.5],[102.38,-55.5],[101.5,-54.62],[99.75,-54.12],[97.75,-54.12],[96.0,-54.62],[95.12,-55.5],[95.12,-56.5],[97.0,-57.88],[99.25,-58.12]]]}},{"type":"Feature","properties":{"kind":"blob","cls":5,"id":12},"geometry":{"type":"Polygon","coordinates":[[[-16.25,-71.38],[-13.0,-70.62],[-11.0,-69.62],[-10.12,-68.0],[-11.0,-67.12],[-12.5,-66.62],[-16.5,-66.38],[-20.5,-67.12],[-23.12,-69.0],[-23.12,-69.75],[-22.25,-70.62],[-16.25,-71.38]],[[-16.25,-69.12],[-16.88,-68.75],[-15.75,-67.62],[-13.62,-67.5],[-14.25,-68.62],[-16.25,-69.12]]]}},{"type":"Feature","properties":{"kind":"blob","cls":1,"id":13},"geometry":{"type":"Polygon","coordinates":[[[-175.0,52.38],[-173.0,53.12],[-172.38,54.0],[-172.62,55.0],[-173.25,55.62],[-175.25,56.38],[-178.25,55.62],[-179.12,54.5],[-178.88,53.5],[-177.5,52.62],[-175.0,52.38]]]}},{"type":"Feature","properties":{"kind":"blob","cls":0,"id":14},"geometry":{"type":"Polygon","coordinates":[[[-174.5,21.62],[-173.62,22.5],[-173.62,24.0],[-175.25,25.12],[-176.5,24.88],[-177.38,24.0],[-177.38,22.5],[-176.5,21.62],[-174.5,21.62]]]}},{"type":"Feature","properties":{"kind":"blob","cls":0,"id":15},"geometry":{"type":"Polygon","coordinates":[[[-113.5,18.38],[-112.0,18.38],[-111.12,19.5],[-111.38,21.0],[-112.75,21.88],[-114.0,21.62],[-114.88,20.5],[-114.75,19.38],[-113.75,20.12],[-112.62,19.75],[-112.62,19.25],[-113.5,18.38]]]}},{"type":"Feature","properties":{"kind":"blob","cls":4,"id":16},"geometry":{"type":"Polygon","coordinates":[[[76.5,-68.62],[78.25,-68.88],[79.75,-68.12],[83.5,-67.88],[84.38,-67.5],[83.25,-67.12],[76.5,-68.62]]]}},{"type":"Feature","properties":{"kind":"blob","cls":4,"id":17},"geometry":{"type":"Polygon","coordinates":[[[62.0,-60.62],[64.0,-59.88],[64.88,-59.0],[64.88,-57.75],[64.25,-57.12],[61.75,-56.12],[59.25,-56.12],[57.25,-56.88],[56.62,-57.5],[56.62,-58.75],[58.5,-60.12],[62.0,-60.62]]]}},{"type":"Feature","properties":{"kind":"blob","cls":3,"id":18},"geometry":{"type":"Polygon","coordinates":[[[-16.5,65.38],[-9.5,65.38],[-6.88,67.0],[-6.88,68.0],[-7.75,68.88],[-9.5,69.62],[-14.25,69.88],[-14.62,68.75],[-16.0,67.88],[-20.12,67.5],[-20.12,67.0],[-19.0,65.88],[-16.5,65.38]]]}},{"type":"Feature","properties":{"kind":"blob","cls":4,"id":19},"geometry":{"type":"Polygon","coordinates":[[[63.75,-67.88],[63.88,-67.0],[61.75,-65.88],[57.75,-65.62],[55.25,-64.88],[51.5,-65.12],[50.25,-65.62],[49.38,-66.5],[49.75,-67.38],[51.25,-67.38],[51.62,-67.0],[51.12,-66.75],[51.25,-66.38],[55.25,-66.12],[55.88,-66.5],[56.0,-67.12],[63.75,-67.88]]]}},{"type":"Feature","properties":{"kind":"blob","cls":6,"id":20},"geometry":{"type":"Polygon","coordinates":[[[118.25,68.88],[121.75,69.62],[122.62,70.5],[121.75,70.62],[121.38,71.25],[122.25,71.38],[122.38,71.75],[119.75,72.88],[115.25,73.12],[112.5,72.62],[110.88,71.5],[110.62,70.5],[111.5,69.62],[118.25,68.88]]]}},{"type":"Feature","properties":{"kind":"blob","cls":4,"id":21},"geometry":{"type":"Polygon","coordinates":[[[-101.25,-52.38],[-99.75,-51.88],[-98.88,-50.75],[-99.12,-49.5],[-99.75,-48.88],[-101.25,-48.38],[-103.0,-48.38],[-104.5,-48.88],[-105.38,-50.0],[-105.38,-50.75],[-104.5,-51.88],[-101.25,-52.38]]]}},{"type":"Feature","properties":{"kind":"blob","cls":5,"id":22},"geometry":{"type":"Polygon","coordinates":[[[20.5,-70.38],[26.0,-70.62],[26.38,-70.25],[22.25,-70.12],[20.5,-70.38]]]}},{"type":"Feature","properties":{"kind":"blob","cls":4,"id":23},"geometry":{"type":"Polygon","coordinates":[[[32.0,-70.12],[32.38,-70.0],[32.25,-69.88],[32.0,-70.12]]]}},{"type":"Feature","properties":{"kind":"blob","cls":4,"id":24},"geometry":{"type":"Polygon","coordinates":[[[33.62,-69.75],[33.75,-69.88],[33.88,-69.75],[33.62,-69.75]]]}},{"type":"Feature","properties":{"kind":"blob","cls":4,"id":25},"geometry":{"type":"Polygon","coordinates":[[[-149.0,55.12],[-147.25,55.62],[-146.12,56.75],[-146.38,58.25],[-147.0,58.88],[-149.0,59.62],[-152.0,59.62],[-154.0,58.88],[-154.62,58.0],[-154.38,56.75],[-152.75,55.62],[-149.0,55.12]]]}},{"type":"Feature","properties":{"kind":"blob","cls":3,"id":26},"geometry":{"type":"Polygon","coordinates":[[[-59.5,65.38],[-54.5,65.38],[-53.25,65.88],[-52.38,66.75],[-52.38,67.5],[-53.0,68.38],[-54.0,68.88],[-56.25,69.38],[-60.75,69.12],[-62.88,68.0],[-63.12,67.0],[-62.0,65.88],[-59.5,65.38]]]}},{"type":"Feature","properties":{"kind":"blob","cls":5,"id":27},"geometry":{"type":"Polygon","coordinates":[[[-40.75,58.38],[-38.25,58.88],[-36.25,59.88],[-35.62,60.5],[-35.38,61.5],[-36.38,62.75],[-35.0,62.88],[-33.5,63.62],[-32.62,65.0],[-32.88,65.5],[-34.25,66.62],[-36.0,66.38],[-41.75,63.88],[-42.5,62.88],[-43.12,62.75],[-42.88,61.75],[-44.0,60.38],[-45.38,61.25],[-45.38,60.0],[-44.5,59.12],[-40.75,58.38]]]}},{"type":"Feature","properties":{"kind":"blob","cls":4,"id":28},"geometry":{"type":"Polygon","coordinates":[[[21.25,71.88],[24.75,72.38],[27.75,73.38],[28.38,74.5],[27.75,75.12],[25.25,75.88],[18.25,76.12],[14.75,75.62],[12.5,74.62],[12.12,74.0],[13.75,72.62],[15.5,72.12],[21.25,71.88]]]}},{"type":"Feature","properties":{"kind":"blob","cls":4,"id":29},"geometry":{"type":"Polygon","coordinates":[[[-60.5,-81.62],[-49.12,-81.5],[-52.0,-81.12],[-60.5,-81.62]]]}},{"type":"Feature","properties":{"kind":"blob","cls":1,"id":30},"geometry":{"type":"Polygon","coordinates":[[[-62.0,-51.38],[-58.75,-51.38],[-57.38,-50.25],[-57.38,-48.75],[-58.75,-47.62],[-60.5,-47.12],[-63.0,-47.62],[-64.12,-48.5],[-64.38,-49.5],[-63.5,-50.88],[-62.0,-51.38]]]}},{"type":"Feature","properties":{"kind":"blob","cls":4,"id":31},"geometry":{"type":"Polygon","coordinates":[[[-52.88,71.75],[-54.0,71.88],[-53.88,72.5],[-54.25,72.88],[-58.5,74.62],[-60.0,75.88],[-60.62,75.75],[-60.88,74.0],[-60.0,72.88],[-58.5,72.12],[-52.88,71.75]]]}},{"type":"Feature","properties":{"kind":"blob","cls":4,"id":32},"geometry":{"type":"Polygon","coordinates":[[[145.25,74.38],[149.0,74.88],[151.5,75.88],[151.88,76.75],[149.75,77.88],[144.75,78.62],[136.75,78.38],[134.5,77.88],[133.12,77.0],[133.5,76.12],[134.5,75.62],[139.25,74.62],[145.25,74.38]]]}},{"type":"Feature","properties":{"kind":"blob","cls":4,"id":33},"geometry":{"type":"Polygon","coordinates":[[[-34.75,53.38],[-33.0,53.88],[-30.88,55.5],[-30.88,56.5],[-31.75,57.38],[-33.5,57.88],[-37.5,57.38],[-39.38,56.0],[-39.38,54.75],[-38.5,53.88],[-34.75,53.38]]]}},{"type":"Feature","properties":{"kind":"blob","cls":4,"id":34},"geometry":{"type":"Polygon","coordinates":[[[-61.0,-23.62],[-59.38,-22.5],[-59.38,-20.0],[-61.25,-17.12],[-63.88,-17.0],[-63.62,-15.75],[-64.5,-14.62],[-66.75,-14.62],[-67.38,-15.5],[-65.5,-17.12],[-64.0,-17.62],[-63.38,-18.25],[-63.88,-19.0],[-63.12,-19.75],[-63.38,-20.75],[-63.88,-21.0],[-63.88,-22.25],[-62.75,-23.38],[-61.0,-23.62]]]}},{"type":"Feature","properties":{"kind":"blob","cls":4,"id":35},"geometry":{"type":"Polygon","coordinates":[[[69.5,53.62],[71.25,54.12],[72.12,55.0],[71.88,56.5],[70.75,57.62],[69.0,58.12],[65.75,57.62],[64.88,56.75],[64.88,55.75],[66.5,54.12],[69.5,53.62]]]}},{"type":"Feature","properties":{"kind":"blob","cls":4,"id":36},"geometry":{"type":"Polygon","coordinates":[[[-95.0,-36.88],[-93.38,-36.0],[-93.12,-34.25],[-93.75,-33.38],[-95.75,-32.88],[-97.38,-33.75],[-97.62,-35.5],[-97.0,-36.38],[-95.0,-36.88]]]}},{"type":"Feature","properties":{"kind":"blob","cls":4,"id":37},"geometry":{"type":"Polygon","coordinates":[[[-49.0,-34.12],[-48.12,-33.5],[-47.62,-32.5],[-47.88,-31.0],[-50.25,-29.62],[-52.0,-30.12],[-53.12,-31.5],[-52.88,-33.25],[-52.25,-33.88],[-49.0,-34.12]]]}},{"type":"Feature","properties":{"kind":"blob","cls":4,"id":38},"geometry":{"type":"Polygon","coordinates":[[[-66.25,-34.62],[-64.88,-33.25],[-65.38,-31.25],[-64.88,-31.0],[-64.88,-30.5],[-65.38,-30.0],[-64.38,-28.75],[-64.38,-27.75],[-65.25,-26.62],[-65.88,-27.25],[-65.5,-28.62],[-65.75,-28.38],[-66.25,-28.88],[-66.12,-28.0],[-66.5,-27.62],[-66.88,-28.0],[-66.62,-29.0],[-67.38,-29.75],[-67.38,-31.25],[-68.12,-31.5],[-67.62,-31.0],[-68.25,-29.88],[-68.62,-30.5],[-69.12,-33.5],[-68.38,-33.75],[-68.5,-34.62],[-66.25,-34.62]],[[-66.62,-31.0],[-66.5,-30.62],[-66.38,-30.75],[-66.62,-31.0]],[[-66.38,-32.75],[-65.75,-32.38],[-65.62,-33.0],[-66.38,-32.75]]]}},{"type":"Feature","properties":{"kind":"blob","cls":4,"id":39},"geometry":{"type":"Polygon","coordinates":[[[56.0,54.38],[59.0,55.38],[60.38,56.75],[60.12,58.0],[57.75,59.12],[55.5,59.12],[53.5,58.38],[51.88,56.5],[53.0,54.88],[56.0,54.38]]]}},{"type":"Feature","properties":{"kind":"blob","cls":4,"id":40},"geometry":{"type":"Polygon","coordinates":[[[-52.0,-38.12],[-50.75,-38.38],[-49.12,-37.25],[-49.12,-35.75],[-49.75,-35.12],[-51.75,-34.62],[-53.38,-35.75],[-53.38,-37.25],[-52.0,-38.12]]]}},{"type":"Feature","properties":{"kind":"blob","cls":4,"id":41},"geometry":{"type":"Polygon","coordinates":[[[72.75,29.62],[74.0,30.12],[74.62,31.0],[74.62,32.0],[74.25,32.38],[72.25,32.38],[70.5,31.88],[70.12,31.5],[70.12,30.25],[72.75,29.62]]]}},{"type":"Feature","properties":{"kind":"blob","cls":5,"id":42},"geometry":{"type":"Polygon","coordinates":[[[-150.25,74.12],[-146.5,74.62],[-143.75,75.62],[-142.62,76.5],[-142.62,77.0],[-144.0,77.88],[-148.75,78.62],[-156.5,78.62],[-160.25,78.12],[-161.88,77.5],[-156.25,77.38],[-154.0,76.88],[-153.12,76.25],[-155.25,75.38],[-160.38,75.0],[-158.0,74.38],[-150.25,74.12]]]}},{"type":"Feature","properties":{"kind":"blob","cls":4,"id":43},"geometry":{"type":"Polygon","coordinates":[[[-121.25,36.88],[-119.88,37.75],[-122.0,40.88],[-122.88,40.5],[-122.75,39.38],[-123.5,40.12],[-124.12,39.25],[-123.88,38.0],[-123.0,37.12],[-121.25,36.88]]]}},{"type":"Feature","properties":{"kind":"blob","cls":4,"id":44},"geometry":{"type":"Polygon","coordinates":[[[71.75,42.88],[75.0,42.88],[74.38,43.5],[74.75,43.88],[75.0,43.38],[76.0,43.12],[77.12,43.5],[75.75,44.88],[73.5,45.12],[71.88,44.25],[71.75,42.88]]]}},{"type":"Feature","properties":{"kind":"blob","cls":4,"id":45},"geometry":{"type":"Polygon","coordinates":[[[-86.75,47.12],[-84.25,48.38],[-83.62,49.5],[-83.88,50.5],[-86.0,51.62],[-88.25,51.62],[-90.0,50.88],[-90.62,50.0],[-90.38,48.5],[-89.25,47.38],[-86.75,47.12]]]}},{"type":"Feature","properties":{"kind":"blob","cls":4,"id":46},"geometry":{"type":"Polygon","coordinates":[[[125.0,38.38],[126.12,39.5],[126.12,40.5],[125.0,41.62],[123.0,42.38],[120.25,42.12],[119.12,41.0],[119.12,39.75],[120.25,38.62],[125.0,38.38]]]}},{"type":"Feature","properties":{"kind":"blob","cls":4,"id":47},"geometry":{"type":"Polygon","coordinates":[[[64.5,36.12],[65.0,35.88],[68.38,38.5],[68.0,38.62],[66.5,37.62],[66.38,38.25],[67.12,39.0],[66.75,39.38],[65.0,38.62],[64.12,37.25],[64.5,36.12]]]}},{"type":"Feature","properties":{"kind":"blob","cls":4,"id":48},"geometry":{"type":"MultiPolygon","coordinates":[[[[57.0,34.12],[57.38,35.0],[56.62,35.5],[57.12,36.25],[56.5,36.62],[55.75,35.62],[54.62,35.25],[57.0,34.12]]],[[[56.25,36.88],[56.12,36.75],[56.25,36.62],[56.25,36.88]]]]}},{"type":"Feature","properties":{"kind":"blob","cls":3,"id":49},"geometry":{"type":"Polygon","coordinates":[[[68.5,-30.88],[69.88,-29.25],[69.62,-28.0],[67.75,-26.62],[66.25,-26.88],[64.88,-28.5],[65.12,-29.75],[66.75,-29.88],[66.62,-30.75],[68.5,-30.88]]]}},{"type":"Feature","properties":{"kind":"blob","cls":4,"id":50},"geometry":{"type":"Polygon","coordinates":[[[54.5,35.88],[54.88,36.0],[54.75,36.12],[54.5,35.88]]]}},{"type":"Feature","properties":{"kind":"blob","cls":4,"id":51},"geometry":{"type":"MultiPolygon","coordinates":[[[[52.62,36.25],[53.25,36.12],[53.62,36.5],[53.25,36.62],[52.62,36.25]]],[[[53.75,36.88],[53.62,36.75],[54.25,36.62],[53.75,36.88]]],[[[54.5,37.12],[54.38,37.0],[55.38,37.0],[54.5,37.12]]]]}},{"type":"Feature","properties":{"kind":"center","id":1,"lat":-62.5,"lon":-124.0,"mslp":935.7,"hvtl":0.8,"hvtu":-104.8,"hb":43.9,"idx":-0.8,"cls":3,"psfc":935.7,"terrain":false,"radius_km":200,"name":"asym shallow warm","track":"T03"},"geometry":{"type":"Point","coordinates":[-124.0,-62.5]}},{"type":"Feature","properties":{"kind":"center","id":2,"lat":-56.0,"lon":-3.5,"mslp":944.9,"hvtl":247.1,"hvtu":-13.2,"hb":46.6,"idx":1.8,"cls":3,"psfc":944.9,"terrain":false,"radius_km":200,"name":"asym shallow warm","track":"T05"},"geometry":{"type":"Point","coordinates":[-3.5,-56.0]}},{"type":"Feature","properties":{"kind":"center","id":3,"lat":-70.75,"lon":-136.0,"mslp":947.4,"hvtl":-5.2,"hvtu":-57.6,"hb":48.2,"idx":-0.6,"cls":4,"psfc":947.4,"terrain":false,"radius_km":200,"name":"asym cold"},"geometry":{"type":"Point","coordinates":[-136.0,-70.75]}},{"type":"Feature","properties":{"kind":"center","id":4,"lat":-60.75,"lon":-151.0,"mslp":947.6,"hvtl":19.5,"hvtu":-93.6,"hb":37.4,"idx":-0.3,"cls":3,"psfc":947.6,"terrain":false,"radius_km":200,"name":"asym shallow warm","track":"T10"},"geometry":{"type":"Point","coordinates":[-151.0,-60.75]}},{"type":"Feature","properties":{"kind":"center","id":5,"lat":22.75,"lon":146.75,"mslp":949.5,"hvtl":135.4,"hvtu":203.7,"hb":-1.3,"idx":2.7,"cls":0,"psfc":949.5,"terrain":false,"radius_km":200,"name":"sym deep warm","track":"T02"},"geometry":{"type":"Point","coordinates":[146.75,22.75]}},{"type":"Feature","properties":{"kind":"center","id":6,"lat":-81.0,"lon":167.25,"mslp":955.1,"hvtl":-228.0,"hvtu":8.7,"hb":60.1,"idx":-1.9,"cls":6,"psfc":948.9,"terrain":false,"radius_km":200,"name":"shallow cold","track":"T17"},"geometry":{"type":"Point","coordinates":[167.25,-81.0]}},{"type":"Feature","properties":{"kind":"center","id":7,"lat":-63.5,"lon":132.0,"mslp":960.0,"hvtl":-81.2,"hvtu":-340.0,"hb":53.5,"idx":-2.3,"cls":4,"psfc":960.0,"terrain":false,"radius_km":200,"name":"asym cold","track":"T27"},"geometry":{"type":"Point","coordinates":[132.0,-63.5]}},{"type":"Feature","properties":{"kind":"center","id":8,"lat":-64.25,"lon":104.75,"mslp":961.6,"hvtl":-47.8,"hvtu":-27.9,"hb":17.0,"idx":-1.2,"cls":4,"psfc":961.6,"terrain":false,"radius_km":200,"name":"asym cold","track":"T16"},"geometry":{"type":"Point","coordinates":[104.75,-64.25]}},{"type":"Feature","properties":{"kind":"center","id":9,"lat":-51.5,"lon":109.25,"mslp":963.4,"hvtl":-129.2,"hvtu":-261.3,"hb":39.5,"idx":-2.7,"cls":4,"psfc":963.4,"terrain":false,"radius_km":200,"name":"asym cold","track":"T04"},"geometry":{"type":"Point","coordinates":[109.25,-51.5]}},{"type":"Feature","properties":{"kind":"center","id":10,"lat":-72.5,"lon":172.25,"mslp":965.6,"hvtl":-38.0,"hvtu":-30.7,"hb":21.4,"idx":-1.0,"cls":4,"psfc":965.6,"terrain":false,"radius_km":200,"name":"asym cold","track":"T35"},"geometry":{"type":"Point","coordinates":[172.25,-72.5]}},{"type":"Feature","properties":{"kind":"center","id":11,"lat":-56.0,"lon":98.5,"mslp":967.9,"hvtl":-293.5,"hvtu":-214.3,"hb":62.6,"idx":-3.0,"cls":4,"psfc":967.9,"terrain":false,"radius_km":200,"name":"asym cold"},"geometry":{"type":"Point","coordinates":[98.5,-56.0]}},{"type":"Feature","properties":{"kind":"center","id":12,"lat":-69.0,"lon":-16.75,"mslp":968.5,"hvtl":-109.6,"hvtu":-31.7,"hb":-35.8,"idx":-1.9,"cls":5,"psfc":968.5,"terrain":false,"radius_km":200,"name":"sym cold","track":"T36"},"geometry":{"type":"Point","coordinates":[-16.75,-69.0]}},{"type":"Feature","properties":{"kind":"center","id":13,"lat":54.25,"lon":-175.75,"mslp":971.1,"hvtl":1.0,"hvtu":-148.6,"hb":0.1,"idx":-0.9,"cls":1,"psfc":971.1,"terrain":false,"radius_km":200,"name":"sym shallow warm","track":"T40"},"geometry":{"type":"Point","coordinates":[-175.75,54.25]}},{"type":"Feature","properties":{"kind":"center","id":14,"lat":23.25,"lon":-175.5,"mslp":972.0,"hvtl":91.6,"hvtu":309.1,"hb":-3.3,"idx":2.4,"cls":0,"psfc":972.0,"terrain":false,"radius_km":200,"name":"sym deep warm","track":"T44"},"geometry":{"type":"Point","coordinates":[-175.5,23.25]}},{"type":"Feature","properties":{"kind":"center","id":15,"lat":20.0,"lon":-113.0,"mslp":972.5,"hvtl":50.3,"hvtu":243.1,"hb":8.0,"idx":1.9,"cls":0,"psfc":972.5,"terrain":false,"radius_km":200,"name":"sym deep warm","track":"T42"},"geometry":{"type":"Point","coordinates":[-113.0,20.0]}},{"type":"Feature","properties":{"kind":"center","id":16,"lat":-67.5,"lon":84.0,"mslp":974.4,"hvtl":-107.6,"hvtu":-64.6,"hb":17.2,"idx":-2.2,"cls":4,"psfc":920.8,"terrain":false,"radius_km":200,"name":"asym cold","track":"T38"},"geometry":{"type":"Point","coordinates":[84.0,-67.5]}},{"type":"Feature","properties":{"kind":"center","id":17,"lat":-58.25,"lon":60.5,"mslp":977.4,"hvtl":-156.8,"hvtu":-193.7,"hb":30.5,"idx":-2.8,"cls":4,"psfc":977.4,"terrain":false,"radius_km":200,"name":"asym cold","track":"T08"},"geometry":{"type":"Point","coordinates":[60.5,-58.25]}},{"type":"Feature","properties":{"kind":"center","id":18,"lat":67.5,"lon":-13.5,"mslp":977.6,"hvtl":145.8,"hvtu":-81.4,"hb":27.7,"idx":1.1,"cls":3,"psfc":977.6,"terrain":false,"radius_km":200,"name":"asym shallow warm","track":"T50"},"geometry":{"type":"Point","coordinates":[-13.5,67.5]}},{"type":"Feature","properties":{"kind":"center","id":19,"lat":-67.5,"lon":63.25,"mslp":981.7,"hvtl":-91.1,"hvtu":-95.0,"hb":15.8,"idx":-2.2,"cls":4,"psfc":967.1,"terrain":false,"radius_km":200,"name":"asym cold","track":"T48"},"geometry":{"type":"Point","coordinates":[63.25,-67.5]}},{"type":"Feature","properties":{"kind":"center","id":20,"lat":71.0,"lon":116.75,"mslp":985.2,"hvtl":-70.8,"hvtu":8.8,"hb":-6.4,"idx":-1.1,"cls":6,"psfc":969.3,"terrain":false,"radius_km":200,"name":"shallow cold","track":"T60"},"geometry":{"type":"Point","coordinates":[116.75,71.0]}},{"type":"Feature","properties":{"kind":"center","id":21,"lat":-50.25,"lon":-102.25,"mslp":987.7,"hvtl":-79.5,"hvtu":-7.1,"hb":23.3,"idx":-1.4,"cls":4,"psfc":987.6,"terrain":false,"radius_km":200,"name":"asym cold","track":"T73"},"geometry":{"type":"Point","coordinates":[-102.25,-50.25]}},{"type":"Feature","properties":{"kind":"center","id":22,"lat":-70.5,"lon":20.5,"mslp":988.1,"hvtl":-42.7,"hvtu":-250.8,"hb":9.5,"idx":-1.8,"cls":5,"psfc":982.0,"terrain":false,"radius_km":200,"name":"sym cold"},"geometry":{"type":"Point","coordinates":[20.5,-70.5]}},{"type":"Feature","properties":{"kind":"center","id":23,"lat":-70.0,"lon":32.25,"mslp":988.6,"hvtl":-32.0,"hvtu":-229.1,"hb":18.0,"idx":-1.6,"cls":4,"psfc":983.1,"terrain":false,"radius_km":200,"name":"asym cold","track":"T47"},"geometry":{"type":"Point","coordinates":[32.25,-70.0]}},{"type":"Feature","properties":{"kind":"center","id":24,"lat":-69.75,"lon":33.75,"mslp":989.1,"hvtl":-23.5,"hvtu":-217.7,"hb":19.5,"idx":-1.4,"cls":4,"psfc":908.5,"terrain":false,"radius_km":200,"name":"asym cold"},"geometry":{"type":"Point","coordinates":[33.75,-69.75]}},{"type":"Feature","properties":{"kind":"center","id":25,"lat":57.5,"lon":-150.25,"mslp":991.1,"hvtl":-61.1,"hvtu":-135.7,"hb":23.5,"idx":-2.0,"cls":4,"psfc":991.1,"terrain":false,"radius_km":200,"name":"asym cold","track":"T78"},"geometry":{"type":"Point","coordinates":[-150.25,57.5]}},{"type":"Feature","properties":{"kind":"center","id":26,"lat":67.25,"lon":-57.5,"mslp":991.1,"hvtl":17.7,"hvtu":-9.0,"hb":12.4,"idx":0.3,"cls":3,"psfc":991.1,"terrain":false,"radius_km":200,"name":"asym shallow warm","track":"T69"},"geometry":{"type":"Point","coordinates":[-57.5,67.25]}},{"type":"Feature","properties":{"kind":"center","id":27,"lat":61.25,"lon":-40.0,"mslp":992.7,"hvtl":-41.9,"hvtu":-297.2,"hb":4.1,"idx":-1.8,"cls":5,"psfc":992.7,"terrain":false,"radius_km":200,"name":"sym cold","track":"T62"},"geometry":{"type":"Point","coordinates":[-40.0,61.25]}},{"type":"Feature","properties":{"kind":"center","id":28,"lat":75.75,"lon":18.75,"mslp":993.8,"hvtl":-149.4,"hvtu":-152.5,"hb":42.0,"idx":-2.7,"cls":4,"psfc":993.8,"terrain":false,"radius_km":200,"name":"asym cold","track":"T63"},"geometry":{"type":"Point","coordinates":[18.75,75.75]}},{"type":"Feature","properties":{"kind":"center","id":29,"lat":-81.5,"lon":-60.5,"mslp":996.4,"hvtl":-353.3,"hvtu":-169.6,"hb":61.6,"idx":-2.9,"cls":4,"psfc":980.0,"terrain":false,"radius_km":200,"name":"asym cold","track":"T67"},"geometry":{"type":"Point","coordinates":[-60.5,-81.5]}},{"type":"Feature","properties":{"kind":"center","id":30,"lat":-49.5,"lon":-60.5,"mslp":996.5,"hvtl":82.9,"hvtu":-40.7,"hb":-1.9,"idx":1.0,"cls":1,"psfc":996.5,"terrain":false,"radius_km":200,"name":"sym shallow warm","track":"T86"},"geometry":{"type":"Point","coordinates":[-60.5,-49.5]}},{"type":"Feature","properties":{"kind":"center","id":31,"lat":72.0,"lon":-55.75,"mslp":997.3,"hvtl":-173.4,"hvtu":-62.3,"hb":47.3,"idx":-2.4,"cls":4,"psfc":993.7,"terrain":false,"radius_km":200,"name":"asym cold","track":"T80"},"geometry":{"type":"Point","coordinates":[-55.75,72.0]}},{"type":"Feature","properties":{"kind":"center","id":32,"lat":76.25,"lon":143.25,"mslp":997.8,"hvtl":-43.2,"hvtu":-130.8,"hb":20.4,"idx":-1.7,"cls":4,"psfc":997.8,"terrain":false,"radius_km":200,"name":"asym cold","track":"T75"},"geometry":{"type":"Point","coordinates":[143.25,76.25]}},{"type":"Feature","properties":{"kind":"center","id":33,"lat":56.5,"lon":-34.0,"mslp":997.8,"hvtl":-392.3,"hvtu":-403.0,"hb":99.7,"idx":-3.0,"cls":4,"psfc":997.8,"terrain":false,"radius_km":200,"name":"asym cold","track":"T59"},"geometry":{"type":"Point","coordinates":[-34.0,56.5]}},{"type":"Feature","properties":{"kind":"center","id":34,"lat":-20.75,"lon":-60.5,"mslp":1000.4,"hvtl":-3.6,"hvtu":-116.3,"hb":20.2,"idx":-0.9,"cls":4,"psfc":981.7,"terrain":false,"radius_km":200,"name":"asym cold","track":"T89"},"geometry":{"type":"Point","coordinates":[-60.5,-20.75]}},{"type":"Feature","properties":{"kind":"center","id":35,"lat":56.0,"lon":68.25,"mslp":1001.8,"hvtl":-199.3,"hvtu":-319.2,"hb":76.3,"idx":-2.9,"cls":4,"psfc":986.4,"terrain":false,"radius_km":200,"name":"asym cold","track":"T84"},"geometry":{"type":"Point","coordinates":[68.25,56.0]}},{"type":"Feature","properties":{"kind":"center","id":36,"lat":-35.0,"lon":-95.5,"mslp":1004.9,"hvtl":-145.0,"hvtu":-337.5,"hb":32.8,"idx":-2.8,"cls":4,"psfc":1004.9,"terrain":false,"radius_km":200,"name":"asym cold","track":"T93"},"geometry":{"type":"Point","coordinates":[-95.5,-35.0]}},{"type":"Feature","properties":{"kind":"center","id":37,"lat":-32.25,"lon":-50.0,"mslp":1005.4,"hvtl":-76.1,"hvtu":-149.9,"hb":30.6,"idx":-2.2,"cls":4,"psfc":1005.4,"terrain":false,"radius_km":200,"name":"asym cold","track":"T20"},"geometry":{"type":"Point","coordinates":[-50.0,-32.25]}},{"type":"Feature","properties":{"kind":"center","id":38,"lat":-28.5,"lon":-66.5,"mslp":1005.7,"hvtl":-51.3,"hvtu":-291.2,"hb":31.4,"idx":-1.9,"cls":4,"psfc":923.4,"terrain":false,"radius_km":200,"name":"asym cold","track":"T98"},"geometry":{"type":"Point","coordinates":[-66.5,-28.5]}},{"type":"Feature","properties":{"kind":"center","id":39,"lat":57.0,"lon":56.5,"mslp":1006.0,"hvtl":-134.5,"hvtu":-135.5,"hb":38.9,"idx":-2.6,"cls":4,"psfc":980.1,"terrain":false,"radius_km":200,"name":"asym cold","track":"T118"},"geometry":{"type":"Point","coordinates":[56.5,57.0]}},{"type":"Feature","properties":{"kind":"center","id":40,"lat":-36.5,"lon":-51.25,"mslp":1006.4,"hvtl":-26.7,"hvtu":-282.2,"hb":43.6,"idx":-1.5,"cls":4,"psfc":1006.4,"terrain":false,"radius_km":200,"name":"asym cold"},"geometry":{"type":"Point","coordinates":[-51.25,-36.5]}},{"type":"Feature","properties":{"kind":"center","id":41,"lat":30.75,"lon":71.0,"mslp":1007.7,"hvtl":-14.8,"hvtu":-77.4,"hb":17.4,"idx":-0.9,"cls":4,"psfc":991.7,"terrain":false,"radius_km":200,"name":"asym cold","track":"T103"},"geometry":{"type":"Point","coordinates":[71.0,30.75]}},{"type":"Feature","properties":{"kind":"center","id":42,"lat":76.25,"lon":-153.0,"mslp":1008.8,"hvtl":-89.3,"hvtu":-15.3,"hb":-1.9,"idx":-1.6,"cls":5,"psfc":1008.8,"terrain":false,"radius_km":200,"name":"sym cold","track":"T123"},"geometry":{"type":"Point","coordinates":[-153.0,76.25]}},{"type":"Feature","properties":{"kind":"center","id":43,"lat":38.5,"lon":-121.75,"mslp":1009.0,"hvtl":-102.5,"hvtu":-120.1,"hb":25.1,"idx":-2.4,"cls":4,"psfc":1007.8,"terrain":false,"radius_km":200,"name":"asym cold"},"geometry":{"type":"Point","coordinates":[-121.75,38.5]}},{"type":"Feature","properties":{"kind":"center","id":44,"lat":43.0,"lon":74.25,"mslp":1009.9,"hvtl":-383.7,"hvtu":-93.5,"hb":48.7,"idx":-2.7,"cls":4,"psfc":938.4,"terrain":false,"radius_km":200,"name":"asym cold"},"geometry":{"type":"Point","coordinates":[74.25,43.0]}},{"type":"Feature","properties":{"kind":"center","id":45,"lat":49.5,"lon":-87.25,"mslp":1010.2,"hvtl":-173.0,"hvtu":-293.8,"hb":45.1,"idx":-2.9,"cls":4,"psfc":963.9,"terrain":false,"radius_km":200,"name":"asym cold","track":"T61"},"geometry":{"type":"Point","coordinates":[-87.25,49.5]}},{"type":"Feature","properties":{"kind":"center","id":46,"lat":40.25,"lon":121.5,"mslp":1011.3,"hvtl":-0.9,"hvtu":-386.9,"hb":38.2,"idx":-1.0,"cls":4,"psfc":1011.3,"terrain":false,"radius_km":200,"name":"asym cold","track":"T94"},"geometry":{"type":"Point","coordinates":[121.5,40.25]}},{"type":"Feature","properties":{"kind":"center","id":47,"lat":37.25,"lon":66.75,"mslp":1012.9,"hvtl":-143.4,"hvtu":-134.5,"hb":61.9,"idx":-2.7,"cls":4,"psfc":980.4,"terrain":false,"radius_km":200,"name":"asym cold","track":"T131"},"geometry":{"type":"Point","coordinates":[66.75,37.25]}},{"type":"Feature","properties":{"kind":"center","id":48,"lat":35.25,"lon":55.0,"mslp":1015.6,"hvtl":-109.9,"hvtu":-239.5,"hb":138.7,"idx":-2.6,"cls":4,"psfc":931.1,"terrain":false,"radius_km":200,"name":"asym cold","track":"T125"},"geometry":{"type":"Point","coordinates":[55.0,35.25]}},{"type":"Feature","properties":{"kind":"center","id":49,"lat":-28.75,"lon":67.5,"mslp":1016.7,"hvtl":9.5,"hvtu":-178.9,"hb":25.4,"idx":-0.8,"cls":3,"psfc":1016.7,"terrain":false,"radius_km":200,"name":"asym shallow warm","track":"T134"},"geometry":{"type":"Point","coordinates":[67.5,-28.75]}},{"type":"Feature","properties":{"kind":"center","id":50,"lat":36.0,"lon":54.5,"mslp":1018.8,"hvtl":-177.2,"hvtu":-255.2,"hb":151.8,"idx":-2.9,"cls":4,"psfc":900.8,"terrain":true,"radius_km":200,"name":"asym cold"},"geometry":{"type":"Point","coordinates":[54.5,36.0]}},{"type":"Feature","properties":{"kind":"center","id":51,"lat":36.25,"lon":53.25,"mslp":1024.9,"hvtl":-152.4,"hvtu":-243.0,"hb":155.7,"idx":-2.8,"cls":4,"psfc":923.6,"terrain":true,"radius_km":200,"name":"asym cold"},"geometry":{"type":"Point","coordinates":[53.25,36.25]}}]}