{"type":"FeatureCollection","features":[{"type":"Feature","properties":{"kind":"blob","cls":3,"id":1},"geometry":{"type":"Polygon","coordinates":[[[54.5,-64.12],[59.25,-64.12],[60.88,-63.25],[61.12,-62.0],[60.0,-60.88],[57.25,-60.12],[53.25,-60.38],[51.38,-61.5],[51.25,-62.12],[53.25,-62.12],[54.12,-62.5],[54.0,-62.88],[52.0,-63.12],[52.25,-63.62],[54.5,-64.12]]]}},{"type":"Feature","properties":{"kind":"blob","cls":1,"id":2},"geometry":{"type":"Polygon","coordinates":[[[-126.25,-66.12],[-124.75,-65.38],[-124.12,-64.5],[-124.12,-63.75],[-125.25,-62.62],[-126.5,-62.12],[-128.12,-62.0],[-127.62,-62.5],[-128.0,-63.62],[-128.75,-63.62],[-129.62,-63.0],[-129.25,-61.88],[-127.0,-61.38],[-125.88,-60.25],[-125.88,-59.5],[-127.25,-58.12],[-129.0,-57.62],[-131.25,-57.62],[-133.0,-58.12],[-134.38,-59.5],[-134.12,-60.75],[-133.25,-61.38],[-130.12,-62.0],[-132.0,-62.38],[-133.88,-63.75],[-133.88,-64.5],[-133.25,-65.38],[-131.75,-66.12],[-126.25,-66.12]]]}},{"type":"Feature","properties":{"kind":"blob","cls":0,"id":3},"geometry":{"type":"Polygon","coordinates":[[[179.75,59.12],[180.0,62.88],[178.0,62.62],[176.38,61.5],[176.38,60.5],[177.0,59.88],[179.75,59.12]]]}},{"type":"Feature","properties":{"kind":"blob","cls":0,"id":3},"geometry":{"type":"Polygon","coordinates":[[[-180.0,62.88],[-180.0,59.12],[-177.5,59.38],[-175.88,60.5],[-175.88,61.5],[-176.5,62.12],[-177.75,62.62],[-178.5,61.88],[-179.5,61.88],[-179.88,62.25],[-180.0,62.88]]]}},{"type":"Feature","properties":{"kind":"blob","cls":4,"id":4},"geometry":{"type":"Polygon","coordinates":[[[149.75,-63.62],[151.62,-62.25],[151.62,-61.5],[150.5,-60.38],[147.75,-59.38],[144.5,-59.62],[142.88,-60.75],[142.62,-61.5],[143.0,-61.88],[144.75,-62.62],[145.75,-63.62],[149.75,-63.62]]]}},{"type":"Feature","properties":{"kind":"blob","cls":1,"id":5},"geometry":{"type":"Polygon","coordinates":[[[134.5,-60.38],[137.75,-60.38],[137.75,-59.88],[137.12,-59.75],[138.75,-59.88],[139.62,-59.0],[139.62,-58.0],[139.0,-57.38],[136.5,-56.38],[134.0,-56.62],[131.88,-58.0],[131.88,-59.0],[132.75,-59.88],[134.5,-60.38]]]}},{"type":"Feature","properties":{"kind":"blob","cls":0,"id":6},"geometry":{"type":"Polygon","coordinates":[[[121.25,-59.38],[124.0,-58.38],[127.0,-58.12],[128.0,-57.88],[128.12,-57.5],[126.25,-56.12],[123.0,-55.88],[121.0,-56.62],[120.12,-57.5],[120.12,-58.5],[121.25,-59.38]]]}},{"type":"Feature","properties":{"kind":"blob","cls":0,"id":7},"geometry":{"type":"Polygon","coordinates":[[[125.25,-60.12],[127.38,-59.25],[121.88,-59.75],[125.25,-60.12]]]}},{"type":"Feature","properties":{"kind":"blob","cls":4,"id":8},"geometry":{"type":"Polygon","coordinates":[[[-39.25,-68.88],[-34.25,-68.88],[-31.75,-67.88],[-30.88,-67.0],[-30.88,-66.5],[-31.5,-65.62],[-33.25,-64.88],[-37.75,-64.62],[-40.75,-65.38],[-42.62,-66.75],[-42.62,-67.5],[-41.75,-68.38],[-39.25,-68.88]]]}},{"type":"Feature","properties":{"kind":"blob","cls":4,"id":9},"geometry":{"type":"Polygon","coordinates":[[[-110.0,-70.62],[-108.25,-69.88],[-107.62,-69.0],[-108.25,-68.12],[-110.0,-67.38],[-114.0,-67.12],[-116.5,-67.62],[-117.5,-68.12],[-118.12,-69.0],[-117.5,-69.88],[-116.5,-70.38],[-110.0,-70.62]]]}},{"type":"Feature","properties":{"kind":"blob","cls":1,"id":10},"geometry":{"type":"Polygon","coordinates":[[[35.5,-66.88],[38.0,-65.38],[41.88,-64.25],[39.5,-63.62],[35.25,-64.12],[33.88,-65.25],[33.88,-65.75],[35.5,-66.88]]]}},{"type":"Feature","properties":{"kind":"blob","cls":1,"id":11},"geometry":{"type":"Polygon","coordinates":[[[40.75,-66.88],[41.0,-67.12],[42.25,-66.62],[43.12,-65.75],[43.12,-65.25],[42.5,-64.62],[40.75,-66.88]]]}},{"type":"Feature","properties":{"kind":"blob","cls":0,"id":12},"geometry":{"type":"Polygon","coordinates":[[[145.5,16.38],[145.88,17.0],[145.88,18.0],[145.0,19.12],[143.75,19.38],[142.38,18.5],[142.25,17.38],[143.75,17.38],[145.5,16.38]]]}},{"type":"Feature","properties":{"kind":"blob","cls":0,"id":13},"geometry":{"type":"Polygon","coordinates":[[[160.25,13.12],[161.75,13.12],[162.62,14.25],[162.38,15.75],[161.0,16.62],[159.75,16.38],[158.88,15.25],[159.12,13.75],[160.25,13.12]],[[159.62,15.0],[160.0,15.38],[161.62,15.5],[161.0,14.62],[159.62,15.0]]]}},{"type":"Feature","properties":{"kind":"blob","cls":4,"id":14},"geometry":{"type":"Polygon","coordinates":[[[-37.75,-79.12],[-35.5,-78.62],[-35.25,-78.12],[-33.88,-77.5],[-34.5,-76.62],[-35.5,-76.12],[-40.5,-75.38],[-48.0,-75.62],[-50.5,-76.12],[-51.88,-77.0],[-51.5,-77.88],[-50.0,-78.62],[-47.75,-79.12],[-37.75,-79.12]],[[-47.12,-78.25],[-45.62,-78.25],[-45.75,-78.38],[-47.12,-78.25]]]}},{"type":"Feature","properties":{"kind":"blob","cls":1,"id":15},"geometry":{"type":"Polygon","coordinates":[[[20.0,-70.62],[28.75,-70.38],[33.0,-69.88],[33.12,-69.5],[32.25,-68.62],[30.0,-67.88],[24.75,-67.62],[21.0,-68.62],[19.88,-69.5],[20.0,-70.62]]]}},{"type":"Feature","properties":{"kind":"blob","cls":1,"id":16},"geometry":{"type":"Polygon","coordinates":[[[-0.25,63.88],[2.0,64.38],[3.38,65.25],[3.62,66.25],[3.25,66.88],[1.0,67.88],[-2.75,67.88],[-2.62,69.25],[-5.0,70.38],[-9.25,70.62],[-11.75,70.12],[-13.12,69.25],[-13.12,68.25],[-11.75,67.12],[-9.25,66.62],[-6.0,66.88],[-6.12,65.5],[-5.25,64.62],[-0.25,63.88]],[[-4.62,66.5],[-4.62,67.0],[-3.75,67.62],[-2.25,67.62],[-1.62,67.25],[-2.75,66.38],[-4.62,66.5]]]}},{"type":"Feature","properties":{"kind":"blob","cls":4,"id":17},"geometry":{"type":"Polygon","coordinates":[[[-14.25,-58.88],[-9.0,-58.88],[-7.62,-58.0],[-7.12,-56.75],[-8.75,-55.38],[-11.75,-54.62],[-14.75,-54.62],[-16.5,-55.12],[-17.62,-56.5],[-17.38,-57.0],[-16.0,-58.38],[-14.25,-58.88]]]}},{"type":"Feature","properties":{"kind":"blob","cls":4,"id":18},"geometry":{"type":"Polygon","coordinates":[[[-169.0,-83.38],[-166.62,-83.25],[-166.75,-83.12],[-169.0,-83.38]]]}},{"type":"Feature","properties":{"kind":"blob","cls":4,"id":19},"geometry":{"type":"Polygon","coordinates":[[[-79.0,-79.12],[-78.5,-79.12],[-76.75,-78.38],[-72.25,-77.88],[-70.88,-77.0],[-70.88,-76.5],[-71.25,-76.12],[-73.25,-76.12],[-72.62,-75.75],[-74.5,-75.12],[-79.0,-74.88],[-80.62,-75.75],[-80.25,-76.38],[-78.5,-76.62],[-77.62,-77.25],[-78.88,-77.5],[-79.0,-79.12]]]}},{"type":"Feature","properties":{"kind":"blob","cls":5,"id":20},"geometry":{"type":"Polygon","coordinates":[[[162.25,-79.38],[163.75,-79.62],[168.0,-79.12],[170.0,-78.38],[170.38,-77.5],[169.25,-76.62],[167.5,-76.12],[163.75,-75.88],[162.38,-77.0],[164.62,-78.5],[161.75,-78.62],[162.25,-79.38]],[[166.62,-77.5],[169.12,-77.5],[169.0,-77.62],[166.62,-77.5]]]}},{"type":"Feature","properties":{"kind":"blob","cls":5,"id":21},"geometry":{"type":"Polygon","coordinates":[[[164.5,-75.12],[165.25,-75.12],[167.25,-74.62],[168.38,-73.75],[168.38,-73.25],[166.75,-73.12],[165.75,-73.88],[165.0,-73.62],[164.5,-75.12]]]}},{"type":"Feature","properties":{"kind":"blob","cls":4,"id":22},"geometry":{"type":"Polygon","coordinates":[[[-111.0,50.38],[-109.5,50.12],[-107.5,50.88],[-106.62,51.75],[-106.62,53.0],[-107.5,53.88],[-109.0,54.38],[-110.25,54.38],[-112.25,53.62],[-113.12,52.5],[-111.62,52.0],[-112.12,51.25],[-111.0,50.38]]]}},{"type":"Feature","properties":{"kind":"blob","cls":4,"id":23},"geometry":{"type":"Polygon","coordinates":[[[56.5,77.12],[61.25,77.62],[64.5,78.62],[65.88,80.0],[64.0,81.12],[61.0,81.62],[46.5,81.88],[40.25,81.12],[39.0,80.62],[38.12,79.75],[38.5,79.12],[40.75,78.12],[45.0,77.38],[56.5,77.12]]]}},{"type":"Feature","properties":{"kind":"blob","cls":1,"id":24},"geometry":{"type":"Polygon","coordinates":[[[-91.75,-46.88],[-90.5,-46.38],[-89.38,-45.0],[-89.62,-44.0],[-91.5,-42.88],[-93.0,-42.88],[-94.25,-43.38],[-95.12,-44.5],[-95.12,-45.25],[-94.25,-46.38],[-91.75,-46.88]]]}},{"type":"Feature","properties":{"kind":"blob","cls":4,"id":25},"geometry":{"type":"Polygon","coordinates":[[[-52.0,49.62],[-50.5,50.12],[-49.38,51.5],[-49.38,52.5],[-51.25,54.12],[-53.25,54.38],[-54.75,53.88],[-56.12,52.5],[-56.12,51.0],[-55.25,50.12],[-52.0,49.62]]]}},{"type":"Feature","properties":{"kind":"blob","cls":1,"id":26},"geometry":{"type":"Polygon","coordinates":[[[-125.25,22.62],[-124.12,23.75],[-124.12,25.5],[-126.0,26.88],[-127.5,26.62],[-128.38,25.75],[-128.38,23.75],[-127.25,22.62],[-125.25,22.62]]]}},{"type":"Feature","properties":{"kind":"blob","cls":4,"id":27},"geometry":{"type":"Polygon","coordinates":[[[19.0,58.38],[20.75,58.88],[22.38,60.0],[22.38,61.0],[21.25,62.12],[18.0,63.38],[14.75,63.12],[12.38,61.5],[12.38,60.25],[13.25,59.38],[14.25,58.88],[19.0,58.38]]]}},{"type":"Feature","properties":{"kind":"blob","cls":1,"id":28},"geometry":{"type":"Polygon","coordinates":[[[179.88,28.5],[180.0,32.38],[179.5,32.38],[177.62,31.0],[177.62,30.0],[178.75,28.62],[179.88,28.5]]]}},{"type":"Feature","properties":{"kind":"blob","cls":1,"id":28},"geometry":{"type":"Polygon","coordinates":[[[-179.88,32.25],[-180.0,28.62],[-179.25,28.62],[-178.12,30.0],[-178.12,31.0],[-179.25,32.12],[-179.88,32.25]]]}},{"type":"Feature","properties":{"kind":"blob","cls":4,"id":29},"geometry":{"type":"Polygon","coordinates":[[[39.0,57.38],[40.75,57.88],[41.62,58.75],[41.88,60.0],[40.25,61.38],[43.75,61.12],[46.75,61.88],[48.12,63.0],[48.12,64.0],[46.25,65.12],[41.5,65.38],[39.5,64.88],[38.38,64.0],[38.38,62.0],[38.0,61.38],[37.5,61.38],[36.62,62.25],[36.25,63.38],[33.25,62.62],[32.38,61.75],[32.38,60.75],[35.25,57.88],[39.0,57.38]]]}},{"type":"Feature","properties":{"kind":"blob","cls":4,"id":30},"geometry":{"type":"Polygon","coordinates":[[[-85.75,-44.12],[-84.25,-43.38],[-83.62,-42.5],[-83.88,-41.0],[-85.5,-40.12],[-86.75,-40.12],[-88.25,-40.88],[-88.62,-42.75],[-88.25,-43.38],[-85.75,-44.12]]]}},{"type":"Feature","properties":{"kind":"blob","cls":4,"id":31},"geometry":{"type":"MultiPolygon","coordinates":[[[[-147.0,58.12],[-145.25,58.62],[-144.38,59.25],[-144.12,60.25],[-144.5,60.88],[-145.25,60.62],[-146.0,61.12],[-148.75,60.88],[-149.38,61.25],[-148.62,61.5],[-149.0,61.88],[-150.75,61.38],[-151.62,60.75],[-151.88,59.75],[-150.75,58.62],[-147.0,58.12]],[[-148.62,60.25],[-149.0,60.12],[-149.12,60.5],[-149.0,60.62],[-148.62,60.25]],[[-150.62,59.75],[-150.0,60.38],[-149.88,60.0],[-150.62,59.75]]],[[[-145.0,61.12],[-145.12,61.0],[-145.0,60.88],[-145.0,61.12]]]]}},{"type":"Feature","properties":{"kind":"blob","cls":4,"id":32},"geometry":{"type":"Polygon","coordinates":[[[155.25,68.62],[160.0,69.12],[161.75,69.62],[162.88,71.0],[160.0,72.88],[157.25,73.38],[151.25,73.12],[149.0,72.62],[147.12,71.5],[146.88,71.0],[148.0,69.62],[150.0,68.88],[155.25,68.62]]]}},{"type":"Feature","properties":{"kind":"blob","cls":0,"id":33},"geometry":{"type":"Polygon","coordinates":[[[144.88,16.0],[145.0,15.88],[145.12,16.0],[144.88,16.0]]]}},{"type":"Feature","properties":{"kind":"blob","cls":4,"id":34},"geometry":{"type":"Polygon","coordinates":[[[-49.0,39.88],[-47.88,41.0],[-48.12,42.75],[-50.0,43.88],[-51.0,43.88],[-52.5,43.12],[-53.12,42.25],[-53.12,41.0],[-52.0,39.88],[-49.0,39.88]]]}},{"type":"Feature","properties":{"kind":"blob","cls":0,"id":35},"geometry":{"type":"Polygon","coordinates":[[[143.75,15.62],[144.38,15.75],[144.25,15.88],[143.75,15.62]]]}},{"type":"Feature","properties":{"kind":"blob","cls":4,"id":36},"geometry":{"type":"Polygon","coordinates":[[[115.5,46.88],[117.0,47.62],[117.38,49.25],[116.0,50.62],[113.75,50.88],[112.88,50.25],[113.62,50.0],[113.12,49.25],[115.5,46.88]]]}},{"type":"Feature","properties":{"kind":"blob","cls":1,"id":37},"geometry":{"type":"Polygon","coordinates":[[[-74.25,54.62],[-72.5,55.12],[-71.38,56.5],[-71.62,57.25],[-72.5,58.12],[-74.25,58.62],[-77.5,58.12],[-78.62,56.75],[-78.38,56.25],[-77.25,55.12],[-74.25,54.62]]]}},{"type":"Feature","properties":{"kind":"blob","cls":1,"id":38},"geometry":{"type":"Polygon","coordinates":[[[-72.75,61.12],[-70.75,61.12],[-69.38,62.25],[-69.38,63.25],[-71.25,64.38],[-75.25,64.62],[-77.25,64.12],[-78.38,63.25],[-78.25,62.62],[-76.0,62.62],[-72.75,61.12]]]}},{"type":"Feature","properties":{"kind":"blob","cls":0,"id":39},"geometry":{"type":"Polygon","coordinates":[[[-105.0,12.88],[-103.75,14.12],[-100.88,14.25],[-101.75,15.12],[-103.25,15.38],[-104.88,14.25],[-105.0,12.88]]]}},{"type":"Feature","properties":{"kind":"blob","cls":4,"id":40},"geometry":{"type":"Polygon","coordinates":[[[-121.75,37.38],[-120.38,38.25],[-121.88,40.25],[-122.0,41.12],[-122.88,40.75],[-122.62,39.5],[-123.0,39.38],[-123.62,40.5],[-123.38,41.5],[-124.0,41.62],[-124.88,40.75],[-124.88,39.75],[-124.38,38.5],[-123.5,37.62],[-121.75,37.38]]]}},{"type":"Feature","properties":{"kind":"blob","cls":4,"id":41},"geometry":{"type":"Polygon","coordinates":[[[-116.5,34.62],[-115.88,35.25],[-116.5,35.62],[-117.25,35.12],[-116.62,35.75],[-117.75,35.88],[-118.12,35.0],[-116.5,34.62]]]}},{"type":"Feature","properties":{"kind":"blob","cls":4,"id":42},"geometry":{"type":"Polygon","coordinates":[[[-70.0,74.38],[-68.0,74.88],[-66.5,75.62],[-66.12,76.25],[-67.0,77.12],[-68.0,76.88],[-67.38,77.25],[-69.25,77.88],[-75.25,78.38],[-78.75,77.38],[-81.5,77.62],[-82.5,77.12],[-83.12,76.25],[-82.75,75.62],[-80.75,75.38],[-81.12,75.0],[-80.25,74.62],[-70.0,74.38]]]}},{"type":"Feature","properties":{"kind":"blob","cls":4,"id":43},"geometry":{"type":"Polygon","coordinates":[[[-34.75,60.88],[-32.25,61.62],[-31.12,62.75],[-30.88,64.25],[-31.75,65.38],[-33.25,66.12],[-36.0,66.38],[-40.62,64.25],[-38.75,61.62],[-34.75,60.88]]]}},{"type":"Feature","properties":{"kind":"blob","cls":0,"id":44},"geometry":{"type":"Polygon","coordinates":[[[-101.75,10.88],[-101.12,11.75],[-104.38,11.75],[-103.75,10.88],[-101.75,10.88]]]}},{"type":"Feature","properties":{"kind":"blob","cls":4,"id":45},"geometry":{"type":"Polygon","coordinates":[[[112.62,49.75],[112.75,49.62],[112.88,49.75],[112.62,49.75]]]}},{"type":"Feature","properties":{"kind":"blob","cls":4,"id":46},"geometry":{"type":"Polygon","coordinates":[[[-19.75,-37.12],[-18.12,-36.25],[-17.88,-34.5],[-18.5,-33.62],[-20.75,-32.88],[-22.88,-34.0],[-22.88,-36.0],[-22.25,-36.62],[-19.75,-37.12]]]}},{"type":"Feature","properties":{"kind":"blob","cls":4,"id":47},"geometry":{"type":"Polygon","coordinates":[[[-118.75,35.38],[-118.62,36.0],[-119.25,36.88],[-119.38,36.0],[-118.75,35.38]]]}},{"type":"Feature","properties":{"kind":"blob","cls":4,"id":48},"geometry":{"type":"Polygon","coordinates":[[[-50.5,60.62],[-48.5,61.12],[-48.12,61.75],[-49.75,62.88],[-51.25,62.38],[-54.25,62.38],[-54.88,63.0],[-55.12,64.0],[-56.0,64.62],[-56.88,63.5],[-56.38,62.25],[-55.0,61.12],[-50.5,60.62]]]}},{"type":"Feature","properties":{"kind":"blob","cls":4,"id":49},"geometry":{"type":"Polygon","coordinates":[[[72.75,29.12],[74.5,28.88],[75.75,29.38],[76.38,30.25],[76.38,31.25],[75.88,32.0],[75.25,32.38],[72.25,32.38],[70.5,31.88],[70.38,30.75],[70.88,30.0],[72.75,29.12]]]}},{"type":"Feature","properties":{"kind":"blob","cls":3,"id":50},"geometry":{"type":"Polygon","coordinates":[[[-54.25,34.62],[-52.25,34.38],[-51.25,34.88],[-50.62,35.5],[-50.62,37.25],[-52.5,38.62],[-53.75,38.62],[-54.75,38.12],[-55.62,37.25],[-55.62,35.5],[-54.25,34.62]]]}},{"type":"Feature","properties":{"kind":"blob","cls":5,"id":51},"geometry":{"type":"MultiPolygon","coordinates":[[[[179.75,80.88],[180.0,83.38],[167.5,82.88],[164.25,82.38],[162.75,81.88],[162.12,81.25],[162.75,80.62],[164.25,80.12],[167.5,79.62],[171.5,79.62],[173.0,80.12],[179.75,80.88]]],[[[180.0,79.88],[179.38,79.75],[179.5,79.62],[180.0,79.88]]]]}},{"type":"Feature","properties":{"kind":"blob","cls":5,"id":51},"geometry":{"type":"Polygon","coordinates":[[[-180.0,79.62],[-172.0,80.38],[-170.0,81.12],[-169.88,81.75],[-171.0,82.38],[-173.5,82.88],[-180.0,83.38],[-180.0,80.88],[-171.88,81.0],[-180.0,79.62]]]}},{"type":"Feature","properties":{"kind":"blob","cls":3,"id":52},"geometry":{"type":"Polygon","coordinates":[[[163.0,30.88],[164.12,31.75],[164.38,33.5],[163.75,34.38],[161.75,34.88],[160.12,34.0],[159.88,32.0],[160.5,31.12],[163.0,30.88]]]}},{"type":"Feature","properties":{"kind":"blob","cls":3,"id":53},"geometry":{"type":"Polygon","coordinates":[[[-52.75,-29.88],[-51.62,-28.5],[-51.88,-27.25],[-53.5,-26.12],[-54.75,-26.38],[-55.88,-27.75],[-55.62,-29.0],[-54.75,-29.88],[-52.75,-29.88]]]}},{"type":"Feature","properties":{"kind":"blob","cls":4,"id":54},"geometry":{"type":"Polygon","coordinates":[[[109.0,60.62],[112.25,61.38],[113.38,62.25],[113.38,63.25],[111.5,64.62],[109.5,65.12],[106.5,65.12],[104.0,64.38],[103.12,63.25],[103.12,62.25],[104.75,61.12],[109.0,60.62]]]}},{"type":"Feature","properties":{"kind":"blob","cls":5,"id":55},"geometry":{"type":"Polygon","coordinates":[[[166.25,-37.88],[168.75,-38.12],[170.62,-36.75],[170.62,-35.0],[169.75,-33.88],[167.75,-33.38],[166.0,-34.12],[165.12,-35.0],[164.88,-37.0],[166.25,-37.88]],[[167.25,-37.38],[166.88,-37.25],[166.88,-36.75],[167.75,-36.12],[168.12,-36.75],[167.25,-37.38]]]}},{"type":"Feature","properties":{"kind":"blob","cls":4,"id":56},"geometry":{"type":"Polygon","coordinates":[[[-122.62,41.75],[-122.5,41.62],[-122.38,41.75],[-122.62,41.75]]]}},{"type":"Feature","properties":{"kind":"blob","cls":4,"id":57},"geometry":{"type":"Polygon","coordinates":[[[-122.88,42.25],[-122.75,42.12],[-122.62,42.25],[-122.88,42.25]]]}},{"type":"Feature","properties":{"kind":"blob","cls":4,"id":58},"geometry":{"type":"Polygon","coordinates":[[[32.0,-34.62],[33.12,-33.5],[32.88,-32.0],[31.0,-30.88],[29.25,-31.38],[28.62,-32.25],[28.88,-33.75],[29.5,-34.38],[32.0,-34.62]]]}},{"type":"Feature","properties":{"kind":"blob","cls":4,"id":59},"geometry":{"type":"Polygon","coordinates":[[[-64.0,-21.38],[-63.62,-21.25],[-64.0,-20.62],[-64.0,-21.38]]]}},{"type":"Feature","properties":{"kind":"center","id":1,"lat":-62.25,"lon":55.75,"mslp":941.0,"hvtl":263.4,"hvtu":-51.8,"hb":37.7,"idx":1.5,"cls":3,"psfc":941.0,"terrain":false,"radius_km":200,"name":"asym shallow warm","track":"T07"},"geometry":{"type":"Point","coordinates":[55.75,-62.25]}},{"type":"Feature","properties":{"kind":"center","id":2,"lat":-59.75,"lon":-130.25,"mslp":951.6,"hvtl":57.1,"hvtu":-85.4,"hb":-4.8,"idx":0.3,"cls":1,"psfc":951.6,"terrain":false,"radius_km":200,"name":"sym shallow warm","track":"T11"},"geometry":{"type":"Point","coordinates":[-130.25,-59.75]}},{"type":"Feature","properties":{"kind":"center","id":3,"lat":61.0,"lon":-179.75,"mslp":954.4,"hvtl":152.0,"hvtu":41.8,"hb":0.5,"idx":2.2,"cls":0,"psfc":954.4,"terrain":false,"radius_km":200,"name":"sym deep warm","track":"T02"},"geometry":{"type":"Point","coordinates":[-179.75,61.0]}},{"type":"Feature","properties":{"kind":"center","id":4,"lat":-61.5,"lon":147.0,"mslp":955.0,"hvtl":-35.1,"hvtu":-135.5,"hb":51.4,"idx":-1.5,"cls":4,"psfc":954.9,"terrain":false,"radius_km":200,"name":"asym cold","track":"T15"},"geometry":{"type":"Point","coordinates":[147.0,-61.5]}},{"type":"Feature","properties":{"kind":"center","id":5,"lat":-58.5,"lon":135.75,"mslp":956.1,"hvtl":56.3,"hvtu":-75.2,"hb":7.6,"idx":0.4,"cls":1,"psfc":956.1,"terrain":false,"radius_km":200,"name":"sym shallow warm","track":"T22"},"geometry":{"type":"Point","coordinates":[135.75,-58.5]}},{"type":"Feature","properties":{"kind":"center","id":6,"lat":-58.0,"lon":124.0,"mslp":957.8,"hvtl":167.4,"hvtu":45.0,"hb":-40.5,"idx":2.3,"cls":0,"psfc":957.8,"terrain":false,"radius_km":200,"name":"sym deep warm","track":"T18"},"geometry":{"type":"Point","coordinates":[124.0,-58.0]}},{"type":"Feature","properties":{"kind":"center","id":7,"lat":-59.25,"lon":127.25,"mslp":959.6,"hvtl":99.8,"hvtu":40.1,"hb":9.7,"idx":1.9,"cls":0,"psfc":959.6,"terrain":false,"radius_km":200,"name":"sym deep warm","track":"T26"},"geometry":{"type":"Point","coordinates":[127.25,-59.25]}},{"type":"Feature","properties":{"kind":"center","id":8,"lat":-66.75,"lon":-36.5,"mslp":962.2,"hvtl":-43.2,"hvtu":-204.3,"hb":30.4,"idx":-1.8,"cls":4,"psfc":962.2,"terrain":false,"radius_km":200,"name":"asym cold","track":"T28"},"geometry":{"type":"Point","coordinates":[-36.5,-66.75]}},{"type":"Feature","properties":{"kind":"center","id":9,"lat":-67.5,"lon":-113.25,"mslp":962.2,"hvtl":-46.1,"hvtu":-207.9,"hb":29.7,"idx":-1.8,"cls":4,"psfc":962.2,"terrain":false,"radius_km":200,"name":"asym cold","track":"T29"},"geometry":{"type":"Point","coordinates":[-113.25,-67.5]}},{"type":"Feature","properties":{"kind":"center","id":10,"lat":-64.25,"lon":41.75,"mslp":967.4,"hvtl":142.3,"hvtu":-21.0,"hb":-12.7,"idx":1.6,"cls":1,"psfc":967.4,"terrain":false,"radius_km":200,"name":"sym shallow warm"},"geometry":{"type":"Point","coordinates":[41.75,-64.25]}},{"type":"Feature","properties":{"kind":"center","id":11,"lat":-64.75,"lon":42.5,"mslp":967.9,"hvtl":176.1,"hvtu":-44.3,"hb":-13.2,"idx":1.5,"cls":1,"psfc":967.9,"terrain":false,"radius_km":200,"name":"sym shallow warm","track":"T20"},"geometry":{"type":"Point","coordinates":[42.5,-64.75]}},{"type":"Feature","properties":{"kind":"center","id":12,"lat":17.5,"lon":144.0,"mslp":969.5,"hvtl":173.2,"hvtu":130.4,"hb":5.9,"idx":2.7,"cls":0,"psfc":969.5,"terrain":false,"radius_km":200,"name":"sym deep warm","track":"T06"},"geometry":{"type":"Point","coordinates":[144.0,17.5]}},{"type":"Feature","properties":{"kind":"center","id":13,"lat":14.5,"lon":160.75,"mslp":974.3,"hvtl":130.4,"hvtu":158.6,"hb":-7.5,"idx":2.6,"cls":0,"psfc":974.3,"terrain":false,"radius_km":200,"name":"sym deep warm","track":"T12"},"geometry":{"type":"Point","coordinates":[160.75,14.5]}},{"type":"Feature","properties":{"kind":"center","id":14,"lat":-77.0,"lon":-42.0,"mslp":975.8,"hvtl":-164.8,"hvtu":-62.5,"hb":46.4,"idx":-2.4,"cls":4,"psfc":975.8,"terrain":false,"radius_km":200,"name":"asym cold","track":"T05"},"geometry":{"type":"Point","coordinates":[-42.0,-77.0]}},{"type":"Feature","properties":{"kind":"center","id":15,"lat":-69.75,"lon":27.75,"mslp":975.8,"hvtl":19.9,"hvtu":-60.1,"hb":-5.2,"idx":-0.1,"cls":1,"psfc":975.8,"terrain":false,"radius_km":200,"name":"sym shallow warm","track":"T52"},"geometry":{"type":"Point","coordinates":[27.75,-69.75]}},{"type":"Feature","properties":{"kind":"center","id":16,"lat":66.0,"lon":-1.25,"mslp":978.7,"hvtl":12.4,"hvtu":-76.9,"hb":6.5,"idx":-0.4,"cls":1,"psfc":978.7,"terrain":false,"radius_km":200,"name":"sym shallow warm","track":"T57"},"geometry":{"type":"Point","coordinates":[-1.25,66.0]}},{"type":"Feature","properties":{"kind":"center","id":17,"lat":-57.0,"lon":-12.25,"mslp":980.1,"hvtl":-74.2,"hvtu":-59.2,"hb":10.1,"idx":-1.8,"cls":4,"psfc":980.1,"terrain":false,"radius_km":200,"name":"asym cold","track":"T54"},"geometry":{"type":"Point","coordinates":[-12.25,-57.0]}},{"type":"Feature","properties":{"kind":"center","id":18,"lat":-83.25,"lon":-166.75,"mslp":983.8,"hvtl":-13.1,"hvtu":-140.6,"hb":46.8,"idx":-1.1,"cls":4,"psfc":974.0,"terrain":false,"radius_km":200,"name":"asym cold"},"geometry":{"type":"Point","coordinates":[-166.75,-83.25]}},{"type":"Feature","properties":{"kind":"center","id":19,"lat":-76.5,"lon":-79.25,"mslp":984.8,"hvtl":-381.2,"hvtu":-234.4,"hb":108.4,"idx":-3.0,"cls":4,"psfc":900.9,"terrain":false,"radius_km":200,"name":"asym cold","track":"T58"},"geometry":{"type":"Point","coordinates":[-79.25,-76.5]}},{"type":"Feature","properties":{"kind":"center","id":20,"lat":-77.5,"lon":165.0,"mslp":985.8,"hvtl":-109.2,"hvtu":-60.3,"hb":-16.8,"idx":-2.1,"cls":5,"psfc":985.8,"terrain":false,"radius_km":200,"name":"sym cold","track":"T66"},"geometry":{"type":"Point","coordinates":[165.0,-77.5]}},{"type":"Feature","properties":{"kind":"center","id":21,"lat":-75.0,"lon":165.0,"mslp":987.0,"hvtl":-75.5,"hvtu":-227.1,"hb":-6.3,"idx":-2.3,"cls":5,"psfc":987.0,"terrain":false,"radius_km":200,"name":"sym cold","track":"T46"},"geometry":{"type":"Point","coordinates":[165.0,-75.0]}},{"type":"Feature","properties":{"kind":"center","id":22,"lat":52.5,"lon":-109.75,"mslp":987.1,"hvtl":-1.2,"hvtu":-223.9,"hb":131.3,"idx":-1.0,"cls":4,"psfc":913.4,"terrain":false,"radius_km":200,"name":"asym cold","track":"T72"},"geometry":{"type":"Point","coordinates":[-109.75,52.5]}},{"type":"Feature","properties":{"kind":"center","id":23,"lat":79.5,"lon":51.25,"mslp":988.9,"hvtl":-0.2,"hvtu":-12.9,"hb":15.7,"idx":-0.1,"cls":4,"psfc":988.9,"terrain":false,"radius_km":200,"name":"asym cold","track":"T50"},"geometry":{"type":"Point","coordinates":[51.25,79.5]}},{"type":"Feature","properties":{"kind":"center","id":24,"lat":-44.75,"lon":-92.5,"mslp":989.3,"hvtl":105.9,"hvtu":-72.8,"hb":1.3,"idx":0.9,"cls":1,"psfc":989.3,"terrain":false,"radius_km":200,"name":"sym shallow warm","track":"T74"},"geometry":{"type":"Point","coordinates":[-92.5,-44.75]}},{"type":"Feature","properties":{"kind":"center","id":25,"lat":51.75,"lon":-53.0,"mslp":993.8,"hvtl":-122.3,"hvtu":-391.3,"hb":60.4,"idx":-2.7,"cls":4,"psfc":993.8,"terrain":false,"radius_km":200,"name":"asym cold","track":"T49"},"geometry":{"type":"Point","coordinates":[-53.0,51.75]}},{"type":"Feature","properties":{"kind":"center","id":26,"lat":24.75,"lon":-126.25,"mslp":995.1,"hvtl":64.5,"hvtu":-10.7,"hb":9.9,"idx":1.0,"cls":1,"psfc":995.1,"terrain":false,"radius_km":200,"name":"sym shallow warm","track":"T42"},"geometry":{"type":"Point","coordinates":[-126.25,24.75]}},{"type":"Feature","properties":{"kind":"center","id":27,"lat":60.75,"lon":18.25,"mslp":995.4,"hvtl":-211.5,"hvtu":-281.4,"hb":51.1,"idx":-2.9,"cls":4,"psfc":995.4,"terrain":false,"radius_km":200,"name":"asym cold","track":"T77"},"geometry":{"type":"Point","coordinates":[18.25,60.75]}},{"type":"Feature","properties":{"kind":"center","id":28,"lat":30.25,"lon":179.75,"mslp":997.3,"hvtl":62.1,"hvtu":-83.3,"hb":8.8,"idx":0.4,"cls":1,"psfc":997.3,"terrain":false,"radius_km":200,"name":"sym shallow warm","track":"T70"},"geometry":{"type":"Point","coordinates":[179.75,30.25]}},{"type":"Feature","properties":{"kind":"center","id":29,"lat":63.25,"lon":42.5,"mslp":997.4,"hvtl":-165.9,"hvtu":-55.2,"hb":59.1,"idx":-2.4,"cls":4,"psfc":988.1,"terrain":false,"radius_km":200,"name":"asym cold","track":"T81"},"geometry":{"type":"Point","coordinates":[42.5,63.25]}},{"type":"Feature","properties":{"kind":"center","id":30,"lat":-42.25,"lon":-86.25,"mslp":997.5,"hvtl":-20.7,"hvtu":-118.1,"hb":20.1,"idx":-1.2,"cls":4,"psfc":997.5,"terrain":false,"radius_km":200,"name":"asym cold"},"geometry":{"type":"Point","coordinates":[-86.25,-42.25]}},{"type":"Feature","properties":{"kind":"center","id":31,"lat":60.0,"lon":-148.0,"mslp":998.2,"hvtl":-79.6,"hvtu":-202.3,"hb":16.5,"idx":-2.3,"cls":4,"psfc":991.2,"terrain":false,"radius_km":200,"name":"asym cold"},"geometry":{"type":"Point","coordinates":[-148.0,60.0]}},{"type":"Feature","properties":{"kind":"center","id":32,"lat":70.75,"lon":153.25,"mslp":998.9,"hvtl":-32.6,"hvtu":-103.6,"hb":11.2,"idx":-1.4,"cls":4,"psfc":997.9,"terrain":false,"radius_km":200,"name":"asym cold","track":"T88"},"geometry":{"type":"Point","coordinates":[153.25,70.75]}},{"type":"Feature","properties":{"kind":"center","id":33,"lat":16.0,"lon":145.0,"mslp":1001.8,"hvtl":160.3,"hvtu":127.1,"hb":0.4,"idx":2.7,"cls":0,"psfc":1001.8,"terrain":false,"radius_km":200,"name":"sym deep warm"},"geometry":{"type":"Point","coordinates":[145.0,16.0]}},{"type":"Feature","properties":{"kind":"center","id":34,"lat":41.75,"lon":-50.5,"mslp":1001.8,"hvtl":-178.3,"hvtu":-308.1,"hb":45.5,"idx":-2.9,"cls":4,"psfc":1001.8,"terrain":false,"radius_km":200,"name":"asym cold","track":"T105"},"geometry":{"type":"Point","coordinates":[-50.5,41.75]}},{"type":"Feature","properties":{"kind":"center","id":35,"lat":15.75,"lon":144.0,"mslp":1001.8,"hvtl":177.0,"hvtu":120.9,"hb":-1.0,"idx":2.7,"cls":0,"psfc":1001.8,"terrain":false,"radius_km":200,"name":"sym deep warm"},"geometry":{"type":"Point","coordinates":[144.0,15.75]}},{"type":"Feature","properties":{"kind":"center","id":36,"lat":48.5,"lon":113.75,"mslp":1002.6,"hvtl":-186.9,"hvtu":-307.8,"hb":80.3,"idx":-2.9,"cls":4,"psfc":911.3,"terrain":true,"radius_km":200,"name":"asym cold"},"geometry":{"type":"Point","coordinates":[113.75,48.5]}},{"type":"Feature","properties":{"kind":"center","id":37,"lat":57.25,"lon":-74.25,"mslp":1003.2,"hvtl":45.0,"hvtu":-37.9,"hb":-3.8,"idx":0.5,"cls":1,"psfc":971.7,"terrain":false,"radius_km":200,"name":"sym shallow warm","track":"T87"},"geometry":{"type":"Point","coordinates":[-74.25,57.25]}},{"type":"Feature","properties":{"kind":"center","id":38,"lat":62.75,"lon":-73.75,"mslp":1004.1,"hvtl":158.4,"hvtu":-95.5,"hb":7.0,"idx":1.1,"cls":1,"psfc":1004.1,"terrain":false,"radius_km":200,"name":"sym shallow warm","track":"T109"},"geometry":{"type":"Point","coordinates":[-73.75,62.75]}},{"type":"Feature","properties":{"kind":"center","id":39,"lat":14.25,"lon":-103.0,"mslp":1004.4,"hvtl":24.3,"hvtu":13.1,"hb":2.7,"idx":0.6,"cls":0,"psfc":1004.4,"terrain":false,"radius_km":200,"name":"sym deep warm","track":"T104"},"geometry":{"type":"Point","coordinates":[-103.0,14.25]}},{"type":"Feature","properties":{"kind":"center","id":40,"lat":39.5,"lon":-122.25,"mslp":1004.8,"hvtl":-100.6,"hvtu":-140.6,"hb":64.8,"idx":-2.4,"cls":4,"psfc":997.6,"terrain":false,"radius_km":200,"name":"asym cold"},"geometry":{"type":"Point","coordinates":[-122.25,39.5]}},{"type":"Feature","properties":{"kind":"center","id":41,"lat":35.75,"lon":-116.75,"mslp":1005.0,"hvtl":-41.6,"hvtu":-165.0,"hb":45.1,"idx":-1.7,"cls":4,"psfc":932.7,"terrain":false,"radius_km":200,"name":"asym cold","track":"T107"},"geometry":{"type":"Point","coordinates":[-116.75,35.75]}},{"type":"Feature","properties":{"kind":"center","id":42,"lat":76.25,"lon":-74.5,"mslp":1005.4,"hvtl":-36.5,"hvtu":-139.2,"hb":42.8,"idx":-1.6,"cls":4,"psfc":1005.4,"terrain":false,"radius_km":200,"name":"asym cold","track":"T112"},"geometry":{"type":"Point","coordinates":[-74.5,76.25]}},{"type":"Feature","properties":{"kind":"center","id":43,"lat":64.25,"lon":-36.0,"mslp":1006.1,"hvtl":-67.8,"hvtu":-230.5,"hb":29.4,"idx":-2.2,"cls":4,"psfc":1006.1,"terrain":false,"radius_km":200,"name":"asym cold","track":"T65"},"geometry":{"type":"Point","coordinates":[-36.0,64.25]}},{"type":"Feature","properties":{"kind":"center","id":44,"lat":11.75,"lon":-103.25,"mslp":1006.3,"hvtl":47.3,"hvtu":25.9,"hb":-13.4,"idx":1.1,"cls":0,"psfc":1006.3,"terrain":false,"radius_km":200,"name":"sym deep warm","track":"T115"},"geometry":{"type":"Point","coordinates":[-103.25,11.75]}},{"type":"Feature","properties":{"kind":"center","id":45,"lat":49.75,"lon":112.75,"mslp":1006.3,"hvtl":-59.2,"hvtu":-327.3,"hb":116.3,"idx":-2.1,"cls":4,"psfc":904.2,"terrain":true,"radius_km":200,"name":"asym cold"},"geometry":{"type":"Point","coordinates":[112.75,49.75]}},{"type":"Feature","properties":{"kind":"center","id":46,"lat":-35.25,"lon":-20.5,"mslp":1006.7,"hvtl":-313.1,"hvtu":-383.3,"hb":83.0,"idx":-3.0,"cls":4,"psfc":1006.7,"terrain":false,"radius_km":200,"name":"asym cold","track":"T33"},"geometry":{"type":"Point","coordinates":[-20.5,-35.25]}},{"type":"Feature","properties":{"kind":"center","id":47,"lat":36.25,"lon":-119.25,"mslp":1006.8,"hvtl":-73.8,"hvtu":-186.7,"hb":52.7,"idx":-2.2,"cls":4,"psfc":995.4,"terrain":false,"radius_km":200,"name":"asym cold"},"geometry":{"type":"Point","coordinates":[-119.25,36.25]}},{"type":"Feature","properties":{"kind":"center","id":48,"lat":61.25,"lon":-48.75,"mslp":1007.0,"hvtl":-66.5,"hvtu":-199.7,"hb":40.1,"idx":-2.1,"cls":4,"psfc":1000.3,"terrain":false,"radius_km":200,"name":"asym cold"},"geometry":{"type":"Point","coordinates":[-48.75,61.25]}},{"type":"Feature","properties":{"kind":"center","id":49,"lat":30.25,"lon":71.0,"mslp":1007.1,"hvtl":-4.4,"hvtu":-74.6,"hb":32.3,"idx":-0.7,"cls":4,"psfc":992.9,"terrain":false,"radius_km":200,"name":"asym cold","track":"T113"},"geometry":{"type":"Point","coordinates":[71.0,30.25]}},{"type":"Feature","properties":{"kind":"center","id":50,"lat":36.5,"lon":-53.0,"mslp":1007.5,"hvtl":7.7,"hvtu":-183.7,"hb":12.1,"idx":-0.8,"cls":3,"psfc":1007.5,"terrain":false,"radius_km":200,"name":"asym shallow warm"},"geometry":{"type":"Point","coordinates":[-53.0,36.5]}},{"type":"Feature","properties":{"kind":"center","id":51,"lat":80.75,"lon":174.25,"mslp":1007.9,"hvtl":-48.1,"hvtu":-83.3,"hb":-17.1,"idx":-1.6,"cls":5,"psfc":1007.9,"terrain":false,"radius_km":200,"name":"sym cold","track":"T96"},"geometry":{"type":"Point","coordinates":[174.25,80.75]}},{"type":"Feature","properties":{"kind":"center","id":52,"lat":32.75,"lon":162.0,"mslp":1008.2,"hvtl":182.5,"hvtu":-112.2,"hb":29.3,"idx":1.1,"cls":3,"psfc":1008.2,"terrain":false,"radius_km":200,"name":"asym shallow warm","track":"T44"},"geometry":{"type":"Point","coordinates":[162.0,32.75]}},{"type":"Feature","properties":{"kind":"center","id":53,"lat":-28.0,"lon":-53.75,"mslp":1008.9,"hvtl":20.1,"hvtu":-268.7,"hb":49.1,"idx":-0.6,"cls":3,"psfc":954.1,"terrain":false,"radius_km":200,"name":"asym shallow warm"},"geometry":{"type":"Point","coordinates":[-53.75,-28.0]}},{"type":"Feature","properties":{"kind":"center","id":54,"lat":63.0,"lon":108.0,"mslp":1009.5,"hvtl":-12.3,"hvtu":-50.4,"hb":15.4,"idx":-0.7,"cls":4,"psfc":973.4,"terrain":false,"radius_km":200,"name":"asym cold","track":"T100"},"geometry":{"type":"Point","coordinates":[108.0,63.0]}},{"type":"Feature","properties":{"kind":"center","id":55,"lat":-35.75,"lon":168.0,"mslp":1009.5,"hvtl":-66.7,"hvtu":-21.4,"hb":1.2,"idx":-1.4,"cls":5,"psfc":1009.5,"terrain":false,"radius_km":200,"name":"sym cold","track":"T120"},"geometry":{"type":"Point","coordinates":[168.0,-35.75]}},{"type":"Feature","properties":{"kind":"center","id":56,"lat":41.75,"lon":-122.5,"mslp":1009.8,"hvtl":-61.6,"hvtu":-130.0,"hb":90.4,"idx":-2.0,"cls":4,"psfc":908.7,"terrain":true,"radius_km":200,"name":"asym cold"},"geometry":{"type":"Point","coordinates":[-122.5,41.75]}},{"type":"Feature","properties":{"kind":"center","id":57,"lat":42.25,"lon":-122.75,"mslp":1010.4,"hvtl":-75.9,"hvtu":-146.6,"hb":89.3,"idx":-2.2,"cls":4,"psfc":909.3,"terrain":true,"radius_km":200,"name":"asym cold"},"geometry":{"type":"Point","coordinates":[-122.75,42.25]}},{"type":"Feature","properties":{"kind":"center","id":58,"lat":-33.0,"lon":31.0,"mslp":1015.6,"hvtl":-70.2,"hvtu":-99.9,"hb":34.4,"idx":-2.0,"cls":4,"psfc":1015.6,"terrain":false,"radius_km":200,"name":"asym cold"},"geometry":{"type":"Point","coordinates":[31.0,-33.0]}},{"type":"Feature","properties":{"kind":"center","id":59,"lat":-21.0,"lon":-63.75,"mslp":1017.0,"hvtl":-16.5,"hvtu":-158.2,"hb":41.6,"idx":-1.2,"cls":4,"psfc":927.1,"terrain":false,"radius_km":200,"name":"asym cold","track":"T132"},"geometry":{"type":"Point","coordinates":[-63.75,-21.0]}}]}