{"type":"FeatureCollection","features":[{"type":"Feature","properties":{"kind":"blob","cls":1,"id":1},"geometry":{"type":"Polygon","coordinates":[[[116.0,-63.62],[118.25,-63.12],[119.25,-62.62],[120.12,-61.5],[119.25,-60.38],[118.25,-59.88],[112.75,-59.88],[111.62,-58.75],[112.88,-58.0],[113.38,-56.75],[111.75,-55.38],[109.0,-55.12],[107.25,-55.62],[106.12,-56.75],[106.12,-57.25],[107.38,-58.5],[105.75,-58.88],[104.88,-59.5],[104.88,-61.0],[107.0,-62.38],[110.25,-62.38],[111.75,-63.38],[116.0,-63.62]],[[107.38,-61.0],[108.5,-60.12],[109.75,-60.12],[110.12,-60.5],[109.25,-61.38],[107.38,-61.0]]]}},{"type":"Feature","properties":{"kind":"blob","cls":3,"id":2},"geometry":{"type":"Polygon","coordinates":[[[152.5,-66.62],[155.25,-66.88],[157.5,-66.38],[158.88,-65.25],[158.88,-64.25],[157.75,-63.38],[156.25,-62.88],[152.75,-62.62],[150.0,-63.38],[148.88,-64.25],[148.88,-65.25],[149.25,-65.62],[151.75,-65.88],[152.5,-66.62]]]}},{"type":"Feature","properties":{"kind":"blob","cls":4,"id":3},"geometry":{"type":"Polygon","coordinates":[[[23.25,-69.88],[24.75,-69.38],[25.62,-68.5],[25.62,-68.0],[24.75,-66.88],[22.25,-65.88],[17.25,-65.62],[17.0,-64.88],[15.62,-64.5],[15.88,-63.75],[15.5,-63.38],[14.0,-62.88],[9.25,-62.88],[7.12,-64.25],[7.12,-65.5],[9.0,-67.12],[13.0,-67.62],[13.5,-68.38],[14.5,-68.88],[17.75,-69.88],[23.25,-69.88]]]}},{"type":"Feature","properties":{"kind":"blob","cls":0,"id":4},"geometry":{"type":"Polygon","coordinates":[[[144.25,29.38],[145.75,29.38],[146.88,30.5],[146.62,32.5],[145.0,33.38],[143.0,32.88],[142.38,32.0],[142.38,30.75],[142.88,30.0],[144.25,29.38]]]}},{"type":"Feature","properties":{"kind":"blob","cls":3,"id":5},"geometry":{"type":"Polygon","coordinates":[[[13.0,-61.38],[14.75,-60.88],[15.88,-59.75],[15.88,-59.25],[14.75,-58.12],[13.0,-57.62],[11.0,-57.62],[9.25,-58.12],[8.12,-59.25],[8.12,-59.75],[9.25,-60.88],[13.0,-61.38]]]}},{"type":"Feature","properties":{"kind":"blob","cls":4,"id":6},"geometry":{"type":"Polygon","coordinates":[[[27.0,-65.38],[31.75,-65.38],[33.0,-64.88],[33.88,-64.0],[33.88,-63.5],[32.75,-62.38],[30.25,-61.62],[25.75,-61.88],[23.88,-63.0],[23.62,-63.5],[24.75,-64.88],[27.0,-65.38]]]}},{"type":"Feature","properties":{"kind":"blob","cls":0,"id":7},"geometry":{"type":"Polygon","coordinates":[[[-126.0,-62.12],[-124.5,-62.12],[-122.25,-61.38],[-121.38,-60.25],[-121.62,-59.5],[-119.62,-58.5],[-119.62,-56.75],[-122.0,-55.62],[-123.5,-55.62],[-125.5,-56.38],[-126.38,-57.5],[-126.25,-58.38],[-127.75,-58.62],[-128.88,-59.75],[-128.88,-60.5],[-128.25,-61.38],[-126.5,-61.12],[-126.0,-62.12]]]}},{"type":"Feature","properties":{"kind":"blob","cls":4,"id":8},"geometry":{"type":"Polygon","coordinates":[[[-13.5,-71.62],[-8.75,-70.62],[-8.12,-70.0],[-9.25,-69.62],[-9.38,-69.25],[-7.62,-68.0],[-8.5,-67.12],[-10.5,-66.38],[-15.75,-66.12],[-19.5,-67.38],[-21.88,-69.25],[-21.88,-69.75],[-21.0,-70.62],[-18.75,-71.38],[-13.5,-71.62]]]}},{"type":"Feature","properties":{"kind":"blob","cls":4,"id":9},"geometry":{"type":"Polygon","coordinates":[[[179.75,-81.12],[180.0,-78.62],[178.0,-79.38],[177.38,-80.0],[178.5,-80.88],[179.75,-81.12]]]}},{"type":"Feature","properties":{"kind":"blob","cls":4,"id":9},"geometry":{"type":"Polygon","coordinates":[[[-179.75,-78.62],[-179.75,-81.38],[-173.25,-82.12],[-162.25,-81.88],[-157.5,-80.88],[-156.12,-79.75],[-156.25,-79.38],[-163.25,-79.62],[-165.0,-79.12],[-165.12,-78.75],[-164.5,-78.38],[-162.38,-78.0],[-164.0,-77.62],[-172.5,-77.62],[-179.75,-78.62]]]}},{"type":"Feature","properties":{"kind":"blob","cls":2,"id":10},"geometry":{"type":"Polygon","coordinates":[[[-123.25,-70.62],[-120.75,-70.12],[-119.38,-69.25],[-119.38,-68.0],[-120.25,-67.12],[-121.75,-66.62],[-127.25,-66.38],[-130.25,-67.12],[-131.12,-68.0],[-131.12,-68.75],[-130.25,-69.62],[-128.25,-70.38],[-123.25,-70.62]]]}},{"type":"Feature","properties":{"kind":"blob","cls":3,"id":11},"geometry":{"type":"Polygon","coordinates":[[[-136.5,-58.12],[-133.75,-57.38],[-132.12,-55.75],[-132.12,-54.75],[-133.0,-53.88],[-135.75,-53.38],[-139.5,-54.88],[-140.38,-55.75],[-140.38,-56.75],[-139.0,-57.88],[-136.5,-58.12]]]}},{"type":"Feature","properties":{"kind":"blob","cls":1,"id":12},"geometry":{"type":"Polygon","coordinates":[[[-118.25,-74.62],[-112.75,-74.88],[-101.62,-74.25],[-106.0,-73.38],[-111.5,-73.38],[-116.25,-73.88],[-118.25,-74.62]]]}},{"type":"Feature","properties":{"kind":"blob","cls":4,"id":13},"geometry":{"type":"Polygon","coordinates":[[[37.5,67.38],[40.0,67.88],[43.0,69.62],[43.62,70.75],[43.0,71.38],[41.0,72.12],[36.5,72.38],[32.5,71.38],[30.62,70.0],[30.62,69.25],[31.5,68.38],[33.25,67.62],[37.5,67.38]]]}},{"type":"Feature","properties":{"kind":"blob","cls":0,"id":14},"geometry":{"type":"Polygon","coordinates":[[[-118.5,18.62],[-117.0,18.62],[-116.12,19.75],[-116.38,21.25],[-117.75,22.12],[-119.0,21.88],[-119.88,20.75],[-119.62,19.25],[-118.5,18.62]],[[-118.5,18.88],[-119.38,19.75],[-118.25,20.62],[-117.38,20.0],[-117.38,19.5],[-118.5,18.88]]]}},{"type":"Feature","properties":{"kind":"blob","cls":4,"id":15},"geometry":{"type":"Polygon","coordinates":[[[68.5,-64.38],[72.0,-63.62],[73.5,-62.88],[74.38,-62.0],[74.38,-61.5],[72.25,-59.88],[67.5,-59.88],[64.0,-61.12],[62.88,-62.25],[63.12,-63.25],[64.0,-63.88],[68.5,-64.38]]]}},{"type":"Feature","properties":{"kind":"blob","cls":4,"id":16},"geometry":{"type":"Polygon","coordinates":[[[-146.0,-68.12],[-144.25,-67.38],[-143.62,-66.5],[-144.25,-65.62],[-147.25,-64.62],[-151.25,-64.88],[-153.38,-66.0],[-153.62,-66.5],[-153.0,-67.38],[-151.25,-68.12],[-146.0,-68.12]]]}},{"type":"Feature","properties":{"kind":"blob","cls":4,"id":17},"geometry":{"type":"Polygon","coordinates":[[[69.25,-68.88],[78.25,-68.88],[79.88,-68.0],[77.25,-67.38],[73.25,-67.38],[70.75,-67.88],[69.25,-68.88]]]}},{"type":"Feature","properties":{"kind":"blob","cls":3,"id":18},"geometry":{"type":"Polygon","coordinates":[[[-63.75,50.38],[-62.25,50.88],[-61.38,51.75],[-61.38,53.0],[-62.25,53.88],[-63.75,54.38],[-66.75,53.62],[-67.62,52.75],[-67.62,51.75],[-67.12,51.75],[-67.38,51.5],[-66.75,50.88],[-63.75,50.38]],[[-65.38,51.5],[-65.0,51.88],[-64.12,51.5],[-64.25,51.12],[-65.38,51.5]]]}},{"type":"Feature","properties":{"kind":"blob","cls":4,"id":19},"geometry":{"type":"Polygon","coordinates":[[[49.5,-67.12],[51.25,-67.38],[51.62,-67.0],[51.12,-66.75],[51.5,-66.38],[55.0,-66.12],[55.88,-66.5],[56.0,-67.12],[58.25,-67.38],[58.62,-66.5],[57.75,-65.62],[56.5,-65.12],[53.0,-64.88],[50.25,-65.62],[49.38,-66.5],[49.5,-67.12]]]}},{"type":"Feature","properties":{"kind":"blob","cls":0,"id":20},"geometry":{"type":"Polygon","coordinates":[[[171.25,24.62],[172.12,25.5],[172.12,27.0],[171.25,27.88],[169.75,28.12],[168.12,27.0],[168.12,25.5],[169.0,24.62],[171.25,24.62]]]}},{"type":"Feature","properties":{"kind":"blob","cls":4,"id":21},"geometry":{"type":"Polygon","coordinates":[[[-23.0,-47.12],[-21.75,-46.62],[-20.88,-45.5],[-21.12,-44.25],[-24.0,-42.62],[-25.75,-42.62],[-27.0,-43.12],[-27.62,-43.75],[-27.88,-45.25],[-27.0,-46.38],[-23.0,-47.12]]]}},{"type":"Feature","properties":{"kind":"blob","cls":3,"id":22},"geometry":{"type":"Polygon","coordinates":[[[94.75,81.88],[100.5,82.62],[102.12,83.5],[101.75,83.88],[98.5,84.12],[80.25,84.12],[63.62,82.75],[69.5,81.88],[94.75,81.88]]]}},{"type":"Feature","properties":{"kind":"blob","cls":4,"id":23},"geometry":{"type":"Polygon","coordinates":[[[-91.0,-61.38],[-89.25,-60.88],[-87.88,-59.5],[-87.88,-58.5],[-89.0,-57.38],[-91.5,-56.38],[-93.75,-56.38],[-95.75,-57.12],[-96.62,-58.0],[-96.62,-59.25],[-95.25,-60.62],[-91.0,-61.38]]]}},{"type":"Feature","properties":{"kind":"blob","cls":4,"id":24},"geometry":{"type":"Polygon","coordinates":[[[150.5,52.12],[152.5,52.88],[153.88,54.5],[153.62,55.5],[152.25,56.62],[150.5,57.12],[147.75,56.62],[146.38,55.25],[146.12,54.0],[147.0,52.88],[150.5,52.12]]]}},{"type":"Feature","properties":{"kind":"blob","cls":4,"id":25},"geometry":{"type":"Polygon","coordinates":[[[-97.25,57.12],[-95.0,57.88],[-93.38,60.0],[-93.62,61.0],[-94.5,61.88],[-97.25,62.88],[-99.25,62.88],[-101.5,62.12],[-102.12,61.5],[-102.62,59.5],[-100.75,57.62],[-97.25,57.12]]]}},{"type":"Feature","properties":{"kind":"blob","cls":4,"id":26},"geometry":{"type":"Polygon","coordinates":[[[-145.5,56.38],[-143.12,58.0],[-143.12,59.0],[-145.25,60.62],[-147.0,61.12],[-150.5,60.88],[-153.12,59.25],[-153.12,58.25],[-152.25,57.38],[-150.75,56.62],[-145.5,56.38]],[[-150.62,59.75],[-150.0,60.38],[-149.88,60.0],[-150.62,59.75]],[[-149.12,60.25],[-149.0,60.62],[-148.62,60.25],[-149.12,60.25]]]}},{"type":"Feature","properties":{"kind":"blob","cls":5,"id":27},"geometry":{"type":"Polygon","coordinates":[[[-31.25,62.62],[-29.12,64.0],[-29.12,65.0],[-31.25,66.38],[-35.0,66.62],[-36.75,66.12],[-39.12,64.75],[-38.75,63.38],[-37.25,62.62],[-31.25,62.62]]]}},{"type":"Feature","properties":{"kind":"blob","cls":4,"id":28},"geometry":{"type":"Polygon","coordinates":[[[-59.75,-81.62],[-50.88,-81.5],[-51.0,-81.38],[-59.75,-81.62]]]}},{"type":"Feature","properties":{"kind":"blob","cls":4,"id":29},"geometry":{"type":"Polygon","coordinates":[[[-82.5,-37.88],[-80.75,-38.12],[-79.25,-37.12],[-77.75,-37.88],[-76.75,-37.88],[-75.12,-36.75],[-75.12,-35.0],[-76.75,-33.88],[-78.25,-33.88],[-79.5,-34.62],[-80.75,-33.88],[-81.75,-33.88],[-83.88,-35.5],[-83.88,-37.0],[-82.5,-37.88]]]}},{"type":"Feature","properties":{"kind":"blob","cls":1,"id":30},"geometry":{"type":"Polygon","coordinates":[[[147.5,68.38],[150.25,68.88],[151.88,70.0],[151.88,70.5],[151.25,71.12],[148.0,70.62],[148.0,71.88],[145.25,72.12],[142.5,71.62],[140.88,70.5],[141.5,69.38],[142.5,68.88],[147.5,68.38]]]}},{"type":"Feature","properties":{"kind":"blob","cls":5,"id":31},"geometry":{"type":"Polygon","coordinates":[[[78.0,56.62],[81.25,56.62],[82.88,57.75],[82.88,58.75],[82.25,59.38],[79.75,60.38],[77.25,60.12],[75.62,59.0],[75.62,58.5],[77.25,58.62],[77.62,58.25],[76.12,57.25],[78.0,56.62]]]}},{"type":"Feature","properties":{"kind":"blob","cls":4,"id":32},"geometry":{"type":"MultiPolygon","coordinates":[[[[-68.88,-33.5],[-69.0,-33.38],[-69.12,-33.5],[-68.88,-33.5]]],[[[-68.25,-34.88],[-67.75,-34.88],[-66.5,-34.38],[-65.62,-33.25],[-66.38,-32.75],[-66.0,-32.38],[-65.5,-32.62],[-65.12,-32.0],[-65.38,-30.5],[-66.38,-29.5],[-66.12,-28.0],[-66.5,-27.62],[-66.88,-28.0],[-66.62,-29.0],[-67.38,-29.75],[-67.38,-31.25],[-68.12,-31.5],[-67.62,-31.0],[-68.25,-29.88],[-68.62,-30.75],[-68.38,-31.0],[-68.88,-33.25],[-68.38,-33.5],[-68.25,-34.88]],[[-66.38,-31.0],[-66.5,-31.12],[-66.62,-30.75],[-66.38,-31.0]]],[[[-65.88,-28.75],[-66.0,-28.62],[-66.12,-28.75],[-65.88,-28.75]]],[[[-65.62,-28.5],[-65.75,-28.38],[-65.88,-28.5],[-65.62,-28.5]]]]}},{"type":"Feature","properties":{"kind":"blob","cls":1,"id":33},"geometry":{"type":"Polygon","coordinates":[[[68.25,25.12],[69.88,26.25],[70.12,28.25],[69.0,29.62],[67.5,29.88],[66.88,27.0],[65.62,26.75],[65.62,26.25],[66.5,25.38],[68.25,25.12]]]}},{"type":"Feature","properties":{"kind":"blob","cls":5,"id":34},"geometry":{"type":"Polygon","coordinates":[[[72.5,28.88],[73.75,29.38],[75.12,30.75],[75.38,32.25],[72.5,32.38],[70.5,31.88],[70.12,31.5],[69.88,29.5],[72.5,28.88]]]}},{"type":"Feature","properties":{"kind":"blob","cls":4,"id":35},"geometry":{"type":"Polygon","coordinates":[[[152.0,40.62],[153.62,41.5],[153.88,43.0],[153.0,44.12],[150.75,44.62],[149.12,43.75],[149.12,41.75],[149.75,41.12],[152.0,40.62]]]}},{"type":"Feature","properties":{"kind":"blob","cls":4,"id":36},"geometry":{"type":"Polygon","coordinates":[[[-66.0,-16.12],[-64.62,-15.25],[-64.62,-13.25],[-66.5,-11.88],[-69.0,-11.88],[-69.62,-12.5],[-69.88,-13.5],[-68.5,-13.88],[-67.88,-15.25],[-66.0,-16.12]]]}},{"type":"Feature","properties":{"kind":"blob","cls":4,"id":37},"geometry":{"type":"MultiPolygon","coordinates":[[[[27.5,-32.12],[27.38,-32.25],[27.5,-32.38],[27.5,-32.12]]],[[[27.25,-31.88],[27.12,-32.0],[27.25,-32.12],[27.25,-31.88]]]]}},{"type":"Feature","properties":{"kind":"blob","cls":1,"id":38},"geometry":{"type":"Polygon","coordinates":[[[-57.25,-52.62],[-55.75,-52.12],[-54.88,-51.0],[-55.12,-49.75],[-55.75,-49.12],[-57.25,-48.62],[-60.0,-49.12],[-60.88,-50.25],[-60.88,-51.0],[-60.0,-52.12],[-57.25,-52.62]]]}},{"type":"Feature","properties":{"kind":"blob","cls":4,"id":39},"geometry":{"type":"Polygon","coordinates":[[[-65.25,-28.12],[-64.88,-27.5],[-65.25,-26.38],[-65.88,-27.25],[-65.25,-28.12]]]}},{"type":"Feature","properties":{"kind":"blob","cls":1,"id":40},"geometry":{"type":"Polygon","coordinates":[[[47.5,-16.62],[49.25,-16.62],[50.12,-15.5],[50.12,-14.75],[48.75,-15.12],[46.25,-14.38],[46.38,-16.0],[47.5,-16.62]]]}},{"type":"Feature","properties":{"kind":"blob","cls":1,"id":41},"geometry":{"type":"MultiPolygon","coordinates":[[[[95.75,22.62],[97.5,22.38],[98.12,22.75],[98.12,23.25],[97.5,23.38],[96.75,22.62],[97.38,24.0],[95.5,25.62],[94.25,24.62],[93.5,25.12],[93.38,24.25],[94.0,24.38],[93.88,23.75],[94.25,23.38],[95.75,22.62]]],[[[93.25,25.12],[94.38,26.25],[93.25,26.88],[91.75,26.88],[91.88,26.0],[93.25,25.12]]]]}},{"type":"Feature","properties":{"kind":"blob","cls":4,"id":42},"geometry":{"type":"Polygon","coordinates":[[[-55.5,70.38],[-52.75,70.88],[-52.12,71.5],[-53.5,72.12],[-53.5,72.62],[-58.5,74.88],[-60.0,76.38],[-62.75,76.38],[-63.62,75.25],[-63.25,74.62],[-61.75,74.12],[-61.62,73.75],[-63.12,72.75],[-63.12,72.0],[-61.25,70.88],[-55.5,70.38]]]}},{"type":"Feature","properties":{"kind":"blob","cls":4,"id":43},"geometry":{"type":"Polygon","coordinates":[[[25.75,-33.62],[27.38,-32.75],[26.0,-32.62],[25.75,-32.12],[25.5,-32.62],[24.5,-32.12],[23.12,-32.25],[23.75,-33.12],[25.75,-33.62]]]}},{"type":"Feature","properties":{"kind":"blob","cls":1,"id":44},"geometry":{"type":"Polygon","coordinates":[[[98.5,22.88],[98.88,23.25],[98.5,23.38],[98.5,22.88]]]}},{"type":"Feature","properties":{"kind":"blob","cls":4,"id":45},"geometry":{"type":"Polygon","coordinates":[[[114.88,52.75],[115.0,52.38],[116.0,52.88],[116.38,53.5],[115.88,53.5],[116.25,53.88],[116.62,53.75],[116.0,55.12],[115.0,55.12],[114.5,54.38],[113.38,54.0],[113.75,53.62],[113.12,53.5],[114.0,53.38],[115.75,54.38],[115.88,54.0],[115.38,53.5],[115.62,53.25],[114.88,52.75]]]}},{"type":"Feature","properties":{"kind":"blob","cls":4,"id":46},"geometry":{"type":"Polygon","coordinates":[[[113.25,52.12],[113.75,52.12],[114.38,52.5],[113.25,52.62],[113.25,52.12]]]}},{"type":"Feature","properties":{"kind":"blob","cls":4,"id":47},"geometry":{"type":"MultiPolygon","coordinates":[[[[111.25,52.38],[111.88,52.5],[111.75,52.88],[111.25,52.38]]],[[[112.0,53.12],[111.88,53.0],[112.25,52.88],[112.0,53.12]]],[[[112.5,53.38],[112.38,53.25],[112.75,53.12],[112.5,53.38]]]]}},{"type":"Feature","properties":{"kind":"blob","cls":4,"id":48},"geometry":{"type":"Polygon","coordinates":[[[113.5,52.88],[113.88,53.0],[113.75,53.12],[113.5,52.88]]]}},{"type":"Feature","properties":{"kind":"blob","cls":4,"id":49},"geometry":{"type":"Polygon","coordinates":[[[109.75,53.62],[110.0,53.38],[111.38,55.0],[110.5,54.62],[109.75,53.62]]]}},{"type":"Feature","properties":{"kind":"blob","cls":3,"id":50},"geometry":{"type":"MultiPolygon","coordinates":[[[[179.75,-33.12],[180.0,-31.38],[178.88,-32.5],[179.0,-33.12],[179.75,-33.12]]],[[[179.88,-35.25],[180.0,-35.38],[180.0,-35.12],[179.88,-35.25]]]]}},{"type":"Feature","properties":{"kind":"blob","cls":3,"id":50},"geometry":{"type":"Polygon","coordinates":[[[-179.88,-31.25],[-180.0,-33.12],[-179.12,-34.5],[-180.0,-35.38],[-178.25,-35.88],[-177.0,-35.38],[-175.88,-33.75],[-176.12,-31.75],[-177.75,-30.88],[-179.88,-31.25]]]}},{"type":"Feature","properties":{"kind":"center","id":1,"lat":-57.0,"lon":109.75,"mslp":941.2,"hvtl":119.9,"hvtu":-148.3,"hb":-2.5,"idx":0.8,"cls":1,"psfc":941.2,"terrain":false,"radius_km":200,"name":"sym shallow warm","track":"T08"},"geometry":{"type":"Point","coordinates":[109.75,-57.0]}},{"type":"Feature","properties":{"kind":"center","id":2,"lat":-64.75,"lon":154.0,"mslp":947.1,"hvtl":42.2,"hvtu":-43.4,"hb":19.5,"idx":0.4,"cls":3,"psfc":947.1,"terrain":false,"radius_km":200,"name":"asym shallow warm","track":"T04"},"geometry":{"type":"Point","coordinates":[154.0,-64.75]}},{"type":"Feature","properties":{"kind":"center","id":3,"lat":-67.75,"lon":20.0,"mslp":948.8,"hvtl":-5.0,"hvtu":-6.5,"hb":14.6,"idx":-0.2,"cls":4,"psfc":948.8,"terrain":false,"radius_km":200,"name":"asym cold","track":"T05"},"geometry":{"type":"Point","coordinates":[20.0,-67.75]}},{"type":"Feature","properties":{"kind":"center","id":4,"lat":31.25,"lon":144.75,"mslp":951.5,"hvtl":119.7,"hvtu":195.8,"hb":5.3,"idx":2.6,"cls":0,"psfc":951.5,"terrain":false,"radius_km":200,"name":"sym deep warm","track":"T02"},"geometry":{"type":"Point","coordinates":[144.75,31.25]}},{"type":"Feature","properties":{"kind":"center","id":5,"lat":-59.5,"lon":12.0,"mslp":952.5,"hvtl":58.1,"hvtu":-117.9,"hb":19.8,"idx":0.2,"cls":3,"psfc":952.5,"terrain":false,"radius_km":200,"name":"asym shallow warm"},"geometry":{"type":"Point","coordinates":[12.0,-59.5]}},{"type":"Feature","properties":{"kind":"center","id":6,"lat":-63.75,"lon":29.25,"mslp":955.2,"hvtl":-91.8,"hvtu":-104.4,"hb":21.5,"idx":-2.2,"cls":4,"psfc":955.2,"terrain":false,"radius_km":200,"name":"asym cold","track":"T21"},"geometry":{"type":"Point","coordinates":[29.25,-63.75]}},{"type":"Feature","properties":{"kind":"center","id":7,"lat":-60.0,"lon":-125.0,"mslp":956.3,"hvtl":68.3,"hvtu":32.8,"hb":-6.1,"idx":1.5,"cls":0,"psfc":956.2,"terrain":false,"radius_km":200,"name":"sym deep warm","track":"T19"},"geometry":{"type":"Point","coordinates":[-125.0,-60.0]}},{"type":"Feature","properties":{"kind":"center","id":8,"lat":-68.75,"lon":-13.75,"mslp":962.1,"hvtl":-275.8,"hvtu":-78.7,"hb":19.6,"idx":-2.6,"cls":4,"psfc":962.1,"terrain":false,"radius_km":200,"name":"asym cold","track":"T24"},"geometry":{"type":"Point","coordinates":[-13.75,-68.75]}},{"type":"Feature","properties":{"kind":"center","id":9,"lat":-79.75,"lon":-168.25,"mslp":964.5,"hvtl":-17.5,"hvtu":-11.6,"hb":18.4,"idx":-0.5,"cls":4,"psfc":957.1,"terrain":false,"radius_km":200,"name":"asym cold","track":"T32"},"geometry":{"type":"Point","coordinates":[-168.25,-79.75]}},{"type":"Feature","properties":{"kind":"center","id":10,"lat":-68.25,"lon":-125.25,"mslp":969.0,"hvtl":22.2,"hvtu":4.0,"hb":41.5,"idx":0.5,"cls":2,"psfc":969.0,"terrain":false,"radius_km":200,"name":"asym deep warm","track":"T25"},"geometry":{"type":"Point","coordinates":[-125.25,-68.25]}},{"type":"Feature","properties":{"kind":"center","id":11,"lat":-56.0,"lon":-136.75,"mslp":969.3,"hvtl":21.1,"hvtu":-275.9,"hb":17.1,"idx":-0.6,"cls":3,"psfc":969.3,"terrain":false,"radius_km":200,"name":"asym shallow warm","track":"T39"},"geometry":{"type":"Point","coordinates":[-136.75,-56.0]}},{"type":"Feature","properties":{"kind":"center","id":12,"lat":-74.5,"lon":-109.75,"mslp":972.1,"hvtl":19.0,"hvtu":-191.5,"hb":-0.2,"idx":-0.6,"cls":1,"psfc":968.8,"terrain":false,"radius_km":200,"name":"sym shallow warm","track":"T45"},"geometry":{"type":"Point","coordinates":[-109.75,-74.5]}},{"type":"Feature","properties":{"kind":"center","id":13,"lat":69.5,"lon":36.25,"mslp":973.5,"hvtl":-51.4,"hvtu":-147.3,"hb":12.1,"idx":-1.8,"cls":4,"psfc":973.5,"terrain":false,"radius_km":200,"name":"asym cold","track":"T50"},"geometry":{"type":"Point","coordinates":[36.25,69.5]}},{"type":"Feature","properties":{"kind":"center","id":14,"lat":20.5,"lon":-118.0,"mslp":975.4,"hvtl":79.0,"hvtu":226.2,"hb":0.7,"idx":2.3,"cls":0,"psfc":975.4,"terrain":false,"radius_km":200,"name":"sym deep warm","track":"T42"},"geometry":{"type":"Point","coordinates":[-118.0,20.5]}},{"type":"Feature","properties":{"kind":"center","id":15,"lat":-62.25,"lon":68.5,"mslp":975.5,"hvtl":-441.2,"hvtu":-425.9,"hb":89.7,"idx":-3.0,"cls":4,"psfc":975.5,"terrain":false,"radius_km":200,"name":"asym cold"},"geometry":{"type":"Point","coordinates":[68.5,-62.25]}},{"type":"Feature","properties":{"kind":"center","id":16,"lat":-65.25,"lon":-146.25,"mslp":976.1,"hvtl":-177.6,"hvtu":-273.7,"hb":29.5,"idx":-2.9,"cls":4,"psfc":976.1,"terrain":false,"radius_km":200,"name":"asym cold","track":"T31"},"geometry":{"type":"Point","coordinates":[-146.25,-65.25]}},{"type":"Feature","properties":{"kind":"center","id":17,"lat":-68.0,"lon":79.75,"mslp":976.8,"hvtl":-123.8,"hvtu":-178.0,"hb":23.8,"idx":-2.6,"cls":4,"psfc":970.8,"terrain":false,"radius_km":200,"name":"asym cold"},"geometry":{"type":"Point","coordinates":[79.75,-68.0]}},{"type":"Feature","properties":{"kind":"center","id":18,"lat":52.25,"lon":-64.5,"mslp":979.6,"hvtl":6.2,"hvtu":-153.8,"hb":22.5,"idx":-0.8,"cls":3,"psfc":908.1,"terrain":false,"radius_km":200,"name":"asym shallow warm","track":"T61"},"geometry":{"type":"Point","coordinates":[-64.5,52.25]}},{"type":"Feature","properties":{"kind":"center","id":19,"lat":-66.5,"lon":49.5,"mslp":982.8,"hvtl":-181.2,"hvtu":-178.9,"hb":31.9,"idx":-2.8,"cls":4,"psfc":982.8,"terrain":false,"radius_km":200,"name":"asym cold"},"geometry":{"type":"Point","coordinates":[49.5,-66.5]}},{"type":"Feature","properties":{"kind":"center","id":20,"lat":26.25,"lon":170.0,"mslp":986.1,"hvtl":124.1,"hvtu":191.7,"hb":-5.9,"idx":2.6,"cls":0,"psfc":986.1,"terrain":false,"radius_km":200,"name":"sym deep warm","track":"T44"},"geometry":{"type":"Point","coordinates":[170.0,26.25]}},{"type":"Feature","properties":{"kind":"center","id":21,"lat":-45.0,"lon":-24.75,"mslp":986.4,"hvtl":-26.7,"hvtu":-285.3,"hb":57.7,"idx":-1.5,"cls":4,"psfc":986.4,"terrain":false,"radius_km":200,"name":"asym cold","track":"T20"},"geometry":{"type":"Point","coordinates":[-24.75,-45.0]}},{"type":"Feature","properties":{"kind":"center","id":22,"lat":83.0,"lon":66.0,"mslp":989.6,"hvtl":144.9,"hvtu":-131.1,"hb":50.7,"idx":0.9,"cls":3,"psfc":989.5,"terrain":false,"radius_km":200,"name":"asym shallow warm","track":"T63"},"geometry":{"type":"Point","coordinates":[66.0,83.0]}},{"type":"Feature","properties":{"kind":"center","id":23,"lat":-59.0,"lon":-92.5,"mslp":991.6,"hvtl":-61.0,"hvtu":-195.2,"hb":25.0,"idx":-2.0,"cls":4,"psfc":991.6,"terrain":false,"radius_km":200,"name":"asym cold","track":"T68"},"geometry":{"type":"Point","coordinates":[-92.5,-59.0]}},{"type":"Feature","properties":{"kind":"center","id":24,"lat":54.5,"lon":149.75,"mslp":992.2,"hvtl":-57.6,"hvtu":-453.2,"hb":52.7,"idx":-2.0,"cls":4,"psfc":992.2,"terrain":false,"radius_km":200,"name":"asym cold","track":"T53"},"geometry":{"type":"Point","coordinates":[149.75,54.5]}},{"type":"Feature","properties":{"kind":"center","id":25,"lat":59.75,"lon":-98.75,"mslp":995.2,"hvtl":-55.8,"hvtu":-106.2,"hb":32.3,"idx":-1.8,"cls":4,"psfc":957.5,"terrain":false,"radius_km":200,"name":"asym cold","track":"T90"},"geometry":{"type":"Point","coordinates":[-98.75,59.75]}},{"type":"Feature","properties":{"kind":"center","id":26,"lat":58.75,"lon":-149.0,"mslp":996.0,"hvtl":-22.0,"hvtu":-146.4,"hb":16.0,"idx":-1.3,"cls":4,"psfc":996.0,"terrain":false,"radius_km":200,"name":"asym cold","track":"T40"},"geometry":{"type":"Point","coordinates":[-149.0,58.75]}},{"type":"Feature","properties":{"kind":"center","id":27,"lat":64.5,"lon":-34.0,"mslp":1001.1,"hvtl":-86.5,"hvtu":-147.3,"hb":8.0,"idx":-2.3,"cls":5,"psfc":1001.1,"terrain":false,"radius_km":200,"name":"sym cold","track":"T62"},"geometry":{"type":"Point","coordinates":[-34.0,64.5]}},{"type":"Feature","properties":{"kind":"center","id":28,"lat":-81.5,"lon":-59.75,"mslp":1001.5,"hvtl":-278.6,"hvtu":-165.8,"hb":45.4,"idx":-2.9,"cls":4,"psfc":984.5,"terrain":false,"radius_km":200,"name":"asym cold","track":"T79"},"geometry":{"type":"Point","coordinates":[-59.75,-81.5]}},{"type":"Feature","properties":{"kind":"center","id":29,"lat":-35.75,"lon":-77.5,"mslp":1001.5,"hvtl":-112.4,"hvtu":-78.4,"hb":23.0,"idx":-2.3,"cls":4,"psfc":1001.5,"terrain":false,"radius_km":200,"name":"asym cold","track":"T102"},"geometry":{"type":"Point","coordinates":[-77.5,-35.75]}},{"type":"Feature","properties":{"kind":"center","id":30,"lat":72.0,"lon":145.75,"mslp":1002.9,"hvtl":1.3,"hvtu":-91.1,"hb":8.7,"idx":-0.7,"cls":1,"psfc":1002.6,"terrain":false,"radius_km":200,"name":"sym shallow warm"},"geometry":{"type":"Point","coordinates":[145.75,72.0]}},{"type":"Feature","properties":{"kind":"center","id":31,"lat":57.25,"lon":77.5,"mslp":1003.9,"hvtl":-72.3,"hvtu":-84.7,"hb":3.8,"idx":-1.9,"cls":5,"psfc":987.5,"terrain":false,"radius_km":200,"name":"sym cold","track":"T84"},"geometry":{"type":"Point","coordinates":[77.5,57.25]}},{"type":"Feature","properties":{"kind":"center","id":32,"lat":-31.75,"lon":-67.5,"mslp":1004.4,"hvtl":-134.8,"hvtu":-240.8,"hb":45.0,"idx":-2.7,"cls":4,"psfc":942.2,"terrain":false,"radius_km":200,"name":"asym cold","track":"T95"},"geometry":{"type":"Point","coordinates":[-67.5,-31.75]}},{"type":"Feature","properties":{"kind":"center","id":33,"lat":27.5,"lon":67.75,"mslp":1004.4,"hvtl":27.4,"hvtu":-65.0,"hb":-1.3,"idx":-0.0,"cls":1,"psfc":999.4,"terrain":false,"radius_km":200,"name":"sym shallow warm","track":"T117"},"geometry":{"type":"Point","coordinates":[67.75,27.5]}},{"type":"Feature","properties":{"kind":"center","id":34,"lat":31.5,"lon":71.5,"mslp":1004.7,"hvtl":-26.6,"hvtu":-109.4,"hb":2.6,"idx":-1.3,"cls":5,"psfc":985.9,"terrain":false,"radius_km":200,"name":"sym cold","track":"T103"},"geometry":{"type":"Point","coordinates":[71.5,31.5]}},{"type":"Feature","properties":{"kind":"center","id":35,"lat":42.75,"lon":151.25,"mslp":1005.1,"hvtl":-216.4,"hvtu":-187.1,"hb":51.2,"idx":-2.9,"cls":4,"psfc":1005.1,"terrain":false,"radius_km":200,"name":"asym cold"},"geometry":{"type":"Point","coordinates":[151.25,42.75]}},{"type":"Feature","properties":{"kind":"center","id":36,"lat":-14.0,"lon":-67.25,"mslp":1006.7,"hvtl":-38.8,"hvtu":-40.9,"hb":18.0,"idx":-1.1,"cls":4,"psfc":986.0,"terrain":false,"radius_km":200,"name":"asym cold","track":"T89"},"geometry":{"type":"Point","coordinates":[-67.25,-14.0]}},{"type":"Feature","properties":{"kind":"center","id":37,"lat":-32.0,"lon":27.25,"mslp":1007.6,"hvtl":-94.0,"hvtu":-222.5,"hb":113.3,"idx":-2.4,"cls":4,"psfc":901.2,"terrain":true,"radius_km":200,"name":"asym cold"},"geometry":{"type":"Point","coordinates":[27.25,-32.0]}},{"type":"Feature","properties":{"kind":"center","id":38,"lat":-50.5,"lon":-56.0,"mslp":1007.6,"hvtl":20.4,"hvtu":-80.2,"hb":-11.5,"idx":-0.3,"cls":1,"psfc":1007.6,"terrain":false,"radius_km":200,"name":"sym shallow warm","track":"T86"},"geometry":{"type":"Point","coordinates":[-56.0,-50.5]}},{"type":"Feature","properties":{"kind":"center","id":39,"lat":-27.25,"lon":-65.0,"mslp":1008.0,"hvtl":-192.0,"hvtu":-211.8,"hb":20.9,"idx":-2.9,"cls":4,"psfc":970.8,"terrain":false,"radius_km":200,"name":"asym cold","track":"T97"},"geometry":{"type":"Point","coordinates":[-65.0,-27.25]}},{"type":"Feature","properties":{"kind":"center","id":40,"lat":-15.0,"lon":48.25,"mslp":1009.8,"hvtl":135.2,"hvtu":-55.4,"hb":7.2,"idx":1.2,"cls":1,"psfc":988.1,"terrain":false,"radius_km":200,"name":"sym shallow warm"},"geometry":{"type":"Point","coordinates":[48.25,-15.0]}},{"type":"Feature","properties":{"kind":"center","id":41,"lat":24.25,"lon":96.75,"mslp":1010.1,"hvtl":72.6,"hvtu":-119.4,"hb":-0.5,"idx":0.4,"cls":1,"psfc":993.2,"terrain":false,"radius_km":200,"name":"sym shallow warm","track":"T122"},"geometry":{"type":"Point","coordinates":[96.75,24.25]}},{"type":"Feature","properties":{"kind":"center","id":42,"lat":72.5,"lon":-56.75,"mslp":1012.1,"hvtl":-123.9,"hvtu":-116.0,"hb":29.2,"idx":-2.5,"cls":4,"psfc":1012.1,"terrain":false,"radius_km":200,"name":"asym cold","track":"T69"},"geometry":{"type":"Point","coordinates":[-56.75,72.5]}},{"type":"Feature","properties":{"kind":"center","id":43,"lat":-32.75,"lon":24.25,"mslp":1013.4,"hvtl":-144.0,"hvtu":-283.3,"hb":93.4,"idx":-2.8,"cls":4,"psfc":924.8,"terrain":false,"radius_km":200,"name":"asym cold"},"geometry":{"type":"Point","coordinates":[24.25,-32.75]}},{"type":"Feature","properties":{"kind":"center","id":44,"lat":23.25,"lon":98.5,"mslp":1014.0,"hvtl":75.2,"hvtu":-93.3,"hb":-18.4,"idx":0.5,"cls":1,"psfc":904.6,"terrain":true,"radius_km":200,"name":"sym shallow warm"},"geometry":{"type":"Point","coordinates":[98.5,23.25]}},{"type":"Feature","properties":{"kind":"center","id":45,"lat":54.0,"lon":113.5,"mslp":1015.5,"hvtl":-273.4,"hvtu":-358.5,"hb":81.3,"idx":-3.0,"cls":4,"psfc":902.0,"terrain":true,"radius_km":200,"name":"asym cold"},"geometry":{"type":"Point","coordinates":[113.5,54.0]}},{"type":"Feature","properties":{"kind":"center","id":46,"lat":52.5,"lon":114.25,"mslp":1016.2,"hvtl":-332.4,"hvtu":-323.5,"hb":72.0,"idx":-3.0,"cls":4,"psfc":902.2,"terrain":true,"radius_km":200,"name":"asym cold"},"geometry":{"type":"Point","coordinates":[114.25,52.5]}},{"type":"Feature","properties":{"kind":"center","id":47,"lat":53.25,"lon":112.75,"mslp":1016.3,"hvtl":-299.9,"hvtu":-344.8,"hb":63.1,"idx":-3.0,"cls":4,"psfc":904.8,"terrain":true,"radius_km":200,"name":"asym cold"},"geometry":{"type":"Point","coordinates":[112.75,53.25]}},{"type":"Feature","properties":{"kind":"center","id":48,"lat":53.0,"lon":113.75,"mslp":1016.4,"hvtl":-323.9,"hvtu":-342.1,"hb":70.2,"idx":-3.0,"cls":4,"psfc":901.7,"terrain":true,"radius_km":200,"name":"asym cold"},"geometry":{"type":"Point","coordinates":[113.75,53.0]}},{"type":"Feature","properties":{"kind":"center","id":49,"lat":54.25,"lon":110.5,"mslp":1017.5,"hvtl":-247.2,"hvtu":-344.3,"hb":77.1,"idx":-3.0,"cls":4,"psfc":947.5,"terrain":false,"radius_km":200,"name":"asym cold"},"geometry":{"type":"Point","coordinates":[110.5,54.25]}},{"type":"Feature","properties":{"kind":"center","id":50,"lat":-32.75,"lon":-178.75,"mslp":1018.9,"hvtl":3.0,"hvtu":-108.7,"hb":25.6,"idx":-0.7,"cls":3,"psfc":1018.9,"terrain":false,"radius_km":200,"name":"asym shallow warm"},"geometry":{"type":"Point","coordinates":[-178.75,-32.75]}}]}