{"type":"FeatureCollection","features":[{"type":"Feature","properties":{"kind":"blob","cls":1,"id":1},"geometry":{"type":"Polygon","coordinates":[[[123.5,-66.38],[130.0,-66.62],[131.38,-65.75],[131.62,-65.0],[130.88,-63.5],[130.0,-62.88],[126.0,-61.88],[122.0,-62.38],[119.88,-63.5],[122.12,-64.25],[120.75,-64.62],[119.75,-64.38],[120.0,-65.12],[123.5,-66.38]]]}},{"type":"Feature","properties":{"kind":"blob","cls":1,"id":2},"geometry":{"type":"Polygon","coordinates":[[[179.75,-69.88],[180.0,-66.12],[179.5,-66.12],[177.75,-66.88],[176.88,-68.0],[178.0,-69.38],[179.75,-69.88]]]}},{"type":"Feature","properties":{"kind":"blob","cls":1,"id":2},"geometry":{"type":"Polygon","coordinates":[[[-179.75,-66.12],[-179.75,-70.12],[-179.0,-70.12],[-178.0,-68.62],[-176.0,-67.88],[-175.25,-67.88],[-174.38,-68.5],[-175.75,-70.62],[-173.25,-70.62],[-169.75,-69.88],[-168.12,-68.5],[-168.12,-68.0],[-169.0,-67.12],[-171.25,-66.38],[-174.25,-65.88],[-179.75,-66.12]]]}},{"type":"Feature","properties":{"kind":"blob","cls":6,"id":3},"geometry":{"type":"Polygon","coordinates":[[[-3.25,-64.62],[0.0,-63.62],[1.62,-62.0],[1.12,-60.0],[-0.5,-58.88],[-1.75,-58.62],[-3.75,-58.62],[-6.0,-59.38],[-6.62,-60.0],[-6.62,-60.75],[-8.38,-62.25],[-8.38,-63.25],[-7.25,-64.12],[-3.25,-64.62]],[[-4.25,-63.62],[-5.38,-63.0],[-5.0,-62.38],[-4.0,-62.38],[-2.88,-63.0],[-3.0,-63.62],[-4.25,-63.62]]]}},{"type":"Feature","properties":{"kind":"blob","cls":1,"id":4},"geometry":{"type":"Polygon","coordinates":[[[14.5,-68.38],[17.38,-67.75],[11.75,-67.12],[9.0,-66.12],[12.75,-66.12],[19.75,-66.88],[20.12,-65.75],[19.75,-65.12],[18.0,-64.38],[15.0,-64.12],[9.5,-64.62],[7.38,-65.75],[7.38,-66.75],[8.0,-67.38],[9.75,-68.12],[14.5,-68.38]]]}},{"type":"Feature","properties":{"kind":"blob","cls":1,"id":5},"geometry":{"type":"Polygon","coordinates":[[[34.75,-67.88],[35.5,-67.12],[38.75,-66.62],[40.12,-65.25],[38.75,-63.88],[35.0,-63.38],[32.25,-64.12],[31.5,-65.12],[28.75,-65.12],[26.5,-65.62],[25.12,-66.75],[25.25,-67.12],[34.75,-67.88]]]}},{"type":"Feature","properties":{"kind":"blob","cls":0,"id":6},"geometry":{"type":"Polygon","coordinates":[[[-112.75,-68.62],[-111.5,-68.12],[-110.62,-67.25],[-110.62,-66.5],[-111.5,-65.62],[-112.75,-65.12],[-117.5,-64.88],[-119.75,-65.38],[-121.12,-66.5],[-121.0,-67.38],[-119.25,-66.88],[-116.5,-66.88],[-115.38,-67.25],[-116.25,-68.12],[-118.62,-68.5],[-112.75,-68.62]]]}},{"type":"Feature","properties":{"kind":"blob","cls":4,"id":7},"geometry":{"type":"Polygon","coordinates":[[[2.0,-69.62],[3.75,-68.88],[4.38,-68.0],[3.75,-67.12],[2.75,-66.62],[0.5,-66.12],[-4.0,-66.38],[-6.12,-67.5],[-6.38,-68.0],[-5.75,-68.88],[-4.0,-69.62],[2.0,-69.62]]]}},{"type":"Feature","properties":{"kind":"blob","cls":4,"id":8},"geometry":{"type":"Polygon","coordinates":[[[156.0,40.38],[157.5,41.12],[157.88,41.75],[157.62,43.25],[156.0,44.12],[154.75,44.12],[153.25,43.38],[152.88,41.75],[153.25,41.12],[156.0,40.38]]]}},{"type":"Feature","properties":{"kind":"blob","cls":5,"id":9},"geometry":{"type":"Polygon","coordinates":[[[31.75,-68.88],[33.38,-68.5],[27.12,-68.5],[31.75,-68.88]]]}},{"type":"Feature","properties":{"kind":"blob","cls":1,"id":10},"geometry":{"type":"Polygon","coordinates":[[[-121.0,-58.38],[-119.25,-57.88],[-118.12,-56.75],[-118.12,-55.75],[-119.5,-54.62],[-121.75,-54.38],[-122.25,-53.88],[-124.38,-53.25],[-123.0,-52.88],[-122.12,-52.0],[-122.12,-51.0],[-123.0,-50.12],[-124.5,-49.62],[-126.5,-49.88],[-127.88,-51.0],[-127.88,-52.0],[-127.0,-52.88],[-125.12,-53.5],[-127.75,-54.12],[-128.62,-55.0],[-128.62,-56.0],[-127.0,-57.38],[-121.0,-58.38]]]}},{"type":"Feature","properties":{"kind":"blob","cls":4,"id":11},"geometry":{"type":"Polygon","coordinates":[[[8.75,-51.38],[9.88,-50.5],[10.12,-49.5],[9.5,-48.62],[8.25,-47.88],[6.25,-47.38],[3.75,-47.62],[2.62,-48.5],[2.62,-50.0],[4.0,-51.12],[8.75,-51.38]]]}},{"type":"Feature","properties":{"kind":"blob","cls":4,"id":12},"geometry":{"type":"Polygon","coordinates":[[[48.25,-67.38],[51.0,-67.38],[51.38,-67.0],[51.25,-66.38],[52.25,-66.12],[55.25,-66.12],[55.88,-66.5],[56.0,-67.12],[57.5,-67.12],[57.62,-66.75],[56.75,-65.88],[55.5,-65.38],[51.75,-65.12],[49.0,-65.88],[48.12,-66.75],[48.25,-67.38]]]}},{"type":"Feature","properties":{"kind":"blob","cls":3,"id":13},"geometry":{"type":"Polygon","coordinates":[[[180.0,-80.62],[180.0,-78.62],[178.62,-79.75],[180.0,-80.62]]]}},{"type":"Feature","properties":{"kind":"blob","cls":3,"id":13},"geometry":{"type":"Polygon","coordinates":[[[-179.88,-78.5],[-180.0,-80.62],[-169.0,-79.62],[-163.5,-79.62],[-155.88,-80.25],[-156.75,-79.12],[-159.25,-78.12],[-165.25,-77.38],[-176.25,-77.62],[-179.88,-78.5]]]}},{"type":"Feature","properties":{"kind":"blob","cls":4,"id":14},"geometry":{"type":"Polygon","coordinates":[[[69.0,-68.62],[77.88,-68.75],[74.75,-67.88],[72.25,-67.88],[69.0,-68.62]]]}},{"type":"Feature","properties":{"kind":"blob","cls":4,"id":15},"geometry":{"type":"Polygon","coordinates":[[[71.25,-61.62],[74.0,-60.88],[75.38,-59.25],[74.25,-57.88],[71.5,-57.12],[66.75,-57.12],[64.5,-57.88],[63.38,-59.25],[65.0,-61.12],[71.25,-61.62]]]}},{"type":"Feature","properties":{"kind":"blob","cls":0,"id":16},"geometry":{"type":"Polygon","coordinates":[[[143.0,55.62],[146.0,55.62],[147.38,56.5],[147.62,57.5],[147.0,58.38],[145.5,58.62],[145.0,59.12],[142.25,58.88],[140.88,58.0],[140.62,57.0],[141.25,56.12],[143.0,55.62]]]}},{"type":"Feature","properties":{"kind":"blob","cls":3,"id":17},"geometry":{"type":"Polygon","coordinates":[[[48.25,71.62],[52.25,72.38],[53.38,73.25],[53.12,75.0],[50.5,76.88],[46.75,77.88],[39.75,78.12],[34.88,77.25],[36.75,76.38],[39.12,74.5],[39.0,73.88],[38.0,73.62],[40.75,72.88],[42.0,72.12],[48.25,71.62]]]}},{"type":"Feature","properties":{"kind":"blob","cls":4,"id":18},"geometry":{"type":"Polygon","coordinates":[[[107.5,-53.62],[109.0,-53.12],[110.62,-50.75],[110.38,-49.75],[109.5,-48.88],[108.0,-48.38],[106.5,-48.38],[104.5,-49.12],[102.88,-50.75],[102.88,-51.75],[104.0,-53.12],[107.5,-53.62]]]}},{"type":"Feature","properties":{"kind":"blob","cls":3,"id":19},"geometry":{"type":"MultiPolygon","coordinates":[[[[155.75,59.88],[160.25,59.88],[161.25,60.38],[162.12,61.5],[161.25,62.62],[159.5,63.12],[159.25,62.38],[157.0,61.88],[156.0,62.12],[156.0,61.38],[153.88,60.5],[155.75,59.88]]],[[[156.5,62.12],[156.88,62.5],[156.5,63.38],[155.62,63.0],[156.5,62.12]]]]}},{"type":"Feature","properties":{"kind":"blob","cls":0,"id":20},"geometry":{"type":"Polygon","coordinates":[[[-120.5,19.62],[-119.0,19.62],[-118.12,20.5],[-118.12,22.0],[-119.75,23.12],[-121.0,22.88],[-121.88,22.0],[-121.88,21.0],[-120.62,20.75],[-120.5,19.62]]]}},{"type":"Feature","properties":{"kind":"blob","cls":1,"id":21},"geometry":{"type":"Polygon","coordinates":[[[-52.75,55.12],[-51.0,55.62],[-49.88,56.75],[-50.12,58.0],[-52.5,59.12],[-54.5,59.12],[-56.5,58.38],[-57.12,57.5],[-57.12,56.75],[-56.0,55.62],[-52.75,55.12]],[[-53.25,55.62],[-53.62,55.75],[-53.62,57.0],[-52.75,57.88],[-52.12,56.75],[-53.25,55.62]]]}},{"type":"Feature","properties":{"kind":"blob","cls":4,"id":22},"geometry":{"type":"MultiPolygon","coordinates":[[[[-30.38,-78.5],[-29.62,-78.5],[-29.75,-78.38],[-30.38,-78.5]]],[[[-33.0,-79.38],[-30.38,-78.75],[-35.38,-78.5],[-33.0,-77.38],[-31.5,-77.38],[-29.5,-76.62],[-26.25,-76.12],[-21.88,-76.0],[-22.75,-75.38],[-25.0,-74.88],[-31.25,-74.62],[-40.25,-76.12],[-42.12,-77.5],[-40.5,-78.62],[-33.0,-79.38]]]]}},{"type":"Feature","properties":{"kind":"blob","cls":4,"id":23},"geometry":{"type":"Polygon","coordinates":[[[-50.75,-80.88],[-48.0,-80.38],[-47.75,-79.62],[-46.38,-78.75],[-48.0,-77.88],[-50.75,-77.38],[-59.5,-77.12],[-67.25,-78.12],[-68.88,-79.0],[-68.5,-79.88],[-67.25,-80.38],[-64.5,-80.88],[-50.75,-80.88]]]}},{"type":"Feature","properties":{"kind":"blob","cls":3,"id":24},"geometry":{"type":"Polygon","coordinates":[[[153.5,61.88],[154.25,61.62],[155.12,62.75],[154.0,62.62],[153.5,61.88]]]}},{"type":"Feature","properties":{"kind":"blob","cls":4,"id":25},"geometry":{"type":"Polygon","coordinates":[[[-75.75,-67.62],[-74.0,-66.88],[-73.12,-66.0],[-73.12,-65.25],[-74.25,-64.12],[-75.5,-63.62],[-80.5,-63.38],[-82.75,-63.88],[-84.38,-65.25],[-84.38,-66.0],[-83.5,-66.88],[-81.75,-67.62],[-75.75,-67.62]]]}},{"type":"Feature","properties":{"kind":"blob","cls":4,"id":26},"geometry":{"type":"Polygon","coordinates":[[[-78.5,-79.88],[-76.75,-79.38],[-75.62,-78.5],[-77.75,-77.12],[-79.0,-77.38],[-78.88,-78.0],[-79.62,-79.0],[-78.5,-79.88]]]}},{"type":"Feature","properties":{"kind":"blob","cls":4,"id":27},"geometry":{"type":"Polygon","coordinates":[[[-79.75,49.88],[-78.25,50.38],[-77.12,51.5],[-77.12,53.25],[-78.25,54.38],[-79.75,54.88],[-82.75,54.38],[-83.88,53.25],[-83.88,51.5],[-82.75,50.38],[-79.75,49.88]]]}},{"type":"Feature","properties":{"kind":"blob","cls":3,"id":28},"geometry":{"type":"Polygon","coordinates":[[[-90.75,57.38],[-89.0,57.88],[-88.12,58.75],[-87.88,59.75],[-89.5,61.88],[-92.25,62.88],[-94.62,62.75],[-91.25,59.62],[-93.25,59.88],[-97.25,61.62],[-97.62,61.25],[-97.62,60.25],[-96.5,59.12],[-95.0,58.62],[-94.25,57.88],[-90.75,57.38]]]}},{"type":"Feature","properties":{"kind":"blob","cls":4,"id":29},"geometry":{"type":"Polygon","coordinates":[[[136.75,71.88],[138.75,72.38],[139.88,73.25],[139.88,73.75],[138.0,75.12],[134.0,75.88],[127.25,75.62],[124.5,74.62],[124.12,74.0],[125.5,72.62],[128.25,71.88],[136.75,71.88]]]}},{"type":"Feature","properties":{"kind":"blob","cls":0,"id":30},"geometry":{"type":"Polygon","coordinates":[[[162.25,25.88],[163.38,27.25],[163.12,28.25],[162.0,29.38],[160.0,29.38],[158.62,27.75],[158.88,26.75],[159.75,25.88],[162.25,25.88]]]}},{"type":"Feature","properties":{"kind":"blob","cls":3,"id":31},"geometry":{"type":"Polygon","coordinates":[[[-53.75,64.12],[-52.5,63.88],[-49.75,64.62],[-50.25,65.88],[-52.25,65.62],[-52.88,66.25],[-49.75,66.38],[-49.88,67.0],[-51.25,67.88],[-55.0,68.12],[-57.0,67.62],[-58.38,66.75],[-58.38,65.5],[-57.5,64.62],[-54.25,64.62],[-53.75,64.12]]]}},{"type":"Feature","properties":{"kind":"blob","cls":4,"id":32},"geometry":{"type":"MultiPolygon","coordinates":[[[[-64.75,-24.38],[-64.88,-24.5],[-64.75,-24.62],[-64.75,-24.38]]],[[[-64.75,-29.12],[-63.0,-29.12],[-61.88,-28.0],[-61.38,-25.0],[-60.38,-22.75],[-60.38,-20.75],[-61.12,-19.75],[-61.12,-18.25],[-62.25,-16.88],[-63.0,-16.62],[-64.62,-17.25],[-63.38,-18.25],[-63.88,-19.0],[-63.12,-19.75],[-63.38,-20.75],[-64.12,-21.0],[-63.62,-21.75],[-64.62,-23.75],[-64.12,-24.25],[-65.12,-25.75],[-64.62,-26.0],[-65.0,-26.62],[-65.38,-26.25],[-65.88,-27.25],[-65.38,-28.75],[-64.75,-29.12]]]]}},{"type":"Feature","properties":{"kind":"blob","cls":1,"id":33},"geometry":{"type":"Polygon","coordinates":[[[88.75,58.12],[90.5,58.62],[91.62,59.75],[91.62,61.0],[90.0,62.12],[88.75,62.38],[85.0,62.12],[84.62,61.75],[86.0,61.38],[86.38,60.25],[84.75,59.88],[83.5,60.38],[83.38,60.0],[85.0,58.62],[88.75,58.12]]]}},{"type":"Feature","properties":{"kind":"blob","cls":0,"id":34},"geometry":{"type":"Polygon","coordinates":[[[170.25,15.12],[171.75,15.12],[172.62,16.25],[172.38,17.75],[171.0,18.62],[169.75,18.38],[168.88,17.25],[169.12,15.75],[170.25,15.12]]]}},{"type":"Feature","properties":{"kind":"blob","cls":4,"id":35},"geometry":{"type":"Polygon","coordinates":[[[124.5,-35.62],[126.0,-35.62],[127.12,-34.5],[126.88,-32.0],[125.25,-31.12],[123.5,-31.38],[122.38,-32.5],[122.38,-33.5],[123.12,-35.0],[124.5,-35.62]]]}},{"type":"Feature","properties":{"kind":"blob","cls":6,"id":36},"geometry":{"type":"Polygon","coordinates":[[[147.75,10.88],[149.12,11.75],[149.38,13.25],[148.75,14.12],[147.5,13.62],[146.0,13.62],[145.62,13.25],[145.88,11.75],[147.75,10.88]]]}},{"type":"Feature","properties":{"kind":"blob","cls":4,"id":37},"geometry":{"type":"Polygon","coordinates":[[[-66.38,-28.0],[-66.25,-28.12],[-66.12,-28.0],[-66.38,-28.0]]]}},{"type":"Feature","properties":{"kind":"blob","cls":5,"id":38},"geometry":{"type":"Polygon","coordinates":[[[-65.75,-16.62],[-64.88,-15.5],[-65.12,-13.75],[-66.5,-12.38],[-68.75,-12.38],[-69.62,-13.5],[-68.5,-13.88],[-67.88,-15.25],[-65.75,-16.62]]]}},{"type":"Feature","properties":{"kind":"blob","cls":1,"id":39},"geometry":{"type":"Polygon","coordinates":[[[71.25,28.88],[73.25,29.62],[74.12,30.75],[74.12,32.25],[72.25,32.38],[70.5,31.88],[70.12,31.5],[70.12,30.0],[69.38,29.5],[71.25,28.88]]]}},{"type":"Feature","properties":{"kind":"blob","cls":3,"id":40},"geometry":{"type":"Polygon","coordinates":[[[-76.12,-40.25],[-77.12,-39.0],[-76.5,-37.88],[-75.38,-38.25],[-74.75,-40.12],[-73.38,-39.0],[-73.12,-37.75],[-74.25,-36.38],[-76.5,-36.12],[-78.38,-37.5],[-78.38,-39.0],[-77.25,-40.12],[-76.12,-40.25]]]}},{"type":"Feature","properties":{"kind":"blob","cls":3,"id":41},"geometry":{"type":"Polygon","coordinates":[[[-65.88,-28.5],[-65.75,-28.62],[-65.62,-28.5],[-65.88,-28.5]]]}},{"type":"Feature","properties":{"kind":"blob","cls":0,"id":42},"geometry":{"type":"Polygon","coordinates":[[[168.0,-44.62],[168.62,-44.25],[166.88,-41.25],[167.0,-40.38],[167.88,-41.0],[169.5,-43.62],[170.12,-43.0],[170.12,-41.75],[169.38,-41.0],[170.12,-40.0],[170.12,-39.0],[168.75,-37.38],[168.0,-37.12],[165.75,-37.38],[164.38,-39.0],[164.38,-40.0],[165.12,-41.0],[164.62,-43.0],[165.25,-43.88],[168.0,-44.62]]]}},{"type":"Feature","properties":{"kind":"blob","cls":4,"id":43},"geometry":{"type":"Polygon","coordinates":[[[-120.0,76.88],[-105.0,76.62],[-99.75,77.38],[-97.88,78.5],[-99.25,79.62],[-103.75,80.62],[-115.75,79.12],[-126.88,79.0],[-126.25,77.88],[-125.0,77.38],[-120.0,76.88]]]}},{"type":"Feature","properties":{"kind":"blob","cls":3,"id":44},"geometry":{"type":"Polygon","coordinates":[[[-3.5,44.38],[-1.75,44.12],[-0.5,44.62],[0.38,45.75],[0.38,47.0],[-0.5,47.88],[-1.75,48.38],[-3.5,48.38],[-4.75,47.88],[-5.62,47.0],[-5.88,46.0],[-4.75,44.62],[-3.75,44.38],[-3.0,46.62],[-2.62,45.5],[-3.5,44.38]]]}},{"type":"Feature","properties":{"kind":"blob","cls":5,"id":45},"geometry":{"type":"MultiPolygon","coordinates":[[[[97.5,23.38],[97.38,23.25],[97.5,23.12],[97.5,23.38]]],[[[97.25,23.38],[97.38,24.0],[96.0,25.38],[95.25,25.62],[94.25,24.62],[93.38,25.25],[94.38,26.0],[94.25,26.38],[93.25,26.88],[91.12,26.75],[91.75,25.62],[92.38,25.5],[92.25,25.12],[92.75,25.38],[93.75,24.12],[94.12,24.25],[94.25,23.62],[97.25,23.38]]]]}},{"type":"Feature","properties":{"kind":"blob","cls":3,"id":46},"geometry":{"type":"Polygon","coordinates":[[[55.75,34.88],[55.88,35.25],[55.25,35.62],[55.12,35.25],[55.75,34.88]]]}},{"type":"Feature","properties":{"kind":"blob","cls":4,"id":47},"geometry":{"type":"Polygon","coordinates":[[[-18.25,70.62],[-16.0,71.38],[-15.38,72.5],[-16.5,73.38],[-18.25,73.88],[-24.75,73.88],[-25.38,72.5],[-24.12,72.0],[-26.38,71.5],[-25.88,71.25],[-26.0,70.88],[-18.25,70.62]]]}},{"type":"Feature","properties":{"kind":"blob","cls":4,"id":48},"geometry":{"type":"Polygon","coordinates":[[[50.12,37.25],[49.88,38.0],[48.75,38.88],[48.88,37.75],[50.12,37.25]]]}},{"type":"Feature","properties":{"kind":"blob","cls":3,"id":49},"geometry":{"type":"Polygon","coordinates":[[[48.12,39.0],[48.25,38.88],[48.38,39.0],[48.12,39.0]]]}},{"type":"Feature","properties":{"kind":"blob","cls":4,"id":50},"geometry":{"type":"Polygon","coordinates":[[[47.62,39.0],[47.75,38.88],[47.88,39.0],[47.62,39.0]]]}},{"type":"Feature","properties":{"kind":"center","id":1,"lat":-64.25,"lon":124.75,"mslp":943.1,"hvtl":137.8,"hvtu":-72.8,"hb":-0.2,"idx":1.1,"cls":1,"psfc":943.2,"terrain":false,"radius_km":200,"name":"sym shallow warm","track":"T01"},"geometry":{"type":"Point","coordinates":[124.75,-64.25]}},{"type":"Feature","properties":{"kind":"center","id":2,"lat":-68.0,"lon":-176.25,"mslp":949.9,"hvtl":241.3,"hvtu":-86.6,"hb":-1.5,"idx":1.3,"cls":1,"psfc":949.9,"terrain":false,"radius_km":200,"name":"sym shallow warm","track":"T13"},"geometry":{"type":"Point","coordinates":[-176.25,-68.0]}},{"type":"Feature","properties":{"kind":"center","id":3,"lat":-62.0,"lon":-3.0,"mslp":959.8,"hvtl":-172.3,"hvtu":9.2,"hb":36.5,"idx":-1.8,"cls":6,"psfc":959.8,"terrain":false,"radius_km":200,"name":"shallow cold","track":"T24"},"geometry":{"type":"Point","coordinates":[-3.0,-62.0]}},{"type":"Feature","properties":{"kind":"center","id":4,"lat":-66.25,"lon":13.25,"mslp":962.4,"hvtl":64.1,"hvtu":-134.3,"hb":4.2,"idx":0.3,"cls":1,"psfc":962.4,"terrain":false,"radius_km":200,"name":"sym shallow warm","track":"T05"},"geometry":{"type":"Point","coordinates":[13.25,-66.25]}},{"type":"Feature","properties":{"kind":"center","id":5,"lat":-67.0,"lon":30.25,"mslp":963.9,"hvtl":9.7,"hvtu":-126.6,"hb":8.6,"idx":-0.7,"cls":1,"psfc":964.0,"terrain":false,"radius_km":200,"name":"sym shallow warm","track":"T21"},"geometry":{"type":"Point","coordinates":[30.25,-67.0]}},{"type":"Feature","properties":{"kind":"center","id":6,"lat":-67.0,"lon":-116.0,"mslp":964.8,"hvtl":1.6,"hvtu":64.2,"hb":7.2,"idx":0.6,"cls":0,"psfc":964.8,"terrain":false,"radius_km":200,"name":"sym deep warm","track":"T25"},"geometry":{"type":"Point","coordinates":[-116.0,-67.0]}},{"type":"Feature","properties":{"kind":"center","id":7,"lat":-68.0,"lon":-0.75,"mslp":965.8,"hvtl":-87.9,"hvtu":-39.9,"hb":22.2,"idx":-1.8,"cls":4,"psfc":965.8,"terrain":false,"radius_km":200,"name":"asym cold"},"geometry":{"type":"Point","coordinates":[-0.75,-68.0]}},{"type":"Feature","properties":{"kind":"center","id":8,"lat":42.25,"lon":155.25,"mslp":966.4,"hvtl":-2.1,"hvtu":-195.5,"hb":111.2,"idx":-1.0,"cls":4,"psfc":966.4,"terrain":false,"radius_km":200,"name":"asym cold","track":"T02"},"geometry":{"type":"Point","coordinates":[155.25,42.25]}},{"type":"Feature","properties":{"kind":"center","id":9,"lat":-68.5,"lon":31.25,"mslp":967.5,"hvtl":-84.4,"hvtu":-65.4,"hb":-2.9,"idx":-2.0,"cls":5,"psfc":967.5,"terrain":false,"radius_km":200,"name":"sym cold"},"geometry":{"type":"Point","coordinates":[31.25,-68.5]}},{"type":"Feature","properties":{"kind":"center","id":10,"lat":-51.5,"lon":-125.0,"mslp":971.1,"hvtl":71.6,"hvtu":-133.7,"hb":-1.2,"idx":0.4,"cls":1,"psfc":971.1,"terrain":false,"radius_km":200,"name":"sym shallow warm","track":"T39"},"geometry":{"type":"Point","coordinates":[-125.0,-51.5]}},{"type":"Feature","properties":{"kind":"center","id":11,"lat":-49.75,"lon":6.5,"mslp":971.1,"hvtl":-149.4,"hvtu":-317.8,"hb":95.7,"idx":-2.8,"cls":4,"psfc":971.1,"terrain":false,"radius_km":200,"name":"asym cold","track":"T20"},"geometry":{"type":"Point","coordinates":[6.5,-49.75]}},{"type":"Feature","properties":{"kind":"center","id":12,"lat":-67.0,"lon":48.25,"mslp":971.2,"hvtl":-65.8,"hvtu":-79.0,"hb":26.0,"idx":-1.8,"cls":4,"psfc":969.1,"terrain":false,"radius_km":200,"name":"asym cold","track":"T41"},"geometry":{"type":"Point","coordinates":[48.25,-67.0]}},{"type":"Feature","properties":{"kind":"center","id":13,"lat":-79.5,"lon":-168.75,"mslp":971.7,"hvtl":70.7,"hvtu":-159.8,"hb":21.2,"idx":0.3,"cls":3,"psfc":964.3,"terrain":false,"radius_km":200,"name":"asym shallow warm","track":"T32"},"geometry":{"type":"Point","coordinates":[-168.75,-79.5]}},{"type":"Feature","properties":{"kind":"center","id":14,"lat":-68.5,"lon":77.25,"mslp":972.5,"hvtl":-245.4,"hvtu":-200.1,"hb":38.8,"idx":-2.9,"cls":4,"psfc":972.5,"terrain":false,"radius_km":200,"name":"asym cold"},"geometry":{"type":"Point","coordinates":[77.25,-68.5]}},{"type":"Feature","properties":{"kind":"center","id":15,"lat":-59.5,"lon":70.25,"mslp":973.7,"hvtl":-466.1,"hvtu":-499.5,"hb":80.8,"idx":-3.0,"cls":4,"psfc":973.7,"terrain":false,"radius_km":200,"name":"asym cold","track":"T23"},"geometry":{"type":"Point","coordinates":[70.25,-59.5]}},{"type":"Feature","properties":{"kind":"center","id":16,"lat":57.25,"lon":144.25,"mslp":973.9,"hvtl":2.1,"hvtu":11.4,"hb":7.2,"idx":0.2,"cls":0,"psfc":973.9,"terrain":false,"radius_km":200,"name":"sym deep warm","track":"T43"},"geometry":{"type":"Point","coordinates":[144.25,57.25]}},{"type":"Feature","properties":{"kind":"center","id":17,"lat":74.75,"lon":45.0,"mslp":974.1,"hvtl":25.4,"hvtu":-92.7,"hb":18.0,"idx":-0.2,"cls":3,"psfc":974.1,"terrain":false,"radius_km":200,"name":"asym shallow warm","track":"T50"},"geometry":{"type":"Point","coordinates":[45.0,74.75]}},{"type":"Feature","properties":{"kind":"center","id":18,"lat":-51.5,"lon":106.25,"mslp":976.5,"hvtl":-247.4,"hvtu":-224.4,"hb":47.8,"idx":-2.9,"cls":4,"psfc":976.5,"terrain":false,"radius_km":200,"name":"asym cold","track":"T18"},"geometry":{"type":"Point","coordinates":[106.25,-51.5]}},{"type":"Feature","properties":{"kind":"center","id":19,"lat":61.5,"lon":157.5,"mslp":977.3,"hvtl":88.1,"hvtu":-260.7,"hb":65.8,"idx":0.4,"cls":3,"psfc":977.3,"terrain":false,"radius_km":200,"name":"asym shallow warm","track":"T53"},"geometry":{"type":"Point","coordinates":[157.5,61.5]}},{"type":"Feature","properties":{"kind":"center","id":20,"lat":21.25,"lon":-120.0,"mslp":977.4,"hvtl":89.0,"hvtu":157.4,"hb":4.6,"idx":2.3,"cls":0,"psfc":977.4,"terrain":false,"radius_km":200,"name":"sym deep warm","track":"T42"},"geometry":{"type":"Point","coordinates":[-120.0,21.25]}},{"type":"Feature","properties":{"kind":"center","id":21,"lat":57.25,"lon":-53.5,"mslp":977.9,"hvtl":181.6,"hvtu":-30.1,"hb":-11.2,"idx":1.6,"cls":1,"psfc":977.9,"terrain":false,"radius_km":200,"name":"sym shallow warm","track":"T56"},"geometry":{"type":"Point","coordinates":[-53.5,57.25]}},{"type":"Feature","properties":{"kind":"center","id":22,"lat":-77.25,"lon":-32.5,"mslp":978.2,"hvtl":-310.0,"hvtu":-121.9,"hb":31.9,"idx":-2.8,"cls":4,"psfc":932.1,"terrain":false,"radius_km":200,"name":"asym cold"},"geometry":{"type":"Point","coordinates":[-32.5,-77.25]}},{"type":"Feature","properties":{"kind":"center","id":23,"lat":-79.25,"lon":-57.5,"mslp":981.1,"hvtl":-147.3,"hvtu":-95.0,"hb":65.6,"idx":-2.5,"cls":4,"psfc":972.0,"terrain":false,"radius_km":200,"name":"asym cold","track":"T51"},"geometry":{"type":"Point","coordinates":[-57.5,-79.25]}},{"type":"Feature","properties":{"kind":"center","id":24,"lat":62.75,"lon":155.0,"mslp":983.4,"hvtl":217.9,"hvtu":-174.4,"hb":39.6,"idx":1.0,"cls":3,"psfc":902.0,"terrain":false,"radius_km":200,"name":"asym shallow warm"},"geometry":{"type":"Point","coordinates":[155.0,62.75]}},{"type":"Feature","properties":{"kind":"center","id":25,"lat":-65.5,"lon":-79.0,"mslp":985.4,"hvtl":-117.6,"hvtu":-125.3,"hb":18.6,"idx":-2.5,"cls":4,"psfc":985.4,"terrain":false,"radius_km":200,"name":"asym cold","track":"T68"},"geometry":{"type":"Point","coordinates":[-79.0,-65.5]}},{"type":"Feature","properties":{"kind":"center","id":26,"lat":-78.75,"lon":-76.0,"mslp":988.7,"hvtl":-119.3,"hvtu":-56.3,"hb":44.7,"idx":-2.2,"cls":4,"psfc":972.4,"terrain":false,"radius_km":200,"name":"asym cold","track":"T55"},"geometry":{"type":"Point","coordinates":[-76.0,-78.75]}},{"type":"Feature","properties":{"kind":"center","id":27,"lat":52.75,"lon":-80.75,"mslp":997.4,"hvtl":-165.8,"hvtu":-175.9,"hb":43.4,"idx":-2.8,"cls":4,"psfc":996.8,"terrain":false,"radius_km":200,"name":"asym cold","track":"T87"},"geometry":{"type":"Point","coordinates":[-80.75,52.75]}},{"type":"Feature","properties":{"kind":"center","id":28,"lat":59.25,"lon":-91.5,"mslp":997.5,"hvtl":2.2,"hvtu":-33.2,"hb":22.5,"idx":-0.3,"cls":3,"psfc":997.5,"terrain":false,"radius_km":200,"name":"asym shallow warm","track":"T90"},"geometry":{"type":"Point","coordinates":[-91.5,59.25]}},{"type":"Feature","properties":{"kind":"center","id":29,"lat":73.75,"lon":132.0,"mslp":997.7,"hvtl":-54.7,"hvtu":-168.2,"hb":45.8,"idx":-1.9,"cls":4,"psfc":997.7,"terrain":false,"radius_km":200,"name":"asym cold"},"geometry":{"type":"Point","coordinates":[132.0,73.75]}},{"type":"Feature","properties":{"kind":"center","id":30,"lat":27.5,"lon":161.0,"mslp":997.9,"hvtl":86.2,"hvtu":18.4,"hb":7.5,"idx":1.6,"cls":0,"psfc":997.9,"terrain":false,"radius_km":200,"name":"sym deep warm","track":"T44"},"geometry":{"type":"Point","coordinates":[161.0,27.5]}},{"type":"Feature","properties":{"kind":"center","id":31,"lat":66.0,"lon":-53.75,"mslp":1000.2,"hvtl":158.6,"hvtu":-279.4,"hb":50.7,"idx":0.8,"cls":3,"psfc":998.8,"terrain":false,"radius_km":200,"name":"asym shallow warm"},"geometry":{"type":"Point","coordinates":[-53.75,66.0]}},{"type":"Feature","properties":{"kind":"center","id":32,"lat":-22.5,"lon":-62.75,"mslp":1002.4,"hvtl":-40.7,"hvtu":-110.7,"hb":14.0,"idx":-1.6,"cls":4,"psfc":973.5,"terrain":false,"radius_km":200,"name":"asym cold","track":"T91"},"geometry":{"type":"Point","coordinates":[-62.75,-22.5]}},{"type":"Feature","properties":{"kind":"center","id":33,"lat":60.5,"lon":87.5,"mslp":1003.3,"hvtl":8.1,"hvtu":-30.5,"hb":8.2,"idx":-0.1,"cls":1,"psfc":986.7,"terrain":false,"radius_km":200,"name":"sym shallow warm","track":"T111"},"geometry":{"type":"Point","coordinates":[87.5,60.5]}},{"type":"Feature","properties":{"kind":"center","id":34,"lat":16.75,"lon":170.75,"mslp":1003.9,"hvtl":18.6,"hvtu":46.4,"hb":-2.3,"idx":0.8,"cls":0,"psfc":1003.9,"terrain":false,"radius_km":200,"name":"sym deep warm","track":"T12"},"geometry":{"type":"Point","coordinates":[170.75,16.75]}},{"type":"Feature","properties":{"kind":"center","id":35,"lat":-33.0,"lon":124.75,"mslp":1004.4,"hvtl":-311.9,"hvtu":-151.2,"hb":66.3,"idx":-2.9,"cls":4,"psfc":1004.3,"terrain":false,"radius_km":200,"name":"asym cold"},"geometry":{"type":"Point","coordinates":[124.75,-33.0]}},{"type":"Feature","properties":{"kind":"center","id":36,"lat":12.75,"lon":147.5,"mslp":1004.7,"hvtl":-6.4,"hvtu":30.3,"hb":-4.1,"idx":0.2,"cls":6,"psfc":1004.7,"terrain":false,"radius_km":200,"name":"shallow cold","track":"T06"},"geometry":{"type":"Point","coordinates":[147.5,12.75]}},{"type":"Feature","properties":{"kind":"center","id":37,"lat":-28.0,"lon":-66.25,"mslp":1005.5,"hvtl":-37.9,"hvtu":-314.9,"hb":79.9,"idx":-1.7,"cls":4,"psfc":902.1,"terrain":true,"radius_km":200,"name":"asym cold"},"geometry":{"type":"Point","coordinates":[-66.25,-28.0]}},{"type":"Feature","properties":{"kind":"center","id":38,"lat":-14.5,"lon":-66.75,"mslp":1006.6,"hvtl":-85.2,"hvtu":-25.0,"hb":5.2,"idx":-1.6,"cls":5,"psfc":986.4,"terrain":false,"radius_km":200,"name":"sym cold","track":"T89"},"geometry":{"type":"Point","coordinates":[-66.75,-14.5]}},{"type":"Feature","properties":{"kind":"center","id":39,"lat":31.0,"lon":71.0,"mslp":1007.6,"hvtl":31.9,"hvtu":-43.4,"hb":9.1,"idx":0.2,"cls":1,"psfc":990.8,"terrain":false,"radius_km":200,"name":"sym shallow warm","track":"T103"},"geometry":{"type":"Point","coordinates":[71.0,31.0]}},{"type":"Feature","properties":{"kind":"center","id":40,"lat":-38.0,"lon":-75.75,"mslp":1008.7,"hvtl":61.9,"hvtu":-68.1,"hb":13.4,"idx":0.5,"cls":3,"psfc":1008.7,"terrain":false,"radius_km":200,"name":"asym shallow warm","track":"T102"},"geometry":{"type":"Point","coordinates":[-75.75,-38.0]}},{"type":"Feature","properties":{"kind":"center","id":41,"lat":-28.5,"lon":-65.75,"mslp":1008.8,"hvtl":33.7,"hvtu":-286.7,"hb":85.8,"idx":-0.3,"cls":3,"psfc":929.9,"terrain":false,"radius_km":200,"name":"asym shallow warm","track":"T97"},"geometry":{"type":"Point","coordinates":[-65.75,-28.5]}},{"type":"Feature","properties":{"kind":"center","id":42,"lat":-39.25,"lon":167.0,"mslp":1009.7,"hvtl":76.1,"hvtu":12.7,"hb":1.7,"idx":1.4,"cls":0,"psfc":1009.7,"terrain":false,"radius_km":200,"name":"sym deep warm","track":"T120"},"geometry":{"type":"Point","coordinates":[167.0,-39.25]}},{"type":"Feature","properties":{"kind":"center","id":43,"lat":78.75,"lon":-115.5,"mslp":1009.7,"hvtl":-48.4,"hvtu":-92.6,"hb":14.6,"idx":-1.6,"cls":4,"psfc":1009.7,"terrain":false,"radius_km":200,"name":"asym cold","track":"T126"},"geometry":{"type":"Point","coordinates":[-115.5,78.75]}},{"type":"Feature","properties":{"kind":"center","id":44,"lat":46.25,"lon":-2.5,"mslp":1011.2,"hvtl":140.0,"hvtu":-119.2,"hb":26.8,"idx":0.9,"cls":3,"psfc":1011.2,"terrain":false,"radius_km":200,"name":"asym shallow warm","track":"T129"},"geometry":{"type":"Point","coordinates":[-2.5,46.25]}},{"type":"Feature","properties":{"kind":"center","id":45,"lat":24.75,"lon":95.0,"mslp":1011.3,"hvtl":-31.0,"hvtu":-122.8,"hb":3.1,"idx":-1.4,"cls":5,"psfc":992.7,"terrain":false,"radius_km":200,"name":"sym cold","track":"T122"},"geometry":{"type":"Point","coordinates":[95.0,24.75]}},{"type":"Feature","properties":{"kind":"center","id":46,"lat":35.0,"lon":55.75,"mslp":1013.0,"hvtl":68.7,"hvtu":-70.9,"hb":105.6,"idx":0.6,"cls":3,"psfc":934.3,"terrain":false,"radius_km":200,"name":"asym shallow warm","track":"T117"},"geometry":{"type":"Point","coordinates":[55.75,35.0]}},{"type":"Feature","properties":{"kind":"center","id":47,"lat":73.25,"lon":-20.25,"mslp":1015.2,"hvtl":-62.7,"hvtu":-75.1,"hb":15.2,"idx":-1.7,"cls":4,"psfc":1015.2,"terrain":false,"radius_km":200,"name":"asym cold","track":"T57"},"geometry":{"type":"Point","coordinates":[-20.25,73.25]}},{"type":"Feature","properties":{"kind":"center","id":48,"lat":37.75,"lon":49.75,"mslp":1020.5,"hvtl":-5.4,"hvtu":-195.4,"hb":103.7,"idx":-1.1,"cls":4,"psfc":1023.7,"terrain":false,"radius_km":200,"name":"asym cold"},"geometry":{"type":"Point","coordinates":[49.75,37.75]}},{"type":"Feature","properties":{"kind":"center","id":49,"lat":39.0,"lon":48.25,"mslp":1023.3,"hvtl":23.6,"hvtu":-211.6,"hb":63.1,"idx":-0.5,"cls":3,"psfc":915.5,"terrain":true,"radius_km":200,"name":"asym shallow warm"},"geometry":{"type":"Point","coordinates":[48.25,39.0]}},{"type":"Feature","properties":{"kind":"center","id":50,"lat":39.0,"lon":47.75,"mslp":1023.4,"hvtl":-83.7,"hvtu":-210.6,"hb":55.6,"idx":-2.3,"cls":4,"psfc":906.5,"terrain":true,"radius_km":200,"name":"asym cold"},"geometry":{"type":"Point","coordinates":[47.75,39.0]}}]}