{"type":"FeatureCollection","features":[{"type":"Feature","properties":{"kind":"blob","cls":4,"id":1},"geometry":{"type":"Polygon","coordinates":[[[-122.5,-66.88],[-118.0,-66.88],[-116.75,-66.38],[-115.88,-65.0],[-116.75,-63.88],[-119.5,-63.12],[-123.75,-63.38],[-125.62,-64.5],[-125.88,-65.25],[-125.0,-66.38],[-122.5,-66.88]]]}},{"type":"Feature","properties":{"kind":"blob","cls":3,"id":2},"geometry":{"type":"Polygon","coordinates":[[[1.0,-61.88],[2.75,-61.38],[3.62,-60.75],[4.38,-59.25],[3.88,-57.5],[1.5,-54.88],[-1.25,-54.38],[-3.0,-54.88],[-4.38,-56.25],[-4.62,-59.25],[-3.0,-61.12],[1.0,-61.88]]]}},{"type":"Feature","properties":{"kind":"blob","cls":0,"id":3},"geometry":{"type":"Polygon","coordinates":[[[147.75,21.62],[148.62,22.5],[148.62,24.0],[147.0,25.12],[145.75,24.88],[144.88,24.0],[144.88,22.5],[145.75,21.62],[147.75,21.62]],[[145.88,22.5],[145.38,23.0],[146.0,23.38],[146.12,22.75],[145.88,22.5]]]}},{"type":"Feature","properties":{"kind":"blob","cls":3,"id":4},"geometry":{"type":"Polygon","coordinates":[[[-143.0,-62.38],[-141.38,-61.25],[-141.38,-60.25],[-143.0,-59.12],[-146.5,-58.38],[-149.5,-58.38],[-152.12,-59.5],[-152.38,-60.5],[-151.75,-61.38],[-150.0,-62.12],[-143.0,-62.38]]]}},{"type":"Feature","properties":{"kind":"blob","cls":3,"id":5},"geometry":{"type":"Polygon","coordinates":[[[-134.75,-73.12],[-132.75,-72.38],[-132.12,-71.25],[-134.0,-69.88],[-137.5,-69.12],[-142.25,-69.38],[-144.62,-70.5],[-144.12,-70.75],[-145.12,-71.5],[-144.25,-72.38],[-142.25,-73.12],[-134.75,-73.12]]]}},{"type":"Feature","properties":{"kind":"blob","cls":6,"id":6},"geometry":{"type":"Polygon","coordinates":[[[179.75,-81.12],[179.75,-77.88],[163.75,-77.62],[164.0,-78.38],[165.38,-78.5],[162.12,-78.75],[162.75,-79.62],[164.75,-80.62],[169.75,-81.88],[179.75,-81.12]]]}},{"type":"Feature","properties":{"kind":"blob","cls":6,"id":6},"geometry":{"type":"Polygon","coordinates":[[[-179.75,-78.12],[-180.0,-81.12],[-178.0,-80.88],[-175.62,-79.75],[-175.75,-79.12],[-176.75,-78.62],[-179.75,-78.12]]]}},{"type":"Feature","properties":{"kind":"blob","cls":4,"id":7},"geometry":{"type":"Polygon","coordinates":[[[140.75,-66.12],[142.62,-65.0],[142.62,-64.0],[140.75,-62.88],[136.75,-61.88],[132.5,-62.12],[131.25,-62.62],[130.38,-63.5],[130.38,-64.25],[131.25,-65.12],[132.75,-65.88],[140.75,-66.12]]]}},{"type":"Feature","properties":{"kind":"blob","cls":4,"id":8},"geometry":{"type":"Polygon","coordinates":[[[114.5,-53.88],[118.5,-53.88],[120.12,-52.5],[120.12,-51.5],[119.25,-50.62],[117.75,-50.12],[113.0,-50.12],[111.62,-51.25],[111.62,-52.25],[112.75,-53.38],[114.5,-53.88]]]}},{"type":"Feature","properties":{"kind":"blob","cls":5,"id":9},"geometry":{"type":"Polygon","coordinates":[[[105.25,-65.62],[106.25,-65.12],[107.62,-63.5],[106.75,-62.38],[103.75,-61.38],[101.5,-61.38],[99.0,-62.12],[98.12,-63.0],[97.88,-64.0],[100.0,-65.62],[105.25,-65.62]]]}},{"type":"Feature","properties":{"kind":"blob","cls":4,"id":10},"geometry":{"type":"Polygon","coordinates":[[[179.75,-73.62],[179.75,-70.88],[175.25,-69.88],[171.75,-70.12],[171.0,-69.12],[169.0,-68.38],[164.25,-68.12],[160.5,-68.88],[159.38,-69.5],[162.5,-71.62],[162.62,-71.25],[162.12,-70.75],[162.75,-70.38],[163.75,-71.12],[164.5,-71.12],[164.5,-70.62],[166.25,-70.62],[170.5,-71.62],[169.88,-72.25],[170.38,-72.5],[169.5,-73.12],[168.5,-72.88],[166.88,-73.25],[169.75,-74.38],[175.25,-74.62],[179.75,-73.62]],[[169.75,-73.62],[169.62,-73.5],[169.75,-73.38],[169.75,-73.62]]]}},{"type":"Feature","properties":{"kind":"blob","cls":4,"id":10},"geometry":{"type":"Polygon","coordinates":[[[-179.75,-71.12],[-180.0,-73.62],[-178.88,-72.75],[-178.88,-72.0],[-179.75,-71.12]]]}},{"type":"Feature","properties":{"kind":"blob","cls":0,"id":11},"geometry":{"type":"Polygon","coordinates":[[[-176.25,22.12],[-175.38,23.0],[-175.38,24.5],[-177.0,25.62],[-178.25,25.38],[-179.12,24.5],[-179.12,23.0],[-178.25,22.12],[-176.25,22.12]]]}},{"type":"Feature","properties":{"kind":"blob","cls":1,"id":12},"geometry":{"type":"Polygon","coordinates":[[[-170.75,53.12],[-168.75,53.88],[-168.12,54.5],[-168.12,55.5],[-168.75,56.12],[-170.75,56.88],[-172.0,56.88],[-174.0,56.12],[-174.62,55.5],[-174.62,54.5],[-173.0,53.38],[-170.75,53.12]]]}},{"type":"Feature","properties":{"kind":"blob","cls":3,"id":13},"geometry":{"type":"Polygon","coordinates":[[[67.75,-61.38],[69.5,-60.88],[70.88,-59.25],[70.38,-57.75],[69.5,-56.88],[67.0,-55.88],[65.0,-55.88],[62.5,-56.88],[61.62,-57.75],[61.62,-59.25],[63.25,-60.62],[67.75,-61.38]]]}},{"type":"Feature","properties":{"kind":"blob","cls":0,"id":14},"geometry":{"type":"Polygon","coordinates":[[[-112.5,18.38],[-111.62,19.5],[-111.88,21.25],[-113.25,22.12],[-114.5,21.88],[-115.38,20.75],[-115.0,18.88],[-114.88,19.75],[-114.25,20.38],[-113.25,20.38],[-112.62,19.75],[-113.25,18.88],[-114.88,18.75],[-112.5,18.38]]]}},{"type":"Feature","properties":{"kind":"blob","cls":5,"id":15},"geometry":{"type":"Polygon","coordinates":[[[-2.75,65.62],[-0.75,66.62],[0.12,68.0],[-0.5,68.88],[-2.25,69.62],[-7.25,70.38],[-8.25,69.38],[-9.5,68.88],[-13.25,68.88],[-14.75,69.62],[-17.25,68.62],[-17.88,68.0],[-17.88,67.0],[-17.5,66.62],[-15.75,65.88],[-2.75,65.62]]]}},{"type":"Feature","properties":{"kind":"blob","cls":4,"id":16},"geometry":{"type":"Polygon","coordinates":[[[61.38,-67.5],[59.5,-66.62],[55.88,-66.5],[56.0,-67.12],[61.38,-67.5]]]}},{"type":"Feature","properties":{"kind":"blob","cls":6,"id":17},"geometry":{"type":"Polygon","coordinates":[[[-99.75,-54.12],[-98.25,-53.62],[-97.12,-52.5],[-97.12,-51.25],[-98.0,-50.38],[-99.5,-49.88],[-101.25,-49.88],[-102.75,-50.38],[-103.62,-51.25],[-103.62,-52.75],[-102.75,-53.62],[-99.75,-54.12]]]}},{"type":"Feature","properties":{"kind":"blob","cls":5,"id":18},"geometry":{"type":"Polygon","coordinates":[[[122.5,67.62],[124.25,68.38],[125.12,69.25],[122.88,69.75],[123.25,70.38],[124.25,70.62],[120.5,71.62],[115.0,71.38],[113.5,70.88],[112.62,70.0],[112.62,69.5],[113.5,68.62],[116.5,67.62],[122.5,67.62]]]}},{"type":"Feature","properties":{"kind":"blob","cls":4,"id":19},"geometry":{"type":"Polygon","coordinates":[[[21.5,-70.62],[24.38,-70.5],[24.25,-70.38],[21.5,-70.62]]]}},{"type":"Feature","properties":{"kind":"blob","cls":4,"id":20},"geometry":{"type":"Polygon","coordinates":[[[-149.0,56.12],[-147.25,56.62],[-145.38,58.0],[-145.38,59.0],[-146.75,60.38],[-148.5,60.88],[-151.0,60.88],[-152.75,60.38],[-154.12,59.25],[-154.12,57.75],[-152.5,56.62],[-149.0,56.12]],[[-150.25,59.62],[-150.62,60.0],[-150.0,60.38],[-149.62,60.0],[-150.25,59.62]],[[-149.0,60.12],[-149.38,60.5],[-149.0,60.62],[-149.0,60.12]]]}},{"type":"Feature","properties":{"kind":"blob","cls":4,"id":21},"geometry":{"type":"Polygon","coordinates":[[[39.0,-68.88],[39.5,-69.12],[44.88,-68.0],[40.75,-68.12],[39.0,-68.88]]]}},{"type":"Feature","properties":{"kind":"blob","cls":4,"id":22},"geometry":{"type":"Polygon","coordinates":[[[28.25,74.12],[32.0,74.62],[35.25,76.12],[35.62,77.25],[35.0,77.88],[32.0,78.62],[24.0,78.88],[18.0,77.88],[16.25,77.12],[15.62,76.25],[16.0,75.62],[18.25,74.62],[28.25,74.12]]]}},{"type":"Feature","properties":{"kind":"blob","cls":1,"id":23},"geometry":{"type":"Polygon","coordinates":[[[-38.5,58.62],[-36.25,59.38],[-35.12,60.5],[-35.12,61.75],[-36.0,62.62],[-38.25,63.38],[-41.0,63.38],[-42.75,62.88],[-43.12,62.5],[-42.88,61.75],[-43.88,60.25],[-41.75,58.88],[-38.5,58.62]]]}},{"type":"Feature","properties":{"kind":"blob","cls":4,"id":24},"geometry":{"type":"Polygon","coordinates":[[[-32.0,56.38],[-28.25,56.38],[-26.12,57.75],[-26.12,59.0],[-26.75,59.62],[-28.75,60.38],[-31.75,60.12],[-34.38,58.5],[-34.38,57.5],[-33.75,56.88],[-32.0,56.38]]]}},{"type":"Feature","properties":{"kind":"blob","cls":3,"id":25},"geometry":{"type":"Polygon","coordinates":[[[-55.0,66.12],[-52.75,67.12],[-52.12,68.5],[-53.0,69.38],[-56.0,70.12],[-59.75,70.12],[-61.75,69.62],[-61.62,67.25],[-62.62,67.0],[-60.75,66.12],[-55.0,66.12]]]}},{"type":"Feature","properties":{"kind":"blob","cls":4,"id":26},"geometry":{"type":"Polygon","coordinates":[[[135.25,59.88],[136.88,61.0],[137.38,62.0],[135.25,63.62],[132.25,64.12],[128.75,63.62],[127.12,62.25],[127.12,61.75],[128.0,60.88],[130.0,59.88],[135.25,59.88]]]}},{"type":"Feature","properties":{"kind":"blob","cls":1,"id":27},"geometry":{"type":"Polygon","coordinates":[[[-154.75,62.38],[-153.5,62.38],[-151.5,63.38],[-147.38,64.25],[-150.0,65.12],[-152.75,64.88],[-154.0,64.38],[-154.88,63.5],[-154.75,62.38]]]}},{"type":"Feature","properties":{"kind":"blob","cls":4,"id":28},"geometry":{"type":"Polygon","coordinates":[[[-151.75,61.12],[-149.0,61.38],[-149.0,61.88],[-149.62,62.0],[-148.88,62.75],[-149.75,63.12],[-150.75,62.62],[-152.0,62.62],[-152.38,62.0],[-151.75,61.12]]]}},{"type":"Feature","properties":{"kind":"blob","cls":4,"id":29},"geometry":{"type":"Polygon","coordinates":[[[64.0,56.12],[68.0,56.12],[69.38,57.0],[69.62,58.0],[69.0,58.88],[67.0,59.62],[63.25,59.38],[61.88,58.5],[61.62,57.5],[62.25,56.62],[64.0,56.12]]]}},{"type":"Feature","properties":{"kind":"blob","cls":1,"id":30},"geometry":{"type":"Polygon","coordinates":[[[-60.5,-53.38],[-58.5,-52.88],[-56.88,-51.75],[-56.62,-50.5],[-57.75,-49.12],[-58.75,-48.62],[-60.75,-48.38],[-63.0,-48.88],[-64.62,-49.75],[-63.88,-50.5],[-63.88,-51.25],[-64.62,-52.5],[-60.5,-53.38]]]}},{"type":"Feature","properties":{"kind":"blob","cls":1,"id":31},"geometry":{"type":"Polygon","coordinates":[[[-28.5,66.38],[-26.75,67.12],[-26.38,67.75],[-32.25,67.88],[-34.38,66.75],[-28.5,66.38]]]}},{"type":"Feature","properties":{"kind":"blob","cls":1,"id":32},"geometry":{"type":"Polygon","coordinates":[[[-63.12,67.25],[-63.0,67.12],[-62.88,67.25],[-63.12,67.25]]]}},{"type":"Feature","properties":{"kind":"blob","cls":4,"id":33},"geometry":{"type":"Polygon","coordinates":[[[-54.0,72.12],[-53.88,72.5],[-58.5,74.62],[-60.5,76.38],[-63.38,76.25],[-62.88,75.25],[-61.0,73.38],[-58.25,72.38],[-54.0,72.12]]]}},{"type":"Feature","properties":{"kind":"blob","cls":4,"id":34},"geometry":{"type":"Polygon","coordinates":[[[-92.25,-37.38],[-91.0,-36.88],[-90.38,-36.25],[-90.62,-34.25],[-92.25,-33.38],[-95.0,-34.12],[-95.62,-34.75],[-95.62,-36.25],[-95.0,-36.88],[-92.25,-37.38]]]}},{"type":"Feature","properties":{"kind":"blob","cls":3,"id":35},"geometry":{"type":"Polygon","coordinates":[[[-48.0,-36.88],[-46.88,-36.0],[-46.38,-34.0],[-47.0,-33.12],[-48.75,-32.62],[-50.0,-33.12],[-50.88,-34.0],[-51.12,-35.75],[-50.5,-36.62],[-48.0,-36.88]]]}},{"type":"Feature","properties":{"kind":"blob","cls":1,"id":36},"geometry":{"type":"Polygon","coordinates":[[[73.5,28.88],[74.88,29.5],[75.38,30.25],[75.38,31.5],[74.75,32.38],[72.5,32.38],[70.12,31.5],[69.88,29.75],[73.5,28.88]]]}},{"type":"Feature","properties":{"kind":"blob","cls":0,"id":37},"geometry":{"type":"Polygon","coordinates":[[[-52.5,9.38],[-51.0,9.38],[-50.12,10.5],[-50.38,12.0],[-51.75,12.88],[-53.0,12.62],[-53.88,11.5],[-53.62,10.0],[-52.5,9.38]]]}},{"type":"Feature","properties":{"kind":"blob","cls":4,"id":38},"geometry":{"type":"Polygon","coordinates":[[[-83.0,48.12],[-81.5,48.62],[-80.12,50.25],[-79.88,51.75],[-80.75,52.62],[-82.25,53.12],[-84.5,53.12],[-86.0,52.62],[-87.12,51.25],[-87.12,50.25],[-85.75,48.62],[-83.0,48.12]]]}},{"type":"Feature","properties":{"kind":"blob","cls":5,"id":39},"geometry":{"type":"Polygon","coordinates":[[[-64.5,-17.38],[-63.88,-16.5],[-63.88,-14.75],[-64.38,-13.75],[-66.25,-12.38],[-68.5,-12.38],[-69.38,-13.5],[-68.12,-14.25],[-67.5,-15.62],[-67.0,-15.62],[-64.5,-17.38]]]}},{"type":"Feature","properties":{"kind":"blob","cls":4,"id":40},"geometry":{"type":"Polygon","coordinates":[[[75.5,43.38],[79.25,43.88],[80.5,43.62],[80.75,44.38],[78.25,43.88],[77.62,44.25],[79.0,45.38],[81.75,45.88],[82.5,45.38],[82.62,46.0],[81.75,47.12],[80.5,47.62],[77.0,47.12],[75.75,46.62],[74.88,45.5],[75.5,43.38]]]}},{"type":"Feature","properties":{"kind":"blob","cls":5,"id":41},"geometry":{"type":"MultiPolygon","coordinates":[[[[-149.75,74.62],[-145.75,75.12],[-143.5,76.12],[-143.12,77.25],[-144.5,78.12],[-150.5,79.12],[-156.25,79.12],[-160.25,78.62],[-161.88,78.0],[-156.5,78.12],[-153.0,77.62],[-151.62,77.0],[-152.0,76.38],[-153.75,75.88],[-160.62,75.5],[-158.25,74.88],[-149.75,74.62]]],[[[-162.25,77.88],[-162.38,77.75],[-162.0,77.62],[-162.25,77.88]]]]}},{"type":"Feature","properties":{"kind":"blob","cls":3,"id":42},"geometry":{"type":"Polygon","coordinates":[[[96.0,23.62],[96.88,24.25],[95.25,25.62],[94.25,24.62],[93.62,24.75],[94.5,23.88],[96.0,23.62]]]}},{"type":"Feature","properties":{"kind":"blob","cls":4,"id":43},"geometry":{"type":"Polygon","coordinates":[[[-65.75,-35.38],[-64.62,-34.25],[-64.62,-33.0],[-65.12,-33.0],[-64.88,-31.0],[-65.38,-30.0],[-64.62,-29.25],[-64.12,-27.75],[-65.25,-26.38],[-65.88,-27.25],[-65.5,-28.62],[-65.75,-28.38],[-66.38,-28.75],[-66.25,-27.62],[-67.12,-28.25],[-66.62,-29.0],[-67.38,-29.75],[-67.38,-31.25],[-68.12,-31.5],[-67.62,-31.0],[-68.25,-29.88],[-68.62,-30.5],[-69.12,-33.5],[-68.38,-33.75],[-68.62,-34.75],[-68.25,-35.12],[-65.75,-35.38]],[[-66.62,-31.0],[-66.5,-30.62],[-66.38,-30.75],[-66.62,-31.0]],[[-66.38,-32.75],[-65.75,-32.38],[-65.62,-33.0],[-66.38,-32.75]]]}},{"type":"Feature","properties":{"kind":"blob","cls":1,"id":44},"geometry":{"type":"Polygon","coordinates":[[[62.88,29.75],[63.0,29.62],[63.12,29.75],[62.88,29.75]]]}},{"type":"Feature","properties":{"kind":"blob","cls":4,"id":45},"geometry":{"type":"MultiPolygon","coordinates":[[[[69.62,40.25],[70.25,40.12],[70.88,40.75],[70.5,40.88],[69.62,40.25]]],[[[69.5,40.38],[69.88,41.5],[69.5,41.62],[69.5,40.38]]],[[[71.12,41.0],[71.0,41.12],[70.88,41.0],[71.12,41.0]]]]}},{"type":"Feature","properties":{"kind":"blob","cls":4,"id":46},"geometry":{"type":"Polygon","coordinates":[[[93.75,25.62],[94.38,26.25],[93.75,26.38],[93.75,25.62]]]}},{"type":"Feature","properties":{"kind":"blob","cls":1,"id":47},"geometry":{"type":"Polygon","coordinates":[[[47.38,-18.0],[47.5,-18.38],[47.75,-17.62],[48.25,-18.12],[48.88,-17.5],[49.12,-16.0],[48.25,-14.88],[47.0,-14.62],[45.62,-15.5],[45.38,-17.0],[46.25,-18.12],[47.38,-18.0]],[[48.0,-16.88],[47.88,-16.75],[48.0,-16.62],[48.0,-16.88]]]}},{"type":"Feature","properties":{"kind":"blob","cls":3,"id":48},"geometry":{"type":"Polygon","coordinates":[[[66.5,37.38],[67.25,37.38],[68.38,38.5],[67.0,38.12],[66.5,37.38]]]}},{"type":"Feature","properties":{"kind":"blob","cls":3,"id":49},"geometry":{"type":"Polygon","coordinates":[[[68.75,-31.12],[69.88,-30.0],[70.12,-29.0],[69.0,-27.62],[67.25,-27.38],[65.62,-28.5],[65.38,-29.5],[66.5,-30.88],[68.75,-31.12]]]}},{"type":"Feature","properties":{"kind":"blob","cls":4,"id":50},"geometry":{"type":"Polygon","coordinates":[[[70.75,42.88],[71.5,42.62],[72.62,43.0],[71.5,43.12],[70.75,42.88]]]}},{"type":"Feature","properties":{"kind":"blob","cls":3,"id":51},"geometry":{"type":"Polygon","coordinates":[[[46.12,35.25],[45.12,35.75],[45.0,36.38],[43.62,36.5],[44.25,35.62],[46.12,35.25]]]}},{"type":"Feature","properties":{"kind":"blob","cls":1,"id":52},"geometry":{"type":"Polygon","coordinates":[[[-30.12,35.75],[-30.12,36.75],[-31.75,37.88],[-32.75,37.88],[-34.12,37.0],[-32.5,36.38],[-30.12,35.75]]]}},{"type":"Feature","properties":{"kind":"blob","cls":4,"id":53},"geometry":{"type":"Polygon","coordinates":[[[-70.75,-33.38],[-70.75,-32.62],[-70.88,-32.75],[-70.75,-33.38]]]}},{"type":"Feature","properties":{"kind":"blob","cls":4,"id":54},"geometry":{"type":"Polygon","coordinates":[[[82.0,44.62],[82.38,45.0],[81.38,45.0],[82.0,44.62]]]}},{"type":"Feature","properties":{"kind":"blob","cls":4,"id":55},"geometry":{"type":"Polygon","coordinates":[[[66.88,39.0],[67.0,38.88],[67.12,39.0],[66.88,39.0]]]}},{"type":"Feature","properties":{"kind":"center","id":1,"lat":-65.0,"lon":-120.75,"mslp":936.7,"hvtl":-49.4,"hvtu":-83.7,"hb":25.4,"idx":-1.6,"cls":4,"psfc":936.7,"terrain":false,"radius_km":200,"name":"asym cold","track":"T03"},"geometry":{"type":"Point","coordinates":[-120.75,-65.0]}},{"type":"Feature","properties":{"kind":"center","id":2,"lat":-58.5,"lon":-0.5,"mslp":942.2,"hvtl":312.9,"hvtu":-102.8,"hb":71.1,"idx":1.2,"cls":3,"psfc":942.2,"terrain":false,"radius_km":200,"name":"asym shallow warm","track":"T05"},"geometry":{"type":"Point","coordinates":[-0.5,-58.5]}},{"type":"Feature","properties":{"kind":"center","id":3,"lat":23.25,"lon":146.75,"mslp":945.9,"hvtl":144.8,"hvtu":215.9,"hb":-2.8,"idx":2.8,"cls":0,"psfc":945.9,"terrain":false,"radius_km":200,"name":"sym deep warm","track":"T02"},"geometry":{"type":"Point","coordinates":[146.75,23.25]}},{"type":"Feature","properties":{"kind":"center","id":4,"lat":-60.5,"lon":-147.25,"mslp":947.2,"hvtl":144.0,"hvtu":-48.7,"hb":39.4,"idx":1.3,"cls":3,"psfc":947.2,"terrain":false,"radius_km":200,"name":"asym shallow warm","track":"T10"},"geometry":{"type":"Point","coordinates":[-147.25,-60.5]}},{"type":"Feature","properties":{"kind":"center","id":5,"lat":-71.0,"lon":-138.25,"mslp":949.3,"hvtl":110.0,"hvtu":-40.9,"hb":50.8,"idx":1.2,"cls":3,"psfc":949.3,"terrain":false,"radius_km":200,"name":"asym shallow warm"},"geometry":{"type":"Point","coordinates":[-138.25,-71.0]}},{"type":"Feature","properties":{"kind":"center","id":6,"lat":-79.5,"lon":164.75,"mslp":958.0,"hvtl":-227.6,"hvtu":41.5,"hb":60.9,"idx":-1.6,"cls":6,"psfc":950.7,"terrain":false,"radius_km":200,"name":"shallow cold","track":"T17"},"geometry":{"type":"Point","coordinates":[164.75,-79.5]}},{"type":"Feature","properties":{"kind":"center","id":7,"lat":-64.0,"lon":135.5,"mslp":962.0,"hvtl":-184.8,"hvtu":-323.2,"hb":62.1,"idx":-2.9,"cls":4,"psfc":962.0,"terrain":false,"radius_km":200,"name":"asym cold","track":"T27"},"geometry":{"type":"Point","coordinates":[135.5,-64.0]}},{"type":"Feature","properties":{"kind":"center","id":8,"lat":-52.0,"lon":115.5,"mslp":963.3,"hvtl":-88.3,"hvtu":-204.6,"hb":39.0,"idx":-2.4,"cls":4,"psfc":963.3,"terrain":false,"radius_km":200,"name":"asym cold","track":"T04"},"geometry":{"type":"Point","coordinates":[115.5,-52.0]}},{"type":"Feature","properties":{"kind":"center","id":9,"lat":-63.75,"lon":102.75,"mslp":964.8,"hvtl":-21.6,"hvtu":-145.4,"hb":9.5,"idx":-1.3,"cls":5,"psfc":964.8,"terrain":false,"radius_km":200,"name":"sym cold","track":"T16"},"geometry":{"type":"Point","coordinates":[102.75,-63.75]}},{"type":"Feature","properties":{"kind":"center","id":10,"lat":-72.25,"lon":173.75,"mslp":964.9,"hvtl":-224.6,"hvtu":-94.7,"hb":42.7,"idx":-2.7,"cls":4,"psfc":964.9,"terrain":false,"radius_km":200,"name":"asym cold","track":"T35"},"geometry":{"type":"Point","coordinates":[173.75,-72.25]}},{"type":"Feature","properties":{"kind":"center","id":11,"lat":23.75,"lon":-177.25,"mslp":971.1,"hvtl":72.0,"hvtu":329.1,"hb":-0.4,"idx":2.2,"cls":0,"psfc":971.1,"terrain":false,"radius_km":200,"name":"sym deep warm","track":"T44"},"geometry":{"type":"Point","coordinates":[-177.25,23.75]}},{"type":"Feature","properties":{"kind":"center","id":12,"lat":55.0,"lon":-171.25,"mslp":972.4,"hvtl":9.7,"hvtu":-142.1,"hb":1.7,"idx":-0.7,"cls":1,"psfc":972.4,"terrain":false,"radius_km":200,"name":"sym shallow warm","track":"T40"},"geometry":{"type":"Point","coordinates":[-171.25,55.0]}},{"type":"Feature","properties":{"kind":"center","id":13,"lat":-59.0,"lon":65.75,"mslp":973.6,"hvtl":71.9,"hvtu":-116.6,"hb":22.7,"idx":0.4,"cls":3,"psfc":973.6,"terrain":false,"radius_km":200,"name":"asym shallow warm","track":"T08"},"geometry":{"type":"Point","coordinates":[65.75,-59.0]}},{"type":"Feature","properties":{"kind":"center","id":14,"lat":20.5,"lon":-113.5,"mslp":978.6,"hvtl":49.6,"hvtu":234.5,"hb":6.9,"idx":1.9,"cls":0,"psfc":978.6,"terrain":false,"radius_km":200,"name":"sym deep warm","track":"T42"},"geometry":{"type":"Point","coordinates":[-113.5,20.5]}},{"type":"Feature","properties":{"kind":"center","id":15,"lat":67.5,"lon":-6.75,"mslp":979.3,"hvtl":-44.8,"hvtu":-130.0,"hb":8.9,"idx":-1.7,"cls":5,"psfc":979.3,"terrain":false,"radius_km":200,"name":"sym cold","track":"T50"},"geometry":{"type":"Point","coordinates":[-6.75,67.5]}},{"type":"Feature","properties":{"kind":"center","id":16,"lat":-67.5,"lon":61.25,"mslp":984.8,"hvtl":-80.9,"hvtu":-116.3,"hb":34.2,"idx":-2.2,"cls":4,"psfc":968.7,"terrain":false,"radius_km":200,"name":"asym cold","track":"T48"},"geometry":{"type":"Point","coordinates":[61.25,-67.5]}},{"type":"Feature","properties":{"kind":"center","id":17,"lat":-52.0,"lon":-100.5,"mslp":989.0,"hvtl":-76.7,"hvtu":3.6,"hb":16.1,"idx":-1.3,"cls":6,"psfc":989.0,"terrain":false,"radius_km":200,"name":"shallow cold","track":"T73"},"geometry":{"type":"Point","coordinates":[-100.5,-52.0]}},{"type":"Feature","properties":{"kind":"center","id":18,"lat":69.5,"lon":119.5,"mslp":989.0,"hvtl":-79.5,"hvtu":-19.1,"hb":-7.3,"idx":-1.5,"cls":5,"psfc":960.0,"terrain":false,"radius_km":200,"name":"sym cold","track":"T60"},"geometry":{"type":"Point","coordinates":[119.5,69.5]}},{"type":"Feature","properties":{"kind":"center","id":19,"lat":-70.5,"lon":21.5,"mslp":989.7,"hvtl":-10.5,"hvtu":-252.8,"hb":17.8,"idx":-1.2,"cls":4,"psfc":974.7,"terrain":false,"radius_km":200,"name":"asym cold"},"geometry":{"type":"Point","coordinates":[21.5,-70.5]}},{"type":"Feature","properties":{"kind":"center","id":20,"lat":58.25,"lon":-149.75,"mslp":990.0,"hvtl":-96.1,"hvtu":-144.0,"hb":17.5,"idx":-2.4,"cls":4,"psfc":989.9,"terrain":false,"radius_km":200,"name":"asym cold","track":"T78"},"geometry":{"type":"Point","coordinates":[-149.75,58.25]}},{"type":"Feature","properties":{"kind":"center","id":21,"lat":-68.0,"lon":44.75,"mslp":990.0,"hvtl":-116.2,"hvtu":-232.2,"hb":15.2,"idx":-2.6,"cls":4,"psfc":923.6,"terrain":false,"radius_km":200,"name":"asym cold","track":"T47"},"geometry":{"type":"Point","coordinates":[44.75,-68.0]}},{"type":"Feature","properties":{"kind":"center","id":22,"lat":76.5,"lon":24.5,"mslp":990.5,"hvtl":-118.7,"hvtu":-158.2,"hb":37.4,"idx":-2.6,"cls":4,"psfc":990.4,"terrain":false,"radius_km":200,"name":"asym cold","track":"T63"},"geometry":{"type":"Point","coordinates":[24.5,76.5]}},{"type":"Feature","properties":{"kind":"center","id":23,"lat":61.0,"lon":-39.5,"mslp":991.4,"hvtl":117.1,"hvtu":-347.0,"hb":-6.6,"idx":0.7,"cls":1,"psfc":991.4,"terrain":false,"radius_km":200,"name":"sym shallow warm","track":"T62"},"geometry":{"type":"Point","coordinates":[-39.5,61.0]}},{"type":"Feature","properties":{"kind":"center","id":24,"lat":58.25,"lon":-30.25,"mslp":992.4,"hvtl":-411.9,"hvtu":-439.2,"hb":94.7,"idx":-3.0,"cls":4,"psfc":992.4,"terrain":false,"radius_km":200,"name":"asym cold","track":"T59"},"geometry":{"type":"Point","coordinates":[-30.25,58.25]}},{"type":"Feature","properties":{"kind":"center","id":25,"lat":68.0,"lon":-57.75,"mslp":992.8,"hvtl":3.1,"hvtu":-6.7,"hb":16.7,"idx":-0.0,"cls":3,"psfc":992.8,"terrain":false,"radius_km":200,"name":"asym shallow warm","track":"T69"},"geometry":{"type":"Point","coordinates":[-57.75,68.0]}},{"type":"Feature","properties":{"kind":"center","id":26,"lat":62.0,"lon":132.25,"mslp":993.6,"hvtl":-350.7,"hvtu":-251.2,"hb":68.3,"idx":-3.0,"cls":4,"psfc":968.5,"terrain":false,"radius_km":200,"name":"asym cold"},"geometry":{"type":"Point","coordinates":[132.25,62.0]}},{"type":"Feature","properties":{"kind":"center","id":27,"lat":62.5,"lon":-153.5,"mslp":994.2,"hvtl":74.6,"hvtu":-59.0,"hb":0.3,"idx":0.7,"cls":1,"psfc":915.1,"terrain":false,"radius_km":200,"name":"sym shallow warm","track":"T76"},"geometry":{"type":"Point","coordinates":[-153.5,62.5]}},{"type":"Feature","properties":{"kind":"center","id":28,"lat":61.5,"lon":-149.25,"mslp":994.7,"hvtl":-50.8,"hvtu":-80.6,"hb":10.8,"idx":-1.6,"cls":4,"psfc":954.5,"terrain":false,"radius_km":200,"name":"asym cold","track":"T82"},"geometry":{"type":"Point","coordinates":[-149.25,61.5]}},{"type":"Feature","properties":{"kind":"center","id":29,"lat":57.75,"lon":65.75,"mslp":996.4,"hvtl":-4.5,"hvtu":-282.0,"hb":56.4,"idx":-1.1,"cls":4,"psfc":986.8,"terrain":false,"radius_km":200,"name":"asym cold","track":"T84"},"geometry":{"type":"Point","coordinates":[65.75,57.75]}},{"type":"Feature","properties":{"kind":"center","id":30,"lat":-50.75,"lon":-60.0,"mslp":997.9,"hvtl":65.1,"hvtu":-28.3,"hb":1.9,"idx":0.9,"cls":1,"psfc":997.9,"terrain":false,"radius_km":200,"name":"sym shallow warm","track":"T86"},"geometry":{"type":"Point","coordinates":[-60.0,-50.75]}},{"type":"Feature","properties":{"kind":"center","id":31,"lat":66.75,"lon":-33.75,"mslp":997.9,"hvtl":54.9,"hvtu":-208.7,"hb":1.3,"idx":0.0,"cls":1,"psfc":997.1,"terrain":false,"radius_km":200,"name":"sym shallow warm"},"geometry":{"type":"Point","coordinates":[-33.75,66.75]}},{"type":"Feature","properties":{"kind":"center","id":32,"lat":67.25,"lon":-63.0,"mslp":998.0,"hvtl":32.6,"hvtu":-67.4,"hb":7.5,"idx":0.0,"cls":1,"psfc":982.8,"terrain":false,"radius_km":200,"name":"sym shallow warm","track":"T83"},"geometry":{"type":"Point","coordinates":[-63.0,67.25]}},{"type":"Feature","properties":{"kind":"center","id":33,"lat":72.25,"lon":-55.75,"mslp":998.7,"hvtl":-79.0,"hvtu":-46.6,"hb":35.3,"idx":-1.8,"cls":4,"psfc":995.8,"terrain":false,"radius_km":200,"name":"asym cold","track":"T80"},"geometry":{"type":"Point","coordinates":[-55.75,72.25]}},{"type":"Feature","properties":{"kind":"center","id":34,"lat":-35.5,"lon":-93.5,"mslp":1003.6,"hvtl":-152.0,"hvtu":-327.4,"hb":29.5,"idx":-2.8,"cls":4,"psfc":1003.6,"terrain":false,"radius_km":200,"name":"asym cold","track":"T93"},"geometry":{"type":"Point","coordinates":[-93.5,-35.5]}},{"type":"Feature","properties":{"kind":"center","id":35,"lat":-35.0,"lon":-49.0,"mslp":1003.9,"hvtl":2.5,"hvtu":-199.2,"hb":38.2,"idx":-0.9,"cls":3,"psfc":1003.9,"terrain":false,"radius_km":200,"name":"asym shallow warm","track":"T20"},"geometry":{"type":"Point","coordinates":[-49.0,-35.0]}},{"type":"Feature","properties":{"kind":"center","id":36,"lat":30.0,"lon":70.75,"mslp":1004.0,"hvtl":34.9,"hvtu":-58.6,"hb":5.1,"idx":0.1,"cls":1,"psfc":990.7,"terrain":false,"radius_km":200,"name":"sym shallow warm","track":"T103"},"geometry":{"type":"Point","coordinates":[70.75,30.0]}},{"type":"Feature","properties":{"kind":"center","id":37,"lat":11.0,"lon":-52.0,"mslp":1005.6,"hvtl":3.8,"hvtu":47.7,"hb":-6.3,"idx":0.5,"cls":0,"psfc":1005.6,"terrain":false,"radius_km":200,"name":"sym deep warm"},"geometry":{"type":"Point","coordinates":[-52.0,11.0]}},{"type":"Feature","properties":{"kind":"center","id":38,"lat":50.75,"lon":-83.5,"mslp":1006.1,"hvtl":-96.9,"hvtu":-306.6,"hb":37.0,"idx":-2.5,"cls":4,"psfc":989.2,"terrain":false,"radius_km":200,"name":"asym cold","track":"T61"},"geometry":{"type":"Point","coordinates":[-83.5,50.75]}},{"type":"Feature","properties":{"kind":"center","id":39,"lat":-16.0,"lon":-66.0,"mslp":1007.2,"hvtl":-7.1,"hvtu":-66.1,"hb":-2.0,"idx":-0.7,"cls":5,"psfc":981.7,"terrain":false,"radius_km":200,"name":"sym cold","track":"T99"},"geometry":{"type":"Point","coordinates":[-66.0,-16.0]}},{"type":"Feature","properties":{"kind":"center","id":40,"lat":45.0,"lon":78.0,"mslp":1007.7,"hvtl":-274.0,"hvtu":-90.9,"hb":52.4,"idx":-2.7,"cls":4,"psfc":952.2,"terrain":false,"radius_km":200,"name":"asym cold"},"geometry":{"type":"Point","coordinates":[78.0,45.0]}},{"type":"Feature","properties":{"kind":"center","id":41,"lat":76.5,"lon":-151.75,"mslp":1008.4,"hvtl":-86.0,"hvtu":-36.8,"hb":4.5,"idx":-1.7,"cls":5,"psfc":1008.4,"terrain":false,"radius_km":200,"name":"sym cold","track":"T123"},"geometry":{"type":"Point","coordinates":[-151.75,76.5]}},{"type":"Feature","properties":{"kind":"center","id":42,"lat":24.75,"lon":95.0,"mslp":1008.6,"hvtl":21.8,"hvtu":-38.6,"hb":16.8,"idx":0.1,"cls":3,"psfc":990.0,"terrain":false,"radius_km":200,"name":"asym shallow warm"},"geometry":{"type":"Point","coordinates":[95.0,24.75]}},{"type":"Feature","properties":{"kind":"center","id":43,"lat":-28.25,"lon":-66.5,"mslp":1008.7,"hvtl":-65.6,"hvtu":-219.9,"hb":26.9,"idx":-2.1,"cls":4,"psfc":925.4,"terrain":false,"radius_km":200,"name":"asym cold","track":"T98"},"geometry":{"type":"Point","coordinates":[-66.5,-28.25]}},{"type":"Feature","properties":{"kind":"center","id":44,"lat":29.75,"lon":63.0,"mslp":1009.6,"hvtl":47.1,"hvtu":-58.5,"hb":-0.3,"idx":0.4,"cls":1,"psfc":918.0,"terrain":true,"radius_km":200,"name":"sym shallow warm"},"geometry":{"type":"Point","coordinates":[63.0,29.75]}},{"type":"Feature","properties":{"kind":"center","id":45,"lat":40.75,"lon":70.75,"mslp":1010.9,"hvtl":-271.6,"hvtu":-131.1,"hb":102.3,"idx":-2.8,"cls":4,"psfc":953.1,"terrain":false,"radius_km":200,"name":"asym cold"},"geometry":{"type":"Point","coordinates":[70.75,40.75]}},{"type":"Feature","properties":{"kind":"center","id":46,"lat":26.0,"lon":93.75,"mslp":1011.0,"hvtl":-7.8,"hvtu":-65.0,"hb":13.1,"idx":-0.7,"cls":4,"psfc":988.1,"terrain":false,"radius_km":200,"name":"asym cold"},"geometry":{"type":"Point","coordinates":[93.75,26.0]}},{"type":"Feature","properties":{"kind":"center","id":47,"lat":-15.0,"lon":48.25,"mslp":1011.5,"hvtl":68.0,"hvtu":-85.3,"hb":-10.9,"idx":0.5,"cls":1,"psfc":989.7,"terrain":false,"radius_km":200,"name":"sym shallow warm"},"geometry":{"type":"Point","coordinates":[48.25,-15.0]}},{"type":"Feature","properties":{"kind":"center","id":48,"lat":38.0,"lon":67.75,"mslp":1011.6,"hvtl":37.1,"hvtu":-165.5,"hb":96.3,"idx":-0.2,"cls":3,"psfc":957.2,"terrain":false,"radius_km":200,"name":"asym shallow warm","track":"T131"},"geometry":{"type":"Point","coordinates":[67.75,38.0]}},{"type":"Feature","properties":{"kind":"center","id":49,"lat":-29.25,"lon":67.75,"mslp":1014.6,"hvtl":22.5,"hvtu":-200.4,"hb":21.7,"idx":-0.5,"cls":3,"psfc":1014.7,"terrain":false,"radius_km":200,"name":"asym shallow warm","track":"T134"},"geometry":{"type":"Point","coordinates":[67.75,-29.25]}},{"type":"Feature","properties":{"kind":"center","id":50,"lat":43.0,"lon":72.5,"mslp":1015.6,"hvtl":-322.4,"hvtu":-175.7,"hb":76.2,"idx":-2.9,"cls":4,"psfc":931.8,"terrain":false,"radius_km":200,"name":"asym cold"},"geometry":{"type":"Point","coordinates":[72.5,43.0]}},{"type":"Feature","properties":{"kind":"center","id":51,"lat":35.25,"lon":45.75,"mslp":1017.4,"hvtl":59.7,"hvtu":-199.7,"hb":69.2,"idx":0.1,"cls":3,"psfc":946.9,"terrain":false,"radius_km":200,"name":"asym shallow warm","track":"T128"},"geometry":{"type":"Point","coordinates":[45.75,35.25]}},{"type":"Feature","properties":{"kind":"center","id":52,"lat":36.5,"lon":-32.25,"mslp":1017.7,"hvtl":31.3,"hvtu":-23.0,"hb":-13.1,"idx":0.4,"cls":1,"psfc":1017.7,"terrain":false,"radius_km":200,"name":"sym shallow warm"},"geometry":{"type":"Point","coordinates":[-32.25,36.5]}},{"type":"Feature","properties":{"kind":"center","id":53,"lat":-32.75,"lon":-70.75,"mslp":1018.3,"hvtl":-155.7,"hvtu":-347.8,"hb":41.4,"idx":-2.8,"cls":4,"psfc":916.1,"terrain":true,"radius_km":200,"name":"asym cold"},"geometry":{"type":"Point","coordinates":[-70.75,-32.75]}},{"type":"Feature","properties":{"kind":"center","id":54,"lat":45.0,"lon":82.25,"mslp":1019.3,"hvtl":-46.7,"hvtu":-60.6,"hb":20.5,"idx":-1.4,"cls":4,"psfc":947.1,"terrain":false,"radius_km":200,"name":"asym cold"},"geometry":{"type":"Point","coordinates":[82.25,45.0]}},{"type":"Feature","properties":{"kind":"center","id":55,"lat":39.0,"lon":67.0,"mslp":1020.5,"hvtl":-190.2,"hvtu":-170.9,"hb":108.6,"idx":-2.8,"cls":4,"psfc":906.7,"terrain":true,"radius_km":200,"name":"asym cold"},"geometry":{"type":"Point","coordinates":[67.0,39.0]}}]}