{"type":"FeatureCollection","features":[{"type":"Feature","properties":{"kind":"blob","cls":1,"id":1},"geometry":{"type":"Polygon","coordinates":[[[-161.75,-70.12],[-153.75,-70.12],[-152.25,-69.62],[-151.38,-68.75],[-151.38,-68.0],[-152.25,-67.12],[-153.75,-66.62],[-156.0,-67.38],[-158.0,-67.38],[-156.88,-66.5],[-157.25,-66.12],[-161.25,-66.12],[-165.5,-67.12],[-166.38,-68.0],[-166.38,-68.5],[-165.5,-69.38],[-161.75,-70.12]]]}},{"type":"Feature","properties":{"kind":"blob","cls":4,"id":2},"geometry":{"type":"Polygon","coordinates":[[[21.0,-59.38],[24.75,-59.38],[26.12,-58.5],[26.38,-57.5],[25.25,-56.12],[23.75,-55.38],[19.75,-55.38],[18.12,-56.75],[18.12,-57.5],[19.25,-58.88],[21.0,-59.38]]]}},{"type":"Feature","properties":{"kind":"blob","cls":3,"id":3},"geometry":{"type":"Polygon","coordinates":[[[123.5,-66.62],[123.62,-65.75],[121.25,-64.38],[117.0,-64.12],[114.75,-64.62],[113.12,-65.75],[114.25,-66.62],[123.5,-66.62]]]}},{"type":"Feature","properties":{"kind":"blob","cls":4,"id":4},"geometry":{"type":"Polygon","coordinates":[[[94.25,-59.12],[99.25,-59.12],[101.12,-58.0],[101.38,-56.75],[100.25,-55.62],[98.5,-55.12],[95.75,-55.12],[93.75,-55.62],[92.12,-56.75],[91.88,-57.75],[92.5,-58.62],[94.25,-59.12]]]}},{"type":"Feature","properties":{"kind":"blob","cls":6,"id":5},"geometry":{"type":"Polygon","coordinates":[[[5.75,-63.12],[8.5,-62.38],[10.88,-60.75],[11.38,-59.25],[10.25,-58.12],[8.5,-57.62],[6.0,-57.88],[3.0,-59.12],[1.75,-57.62],[0.0,-57.12],[-2.75,-57.38],[-4.38,-58.5],[-4.62,-59.25],[-3.25,-60.88],[-1.5,-61.38],[0.5,-61.12],[1.25,-62.38],[5.75,-63.12]],[[5.0,-62.12],[3.38,-61.0],[3.25,-59.88],[4.25,-59.62],[5.38,-60.5],[5.62,-62.0],[5.0,-62.12]]]}},{"type":"Feature","properties":{"kind":"blob","cls":3,"id":6},"geometry":{"type":"Polygon","coordinates":[[[168.5,54.88],[170.38,56.75],[168.75,58.38],[164.0,58.38],[162.38,56.75],[163.75,55.12],[168.5,54.88]]]}},{"type":"Feature","properties":{"kind":"blob","cls":5,"id":7},"geometry":{"type":"Polygon","coordinates":[[[96.25,-66.12],[106.25,-66.38],[107.62,-65.75],[105.0,-64.62],[101.25,-64.38],[96.25,-66.12]]]}},{"type":"Feature","properties":{"kind":"blob","cls":4,"id":8},"geometry":{"type":"Polygon","coordinates":[[[179.88,52.0],[180.0,54.62],[178.0,55.38],[174.75,55.12],[173.62,54.5],[173.12,53.5],[173.38,52.5],[174.75,51.12],[176.25,50.62],[178.25,50.88],[179.88,52.0]]]}},{"type":"Feature","properties":{"kind":"blob","cls":4,"id":8},"geometry":{"type":"Polygon","coordinates":[[[-180.0,54.62],[-180.0,52.12],[-179.38,53.25],[-180.0,54.62]]]}},{"type":"Feature","properties":{"kind":"blob","cls":4,"id":9},"geometry":{"type":"MultiPolygon","coordinates":[[[[50.88,-67.25],[51.25,-67.38],[51.0,-66.38],[50.88,-67.25]]],[[[67.0,-68.12],[67.12,-67.25],[66.0,-66.38],[68.25,-66.12],[70.12,-65.0],[69.75,-63.38],[68.25,-62.62],[64.0,-62.38],[61.5,-62.88],[60.0,-63.62],[59.38,-64.25],[59.5,-65.62],[56.5,-64.62],[54.5,-64.62],[52.5,-65.12],[51.12,-66.0],[51.25,-66.38],[55.25,-66.12],[55.88,-66.5],[56.0,-67.12],[58.0,-67.12],[59.75,-67.62],[67.0,-68.12]]]]}},{"type":"Feature","properties":{"kind":"blob","cls":5,"id":10},"geometry":{"type":"Polygon","coordinates":[[[140.75,-66.88],[141.62,-66.0],[141.62,-65.5],[140.75,-64.62],[139.5,-64.12],[135.5,-63.88],[133.25,-64.38],[131.88,-65.5],[132.25,-66.38],[133.5,-66.12],[134.0,-66.62],[140.75,-66.88]]]}},{"type":"Feature","properties":{"kind":"blob","cls":4,"id":11},"geometry":{"type":"Polygon","coordinates":[[[-107.75,-61.62],[-106.0,-61.12],[-104.88,-60.0],[-104.88,-59.25],[-106.25,-57.88],[-108.0,-57.38],[-111.25,-57.88],[-112.62,-59.25],[-112.62,-59.75],[-111.5,-60.88],[-107.75,-61.62]]]}},{"type":"Feature","properties":{"kind":"blob","cls":1,"id":12},"geometry":{"type":"Polygon","coordinates":[[[156.5,54.88],[158.12,56.5],[156.5,58.12],[152.75,58.12],[151.12,56.5],[152.25,55.12],[156.5,54.88]]]}},{"type":"Feature","properties":{"kind":"blob","cls":5,"id":13},"geometry":{"type":"Polygon","coordinates":[[[-101.75,-72.38],[-99.0,-71.88],[-97.38,-70.75],[-97.38,-70.0],[-98.0,-69.38],[-100.0,-68.62],[-104.5,-68.38],[-107.25,-68.88],[-108.88,-70.0],[-108.88,-70.75],[-108.25,-71.38],[-106.25,-72.12],[-101.75,-72.38]]]}},{"type":"Feature","properties":{"kind":"blob","cls":1,"id":14},"geometry":{"type":"Polygon","coordinates":[[[-115.75,-56.62],[-113.75,-55.88],[-112.88,-54.75],[-113.12,-53.75],[-113.75,-53.12],[-115.75,-52.38],[-117.25,-52.38],[-119.25,-53.12],[-119.88,-54.0],[-119.62,-55.25],[-118.0,-56.38],[-115.75,-56.62]]]}},{"type":"Feature","properties":{"kind":"blob","cls":4,"id":15},"geometry":{"type":"Polygon","coordinates":[[[-47.75,-81.38],[-39.75,-80.62],[-36.25,-79.62],[-31.25,-78.88],[-35.25,-78.62],[-35.38,-78.25],[-29.88,-76.75],[-35.0,-76.62],[-36.75,-75.88],[-40.75,-75.38],[-48.0,-75.62],[-50.5,-76.12],[-51.88,-77.0],[-51.88,-77.5],[-50.75,-78.38],[-54.75,-78.62],[-57.25,-79.38],[-57.88,-80.0],[-56.25,-81.12],[-68.38,-81.0],[-47.75,-81.38]],[[-47.0,-80.38],[-48.62,-80.0],[-47.25,-78.88],[-43.88,-79.5],[-44.25,-79.88],[-47.0,-80.38]],[[-47.12,-78.25],[-45.62,-78.25],[-45.75,-78.38],[-47.12,-78.25]]]}},{"type":"Feature","properties":{"kind":"blob","cls":4,"id":16},"geometry":{"type":"Polygon","coordinates":[[[34.25,-69.38],[35.75,-69.62],[43.0,-68.12],[48.75,-67.62],[48.88,-67.0],[47.5,-65.88],[45.25,-65.38],[40.0,-65.62],[37.0,-66.12],[34.75,-67.12],[34.12,-68.0],[34.62,-68.75],[34.25,-69.38]]]}},{"type":"Feature","properties":{"kind":"blob","cls":1,"id":17},"geometry":{"type":"Polygon","coordinates":[[[46.5,72.88],[49.0,73.62],[50.12,74.5],[50.12,75.25],[47.75,76.62],[44.25,77.12],[38.5,77.12],[36.12,76.75],[43.0,75.62],[45.25,74.62],[45.25,74.12],[42.0,74.12],[36.25,75.12],[34.25,75.88],[33.12,75.75],[32.88,74.5],[33.75,73.62],[36.25,72.88],[46.5,72.88]]]}},{"type":"Feature","properties":{"kind":"blob","cls":4,"id":18},"geometry":{"type":"Polygon","coordinates":[[[-10.5,-72.62],[-9.75,-72.12],[-7.75,-72.12],[-5.0,-71.38],[-1.5,-71.62],[-0.12,-71.25],[-2.75,-70.12],[-7.0,-69.88],[-10.5,-70.62],[-11.38,-71.25],[-11.38,-72.25],[-10.5,-72.62]]]}},{"type":"Feature","properties":{"kind":"blob","cls":4,"id":19},"geometry":{"type":"Polygon","coordinates":[[[117.25,-51.62],[119.5,-50.62],[120.12,-49.5],[119.62,-48.0],[116.75,-46.62],[115.75,-46.62],[114.0,-47.38],[113.38,-48.25],[113.62,-50.0],[115.25,-51.38],[117.25,-51.62]]]}},{"type":"Feature","properties":{"kind":"blob","cls":5,"id":20},"geometry":{"type":"Polygon","coordinates":[[[-61.25,-68.12],[-59.5,-67.38],[-58.88,-66.5],[-59.5,-65.62],[-62.0,-64.88],[-63.25,-66.12],[-63.75,-66.12],[-65.62,-67.5],[-65.5,-68.12],[-61.25,-68.12]]]}},{"type":"Feature","properties":{"kind":"blob","cls":3,"id":21},"geometry":{"type":"Polygon","coordinates":[[[162.5,-79.62],[164.0,-79.88],[168.25,-79.38],[170.5,-78.62],[170.88,-77.75],[167.5,-75.62],[164.5,-75.12],[162.38,-77.0],[164.62,-78.5],[161.75,-78.62],[162.5,-79.62]],[[166.62,-77.5],[169.12,-77.5],[169.0,-77.62],[166.62,-77.5]]]}},{"type":"Feature","properties":{"kind":"blob","cls":5,"id":22},"geometry":{"type":"Polygon","coordinates":[[[-69.0,-69.38],[-66.75,-68.88],[-66.88,-68.0],[-66.0,-66.62],[-62.38,-64.75],[-66.0,-64.88],[-68.0,-65.88],[-72.75,-65.88],[-74.88,-67.0],[-74.88,-68.0],[-73.5,-68.88],[-69.0,-69.38]]]}},{"type":"Feature","properties":{"kind":"blob","cls":4,"id":23},"geometry":{"type":"Polygon","coordinates":[[[162.5,-71.62],[162.62,-71.25],[162.0,-70.62],[160.88,-70.5],[161.0,-70.88],[162.5,-71.62]]]}},{"type":"Feature","properties":{"kind":"blob","cls":0,"id":24},"geometry":{"type":"Polygon","coordinates":[[[-122.75,20.38],[-122.0,20.38],[-120.38,21.5],[-120.38,23.0],[-122.25,24.38],[-124.0,24.12],[-124.88,23.25],[-124.88,21.75],[-124.25,21.12],[-123.0,21.12],[-122.75,20.38]]]}},{"type":"Feature","properties":{"kind":"blob","cls":4,"id":25},"geometry":{"type":"Polygon","coordinates":[[[-38.0,58.12],[-37.25,58.38],[-36.0,59.88],[-30.75,60.88],[-29.12,62.25],[-29.12,63.25],[-30.25,64.12],[-32.25,64.62],[-35.0,64.62],[-38.0,63.88],[-39.25,63.12],[-40.0,62.12],[-43.25,61.38],[-44.12,60.25],[-44.12,59.5],[-43.0,58.38],[-38.0,58.12]]]}},{"type":"Feature","properties":{"kind":"blob","cls":3,"id":26},"geometry":{"type":"Polygon","coordinates":[[[-81.0,54.38],[-76.75,54.38],[-75.25,55.12],[-74.12,56.5],[-75.5,58.12],[-76.5,58.62],[-82.0,58.62],[-83.12,57.75],[-82.12,57.0],[-82.25,56.62],[-84.12,56.5],[-83.0,54.88],[-81.0,54.38]]]}},{"type":"Feature","properties":{"kind":"blob","cls":3,"id":27},"geometry":{"type":"Polygon","coordinates":[[[121.75,77.88],[125.25,78.62],[126.62,79.75],[126.0,80.62],[124.25,81.38],[116.5,82.38],[104.25,82.12],[101.0,81.62],[99.12,80.75],[99.25,80.12],[102.75,78.88],[107.25,78.12],[121.75,77.88]]]}},{"type":"Feature","properties":{"kind":"blob","cls":1,"id":28},"geometry":{"type":"Polygon","coordinates":[[[179.75,75.12],[180.0,79.62],[171.75,79.38],[170.25,79.12],[168.5,77.88],[166.62,77.5],[167.0,76.62],[169.0,75.88],[174.5,75.12],[179.75,75.12]]]}},{"type":"Feature","properties":{"kind":"blob","cls":1,"id":28},"geometry":{"type":"Polygon","coordinates":[[[-179.75,79.62],[-180.0,75.12],[-172.5,75.88],[-170.12,77.0],[-170.12,77.5],[-171.0,78.38],[-171.75,78.62],[-175.25,79.38],[-179.75,79.62]]]}},{"type":"Feature","properties":{"kind":"blob","cls":4,"id":29},"geometry":{"type":"Polygon","coordinates":[[[128.25,-31.88],[129.75,-31.38],[130.62,-30.5],[130.88,-29.5],[129.75,-28.12],[127.25,-27.12],[125.62,-28.25],[125.38,-29.25],[126.12,-30.75],[127.0,-31.62],[128.25,-31.88]]]}},{"type":"Feature","properties":{"kind":"blob","cls":6,"id":30},"geometry":{"type":"Polygon","coordinates":[[[165.0,15.62],[168.0,15.62],[168.62,16.5],[168.38,18.25],[165.75,20.12],[164.25,19.88],[163.38,18.75],[163.62,17.25],[165.0,15.62]]]}},{"type":"Feature","properties":{"kind":"blob","cls":0,"id":31},"geometry":{"type":"MultiPolygon","coordinates":[[[[-92.75,57.62],[-91.0,58.12],[-90.62,58.5],[-92.5,59.62],[-92.88,60.25],[-90.12,60.25],[-91.0,61.12],[-93.25,61.88],[-96.0,61.88],[-98.5,60.88],[-98.88,60.25],[-98.62,59.25],[-97.0,58.12],[-92.75,57.62]]],[[[-90.0,60.12],[-90.12,60.0],[-90.0,59.88],[-90.0,60.12]]]]}},{"type":"Feature","properties":{"kind":"blob","cls":1,"id":32},"geometry":{"type":"Polygon","coordinates":[[[158.5,27.88],[159.62,29.25],[159.38,30.5],[158.25,31.62],[156.25,31.62],[154.88,30.0],[155.12,28.75],[156.0,27.88],[158.5,27.88]]]}},{"type":"Feature","properties":{"kind":"blob","cls":1,"id":33},"geometry":{"type":"Polygon","coordinates":[[[-61.0,-22.38],[-60.12,-21.25],[-60.12,-19.75],[-60.62,-18.5],[-62.0,-16.88],[-63.12,-16.5],[-63.12,-15.25],[-64.75,-12.62],[-66.75,-12.62],[-67.62,-13.75],[-67.88,-15.25],[-63.38,-18.25],[-63.88,-19.0],[-63.12,-19.5],[-63.38,-20.75],[-64.12,-21.25],[-63.0,-22.38],[-61.0,-22.38]]]}},{"type":"Feature","properties":{"kind":"blob","cls":3,"id":34},"geometry":{"type":"Polygon","coordinates":[[[-164.0,27.38],[-162.88,28.75],[-163.12,31.0],[-164.75,32.12],[-166.25,31.88],[-167.38,30.5],[-166.88,28.25],[-166.0,27.38],[-164.0,27.38]]]}},{"type":"Feature","properties":{"kind":"blob","cls":1,"id":35},"geometry":{"type":"Polygon","coordinates":[[[148.75,11.88],[149.62,13.0],[149.38,14.25],[150.38,15.5],[150.38,16.5],[149.5,17.62],[147.5,17.62],[145.62,15.0],[145.62,13.0],[146.5,11.88],[148.75,11.88]]]}},{"type":"Feature","properties":{"kind":"blob","cls":4,"id":36},"geometry":{"type":"Polygon","coordinates":[[[-76.5,29.38],[-75.38,30.5],[-75.38,31.5],[-76.0,32.38],[-77.75,32.88],[-79.0,32.38],[-79.62,31.5],[-79.62,30.5],[-79.12,29.75],[-76.5,29.38]]]}},{"type":"Feature","properties":{"kind":"blob","cls":3,"id":37},"geometry":{"type":"Polygon","coordinates":[[[-56.0,-38.38],[-53.75,-38.62],[-52.75,-38.12],[-51.88,-37.0],[-51.88,-35.5],[-54.25,-33.88],[-55.5,-33.88],[-56.5,-34.38],[-57.38,-35.25],[-57.38,-37.5],[-56.0,-38.38]]]}},{"type":"Feature","properties":{"kind":"blob","cls":1,"id":38},"geometry":{"type":"Polygon","coordinates":[[[-73.0,-11.88],[-72.38,-11.25],[-73.88,-11.25],[-73.0,-11.88]]]}},{"type":"Feature","properties":{"kind":"blob","cls":5,"id":39},"geometry":{"type":"MultiPolygon","coordinates":[[[[-116.5,32.62],[-116.62,32.5],[-116.5,32.38],[-116.5,32.62]]],[[[-114.75,31.12],[-112.5,31.12],[-111.62,31.75],[-111.62,32.25],[-113.0,33.62],[-116.0,35.38],[-116.62,34.5],[-115.88,34.0],[-116.62,34.0],[-116.38,33.5],[-116.88,33.0],[-116.5,33.12],[-115.62,31.5],[-114.75,31.12]]]]}},{"type":"Feature","properties":{"kind":"blob","cls":6,"id":40},"geometry":{"type":"Polygon","coordinates":[[[166.5,-39.62],[168.12,-38.5],[168.38,-37.25],[167.5,-35.88],[166.5,-35.38],[165.25,-35.38],[163.38,-36.75],[163.38,-38.5],[164.25,-39.38],[166.5,-39.62]],[[167.0,-37.12],[166.38,-36.75],[166.75,-36.12],[167.38,-36.5],[167.0,-37.12]]]}},{"type":"Feature","properties":{"kind":"blob","cls":4,"id":41},"geometry":{"type":"Polygon","coordinates":[[[-57.75,72.62],[-55.12,73.25],[-57.75,74.38],[-60.0,76.38],[-66.88,76.75],[-64.62,77.5],[-65.5,77.88],[-72.25,77.38],[-74.0,76.62],[-74.62,75.75],[-74.25,75.12],[-71.5,74.12],[-65.0,72.88],[-57.75,72.62]],[[-68.12,77.0],[-67.38,77.0],[-67.5,76.88],[-68.12,77.0]]]}},{"type":"Feature","properties":{"kind":"blob","cls":3,"id":42},"geometry":{"type":"Polygon","coordinates":[[[-74.12,-12.0],[-74.0,-12.12],[-73.88,-11.75],[-74.12,-12.0]]]}},{"type":"Feature","properties":{"kind":"blob","cls":3,"id":43},"geometry":{"type":"Polygon","coordinates":[[[-74.5,-11.38],[-74.12,-11.25],[-74.25,-11.12],[-74.5,-11.38]]]}},{"type":"Feature","properties":{"kind":"blob","cls":5,"id":44},"geometry":{"type":"Polygon","coordinates":[[[-103.75,75.62],[-98.75,76.12],[-95.0,77.12],[-94.12,77.75],[-94.12,78.25],[-95.0,78.88],[-100.75,79.12],[-100.88,79.5],[-100.38,79.75],[-100.75,80.12],[-107.75,80.38],[-113.75,79.62],[-115.5,79.12],[-116.62,78.25],[-116.0,77.12],[-115.0,76.62],[-111.25,75.88],[-103.75,75.62]]]}},{"type":"Feature","properties":{"kind":"blob","cls":4,"id":45},"geometry":{"type":"Polygon","coordinates":[[[73.5,29.12],[75.5,29.88],[76.12,30.75],[76.12,31.75],[75.25,32.38],[72.25,32.38],[70.25,31.88],[69.88,29.75],[73.5,29.12]]]}},{"type":"Feature","properties":{"kind":"blob","cls":4,"id":46},"geometry":{"type":"Polygon","coordinates":[[[-19.5,69.88],[-16.0,70.62],[-13.25,71.88],[-11.38,74.0],[-11.38,74.75],[-13.25,75.88],[-19.0,76.38],[-22.0,77.38],[-24.25,77.62],[-24.38,76.5],[-22.0,75.62],[-22.12,75.0],[-21.62,74.75],[-22.25,74.38],[-24.25,74.38],[-25.12,72.5],[-24.12,72.0],[-25.25,71.38],[-26.0,71.62],[-26.0,71.12],[-26.62,71.0],[-26.0,70.62],[-27.38,70.25],[-19.5,69.88]]]}},{"type":"Feature","properties":{"kind":"blob","cls":3,"id":47},"geometry":{"type":"Polygon","coordinates":[[[-77.0,-39.62],[-75.25,-39.62],[-74.12,-38.5],[-73.88,-37.5],[-75.0,-36.12],[-77.25,-35.88],[-78.88,-37.0],[-79.12,-38.25],[-78.25,-37.62],[-77.5,-37.62],[-76.62,-38.75],[-76.62,-39.5],[-77.0,-39.62]]]}},{"type":"Feature","properties":{"kind":"blob","cls":4,"id":48},"geometry":{"type":"Polygon","coordinates":[[[-35.25,43.88],[-34.0,44.38],[-33.12,45.5],[-33.38,46.5],[-35.25,47.62],[-37.5,47.12],[-38.12,46.5],[-38.38,45.5],[-37.5,44.38],[-35.25,43.88]]]}},{"type":"Feature","properties":{"kind":"blob","cls":3,"id":49},"geometry":{"type":"Polygon","coordinates":[[[62.38,30.75],[62.38,32.75],[61.62,33.0],[61.5,33.62],[60.88,32.75],[60.88,31.75],[62.38,30.75]]]}},{"type":"Feature","properties":{"kind":"blob","cls":4,"id":50},"geometry":{"type":"Polygon","coordinates":[[[-27.38,70.75],[-27.25,70.62],[-27.12,70.75],[-27.38,70.75]]]}},{"type":"Feature","properties":{"kind":"blob","cls":3,"id":51},"geometry":{"type":"Polygon","coordinates":[[[64.0,-33.62],[65.25,-33.12],[65.88,-32.25],[65.88,-31.25],[64.5,-29.62],[62.75,-29.12],[61.38,-29.75],[60.88,-30.5],[60.88,-31.5],[62.25,-33.12],[64.0,-33.62]]]}},{"type":"Feature","properties":{"kind":"blob","cls":3,"id":52},"geometry":{"type":"Polygon","coordinates":[[[47.0,-41.12],[48.12,-39.75],[47.88,-38.75],[46.25,-37.12],[45.5,-36.88],[43.25,-37.12],[42.12,-38.5],[42.38,-39.75],[44.0,-41.12],[47.0,-41.12]]]}},{"type":"Feature","properties":{"kind":"center","id":1,"lat":-68.5,"lon":-157.75,"mslp":956.8,"hvtl":88.2,"hvtu":-49.5,"hb":-25.6,"idx":1.0,"cls":1,"psfc":956.8,"terrain":false,"radius_km":200,"name":"sym shallow warm","track":"T13"},"geometry":{"type":"Point","coordinates":[-157.75,-68.5]}},{"type":"Feature","properties":{"kind":"center","id":2,"lat":-57.5,"lon":22.0,"mslp":958.0,"hvtl":-142.8,"hvtu":-293.5,"hb":94.8,"idx":-2.8,"cls":4,"psfc":958.0,"terrain":false,"radius_km":200,"name":"asym cold","track":"T20"},"geometry":{"type":"Point","coordinates":[22.0,-57.5]}},{"type":"Feature","properties":{"kind":"center","id":3,"lat":-66.25,"lon":118.5,"mslp":958.7,"hvtl":2.7,"hvtu":-26.3,"hb":29.2,"idx":-0.2,"cls":3,"psfc":958.7,"terrain":false,"radius_km":200,"name":"asym shallow warm","track":"T01"},"geometry":{"type":"Point","coordinates":[118.5,-66.25]}},{"type":"Feature","properties":{"kind":"center","id":4,"lat":-57.25,"lon":97.25,"mslp":961.0,"hvtl":-96.5,"hvtu":-389.6,"hb":57.4,"idx":-2.5,"cls":4,"psfc":961.0,"terrain":false,"radius_km":200,"name":"asym cold","track":"T23"},"geometry":{"type":"Point","coordinates":[97.25,-57.25]}},{"type":"Feature","properties":{"kind":"center","id":5,"lat":-60.0,"lon":7.0,"mslp":962.3,"hvtl":-172.1,"hvtu":2.2,"hb":17.2,"idx":-1.9,"cls":6,"psfc":962.3,"terrain":false,"radius_km":200,"name":"shallow cold","track":"T24"},"geometry":{"type":"Point","coordinates":[7.0,-60.0]}},{"type":"Feature","properties":{"kind":"center","id":6,"lat":56.75,"lon":166.25,"mslp":963.7,"hvtl":171.8,"hvtu":-436.3,"hb":13.1,"idx":0.9,"cls":3,"psfc":963.7,"terrain":false,"radius_km":200,"name":"asym shallow warm"},"geometry":{"type":"Point","coordinates":[166.25,56.75]}},{"type":"Feature","properties":{"kind":"center","id":7,"lat":-66.0,"lon":102.75,"mslp":965.7,"hvtl":-174.7,"hvtu":-102.2,"hb":3.2,"idx":-2.7,"cls":5,"psfc":908.7,"terrain":false,"radius_km":200,"name":"sym cold"},"geometry":{"type":"Point","coordinates":[102.75,-66.0]}},{"type":"Feature","properties":{"kind":"center","id":8,"lat":53.0,"lon":176.75,"mslp":969.0,"hvtl":-354.0,"hvtu":-419.0,"hb":65.0,"idx":-3.0,"cls":4,"psfc":969.0,"terrain":false,"radius_km":200,"name":"asym cold","track":"T02"},"geometry":{"type":"Point","coordinates":[176.75,53.0]}},{"type":"Feature","properties":{"kind":"center","id":9,"lat":-64.5,"lon":65.25,"mslp":969.2,"hvtl":-355.7,"hvtu":-104.1,"hb":50.3,"idx":-2.8,"cls":4,"psfc":969.2,"terrain":false,"radius_km":200,"name":"asym cold","track":"T41"},"geometry":{"type":"Point","coordinates":[65.25,-64.5]}},{"type":"Feature","properties":{"kind":"center","id":10,"lat":-65.75,"lon":136.75,"mslp":969.8,"hvtl":-42.5,"hvtu":-204.5,"hb":5.7,"idx":-1.8,"cls":5,"psfc":969.8,"terrain":false,"radius_km":200,"name":"sym cold"},"geometry":{"type":"Point","coordinates":[136.75,-65.75]}},{"type":"Feature","properties":{"kind":"center","id":11,"lat":-59.5,"lon":-108.75,"mslp":970.0,"hvtl":-63.3,"hvtu":-295.7,"hb":44.0,"idx":-2.1,"cls":4,"psfc":970.0,"terrain":false,"radius_km":200,"name":"asym cold","track":"T34"},"geometry":{"type":"Point","coordinates":[-108.75,-59.5]}},{"type":"Feature","properties":{"kind":"center","id":12,"lat":56.5,"lon":154.75,"mslp":970.1,"hvtl":36.6,"hvtu":-23.8,"hb":4.2,"idx":0.5,"cls":1,"psfc":970.1,"terrain":false,"radius_km":200,"name":"sym shallow warm","track":"T43"},"geometry":{"type":"Point","coordinates":[154.75,56.5]}},{"type":"Feature","properties":{"kind":"center","id":13,"lat":-70.5,"lon":-103.25,"mslp":972.4,"hvtl":-64.3,"hvtu":-97.5,"hb":3.5,"idx":-1.9,"cls":5,"psfc":972.4,"terrain":false,"radius_km":200,"name":"sym cold","track":"T25"},"geometry":{"type":"Point","coordinates":[-103.25,-70.5]}},{"type":"Feature","properties":{"kind":"center","id":14,"lat":-54.5,"lon":-116.5,"mslp":975.1,"hvtl":66.8,"hvtu":-229.7,"hb":-0.0,"idx":0.2,"cls":1,"psfc":975.1,"terrain":false,"radius_km":200,"name":"sym shallow warm"},"geometry":{"type":"Point","coordinates":[-116.5,-54.5]}},{"type":"Feature","properties":{"kind":"center","id":15,"lat":-77.25,"lon":-43.25,"mslp":975.4,"hvtl":-169.1,"hvtu":-35.0,"hb":45.7,"idx":-2.2,"cls":4,"psfc":975.4,"terrain":false,"radius_km":200,"name":"asym cold","track":"T51"},"geometry":{"type":"Point","coordinates":[-43.25,-77.25]}},{"type":"Feature","properties":{"kind":"center","id":16,"lat":-67.25,"lon":46.75,"mslp":976.2,"hvtl":-169.8,"hvtu":-157.8,"hb":14.0,"idx":-2.8,"cls":4,"psfc":964.6,"terrain":false,"radius_km":200,"name":"asym cold","track":"T21"},"geometry":{"type":"Point","coordinates":[46.75,-67.25]}},{"type":"Feature","properties":{"kind":"center","id":17,"lat":74.5,"lon":40.0,"mslp":976.6,"hvtl":98.6,"hvtu":-55.9,"hb":-19.0,"idx":1.0,"cls":1,"psfc":976.6,"terrain":false,"radius_km":200,"name":"sym shallow warm","track":"T50"},"geometry":{"type":"Point","coordinates":[40.0,74.5]}},{"type":"Feature","properties":{"kind":"center","id":18,"lat":-71.25,"lon":-0.5,"mslp":977.3,"hvtl":-56.6,"hvtu":-116.2,"hb":16.4,"idx":-1.8,"cls":4,"psfc":970.2,"terrain":false,"radius_km":200,"name":"asym cold","track":"T05"},"geometry":{"type":"Point","coordinates":[-0.5,-71.25]}},{"type":"Feature","properties":{"kind":"center","id":19,"lat":-49.75,"lon":116.75,"mslp":981.4,"hvtl":-206.0,"hvtu":-365.2,"hb":27.5,"idx":-2.9,"cls":4,"psfc":981.4,"terrain":false,"radius_km":200,"name":"asym cold","track":"T18"},"geometry":{"type":"Point","coordinates":[116.75,-49.75]}},{"type":"Feature","properties":{"kind":"center","id":20,"lat":-66.5,"lon":-63.5,"mslp":984.0,"hvtl":-73.2,"hvtu":-179.2,"hb":1.7,"idx":-2.2,"cls":5,"psfc":977.6,"terrain":false,"radius_km":200,"name":"sym cold"},"geometry":{"type":"Point","coordinates":[-63.5,-66.5]}},{"type":"Feature","properties":{"kind":"center","id":21,"lat":-77.0,"lon":165.75,"mslp":984.2,"hvtl":109.1,"hvtu":-113.3,"hb":14.6,"idx":0.8,"cls":3,"psfc":984.2,"terrain":false,"radius_km":200,"name":"asym shallow warm","track":"T64"},"geometry":{"type":"Point","coordinates":[165.75,-77.0]}},{"type":"Feature","properties":{"kind":"center","id":22,"lat":-67.5,"lon":-70.0,"mslp":984.6,"hvtl":-88.9,"hvtu":-194.7,"hb":5.1,"idx":-2.4,"cls":5,"psfc":984.6,"terrain":false,"radius_km":200,"name":"sym cold","track":"T68"},"geometry":{"type":"Point","coordinates":[-70.0,-67.5]}},{"type":"Feature","properties":{"kind":"center","id":23,"lat":-70.5,"lon":161.0,"mslp":985.4,"hvtl":-155.5,"hvtu":-138.4,"hb":14.5,"idx":-2.7,"cls":4,"psfc":914.4,"terrain":false,"radius_km":200,"name":"asym cold","track":"T37"},"geometry":{"type":"Point","coordinates":[161.0,-70.5]}},{"type":"Feature","properties":{"kind":"center","id":24,"lat":22.5,"lon":-122.75,"mslp":987.0,"hvtl":58.2,"hvtu":130.5,"hb":4.2,"idx":1.9,"cls":0,"psfc":987.0,"terrain":false,"radius_km":200,"name":"sym deep warm","track":"T42"},"geometry":{"type":"Point","coordinates":[-122.75,22.5]}},{"type":"Feature","properties":{"kind":"center","id":25,"lat":62.5,"lon":-34.25,"mslp":989.1,"hvtl":-26.9,"hvtu":-337.8,"hb":59.5,"idx":-1.5,"cls":4,"psfc":989.0,"terrain":false,"radius_km":200,"name":"asym cold","track":"T62"},"geometry":{"type":"Point","coordinates":[-34.25,62.5]}},{"type":"Feature","properties":{"kind":"center","id":26,"lat":56.5,"lon":-79.25,"mslp":994.7,"hvtl":9.0,"hvtu":-55.6,"hb":19.4,"idx":-0.3,"cls":3,"psfc":992.7,"terrain":false,"radius_km":200,"name":"asym shallow warm","track":"T87"},"geometry":{"type":"Point","coordinates":[-79.25,56.5]}},{"type":"Feature","properties":{"kind":"center","id":27,"lat":80.75,"lon":107.5,"mslp":995.0,"hvtl":24.2,"hvtu":-176.9,"hb":67.9,"idx":-0.5,"cls":3,"psfc":995.0,"terrain":false,"radius_km":200,"name":"asym shallow warm","track":"T88"},"geometry":{"type":"Point","coordinates":[107.5,80.75]}},{"type":"Feature","properties":{"kind":"center","id":28,"lat":77.25,"lon":177.75,"mslp":998.0,"hvtl":36.7,"hvtu":-176.9,"hb":9.8,"idx":-0.2,"cls":1,"psfc":998.0,"terrain":false,"radius_km":200,"name":"sym shallow warm","track":"T96"},"geometry":{"type":"Point","coordinates":[177.75,77.25]}},{"type":"Feature","properties":{"kind":"center","id":29,"lat":-29.75,"lon":128.75,"mslp":999.3,"hvtl":-355.5,"hvtu":-272.7,"hb":73.9,"idx":-3.0,"cls":4,"psfc":976.1,"terrain":false,"radius_km":200,"name":"asym cold"},"geometry":{"type":"Point","coordinates":[128.75,-29.75]}},{"type":"Feature","properties":{"kind":"center","id":30,"lat":17.25,"lon":166.25,"mslp":999.6,"hvtl":-8.5,"hvtu":82.8,"hb":16.8,"idx":0.5,"cls":6,"psfc":999.5,"terrain":false,"radius_km":200,"name":"shallow cold","track":"T12"},"geometry":{"type":"Point","coordinates":[166.25,17.25]}},{"type":"Feature","properties":{"kind":"center","id":31,"lat":59.75,"lon":-94.25,"mslp":1000.1,"hvtl":3.8,"hvtu":16.0,"hb":3.3,"idx":0.2,"cls":0,"psfc":1000.1,"terrain":false,"radius_km":200,"name":"sym deep warm","track":"T90"},"geometry":{"type":"Point","coordinates":[-94.25,59.75]}},{"type":"Feature","properties":{"kind":"center","id":32,"lat":29.75,"lon":157.25,"mslp":1000.3,"hvtl":72.8,"hvtu":-13.4,"hb":7.6,"idx":1.1,"cls":1,"psfc":1000.3,"terrain":false,"radius_km":200,"name":"sym shallow warm","track":"T44"},"geometry":{"type":"Point","coordinates":[157.25,29.75]}},{"type":"Feature","properties":{"kind":"center","id":33,"lat":-18.75,"lon":-63.0,"mslp":1000.5,"hvtl":14.0,"hvtu":-98.8,"hb":7.8,"idx":-0.5,"cls":1,"psfc":956.6,"terrain":false,"radius_km":200,"name":"sym shallow warm","track":"T91"},"geometry":{"type":"Point","coordinates":[-63.0,-18.75]}},{"type":"Feature","properties":{"kind":"center","id":34,"lat":30.25,"lon":-165.25,"mslp":1000.7,"hvtl":41.1,"hvtu":-226.5,"hb":43.3,"idx":-0.2,"cls":3,"psfc":1000.7,"terrain":false,"radius_km":200,"name":"asym shallow warm","track":"T70"},"geometry":{"type":"Point","coordinates":[-165.25,30.25]}},{"type":"Feature","properties":{"kind":"center","id":35,"lat":16.0,"lon":148.5,"mslp":1001.1,"hvtl":42.8,"hvtu":-15.7,"hb":1.8,"idx":0.7,"cls":1,"psfc":1001.1,"terrain":false,"radius_km":200,"name":"sym shallow warm","track":"T06"},"geometry":{"type":"Point","coordinates":[148.5,16.0]}},{"type":"Feature","properties":{"kind":"center","id":36,"lat":31.0,"lon":-77.5,"mslp":1003.8,"hvtl":-2.6,"hvtu":-99.2,"hb":21.7,"idx":-0.8,"cls":4,"psfc":1003.8,"terrain":false,"radius_km":200,"name":"asym cold","track":"T116"},"geometry":{"type":"Point","coordinates":[-77.5,31.0]}},{"type":"Feature","properties":{"kind":"center","id":37,"lat":-36.5,"lon":-54.75,"mslp":1004.5,"hvtl":81.5,"hvtu":-277.3,"hb":90.8,"idx":0.4,"cls":3,"psfc":1004.5,"terrain":false,"radius_km":200,"name":"asym shallow warm","track":"T110"},"geometry":{"type":"Point","coordinates":[-54.75,-36.5]}},{"type":"Feature","properties":{"kind":"center","id":38,"lat":-11.25,"lon":-72.5,"mslp":1005.2,"hvtl":91.7,"hvtu":-12.3,"hb":9.3,"idx":1.3,"cls":1,"psfc":958.7,"terrain":false,"radius_km":200,"name":"sym shallow warm"},"geometry":{"type":"Point","coordinates":[-72.5,-11.25]}},{"type":"Feature","properties":{"kind":"center","id":39,"lat":33.0,"lon":-115.5,"mslp":1005.7,"hvtl":-45.3,"hvtu":-198.4,"hb":-10.3,"idx":-1.8,"cls":5,"psfc":1009.7,"terrain":false,"radius_km":200,"name":"sym cold","track":"T107"},"geometry":{"type":"Point","coordinates":[-115.5,33.0]}},{"type":"Feature","properties":{"kind":"center","id":40,"lat":-37.5,"lon":165.75,"mslp":1009.0,"hvtl":-82.1,"hvtu":55.9,"hb":17.9,"idx":-0.8,"cls":6,"psfc":1009.0,"terrain":false,"radius_km":200,"name":"shallow cold","track":"T120"},"geometry":{"type":"Point","coordinates":[165.75,-37.5]}},{"type":"Feature","properties":{"kind":"center","id":41,"lat":75.25,"lon":-62.25,"mslp":1009.1,"hvtl":-147.6,"hvtu":-112.9,"hb":22.5,"idx":-2.6,"cls":4,"psfc":1009.1,"terrain":false,"radius_km":200,"name":"asym cold","track":"T112"},"geometry":{"type":"Point","coordinates":[-62.25,75.25]}},{"type":"Feature","properties":{"kind":"center","id":42,"lat":-12.0,"lon":-74.0,"mslp":1009.6,"hvtl":107.7,"hvtu":-31.3,"hb":62.2,"idx":1.3,"cls":3,"psfc":932.7,"terrain":false,"radius_km":200,"name":"asym shallow warm"},"geometry":{"type":"Point","coordinates":[-74.0,-12.0]}},{"type":"Feature","properties":{"kind":"center","id":43,"lat":-11.25,"lon":-74.25,"mslp":1010.1,"hvtl":80.4,"hvtu":-14.6,"hb":52.4,"idx":1.2,"cls":3,"psfc":903.0,"terrain":true,"radius_km":200,"name":"asym shallow warm"},"geometry":{"type":"Point","coordinates":[-74.25,-11.25]}},{"type":"Feature","properties":{"kind":"center","id":44,"lat":77.75,"lon":-106.25,"mslp":1010.2,"hvtl":-90.3,"hvtu":-39.0,"hb":5.3,"idx":-1.8,"cls":5,"psfc":1010.1,"terrain":false,"radius_km":200,"name":"sym cold","track":"T126"},"geometry":{"type":"Point","coordinates":[-106.25,77.75]}},{"type":"Feature","properties":{"kind":"center","id":45,"lat":31.5,"lon":72.25,"mslp":1010.4,"hvtl":-56.0,"hvtu":-42.5,"hb":12.4,"idx":-1.4,"cls":4,"psfc":992.2,"terrain":false,"radius_km":200,"name":"asym cold","track":"T103"},"geometry":{"type":"Point","coordinates":[72.25,31.5]}},{"type":"Feature","properties":{"kind":"center","id":46,"lat":73.0,"lon":-20.0,"mslp":1011.4,"hvtl":-283.8,"hvtu":-293.8,"hb":45.6,"idx":-3.0,"cls":4,"psfc":1011.4,"terrain":false,"radius_km":200,"name":"asym cold","track":"T57"},"geometry":{"type":"Point","coordinates":[-20.0,73.0]}},{"type":"Feature","properties":{"kind":"center","id":47,"lat":-37.75,"lon":-76.5,"mslp":1011.9,"hvtl":40.4,"hvtu":-84.8,"hb":19.6,"idx":0.1,"cls":3,"psfc":1011.9,"terrain":false,"radius_km":200,"name":"asym shallow warm","track":"T102"},"geometry":{"type":"Point","coordinates":[-76.5,-37.75]}},{"type":"Feature","properties":{"kind":"center","id":48,"lat":45.75,"lon":-35.75,"mslp":1014.7,"hvtl":-211.7,"hvtu":-197.0,"hb":46.7,"idx":-2.9,"cls":4,"psfc":1014.7,"terrain":false,"radius_km":200,"name":"asym cold"},"geometry":{"type":"Point","coordinates":[-35.75,45.75]}},{"type":"Feature","properties":{"kind":"center","id":49,"lat":32.0,"lon":62.25,"mslp":1015.5,"hvtl":92.6,"hvtu":-60.2,"hb":41.3,"idx":0.9,"cls":3,"psfc":946.6,"terrain":false,"radius_km":200,"name":"asym shallow warm","track":"T133"},"geometry":{"type":"Point","coordinates":[62.25,32.0]}},{"type":"Feature","properties":{"kind":"center","id":50,"lat":70.75,"lon":-27.25,"mslp":1015.9,"hvtl":-204.0,"hvtu":-275.5,"hb":28.7,"idx":-2.9,"cls":4,"psfc":904.5,"terrain":true,"radius_km":200,"name":"asym cold"},"geometry":{"type":"Point","coordinates":[-27.25,70.75]}},{"type":"Feature","properties":{"kind":"center","id":51,"lat":-31.75,"lon":63.75,"mslp":1020.1,"hvtl":62.0,"hvtu":-128.9,"hb":27.8,"idx":0.2,"cls":3,"psfc":1020.1,"terrain":false,"radius_km":200,"name":"asym shallow warm","track":"T135"},"geometry":{"type":"Point","coordinates":[63.75,-31.75]}},{"type":"Feature","properties":{"kind":"center","id":52,"lat":-39.25,"lon":45.0,"mslp":1020.5,"hvtl":31.7,"hvtu":-126.6,"hb":24.8,"idx":-0.2,"cls":3,"psfc":1020.5,"terrain":false,"radius_km":200,"name":"asym shallow warm"},"geometry":{"type":"Point","coordinates":[45.0,-39.25]}}]}