{"type":"FeatureCollection","features":[{"type":"Feature","properties":{"kind":"blob","cls":3,"id":1},"geometry":{"type":"Polygon","coordinates":[[[12.25,-64.88],[14.25,-64.38],[15.38,-63.5],[15.38,-62.5],[13.5,-61.12],[11.5,-60.62],[8.75,-60.62],[6.75,-61.12],[6.62,-60.0],[6.0,-59.38],[3.75,-58.62],[1.5,-58.62],[-1.12,-59.5],[1.75,-59.88],[2.38,-60.25],[2.25,-60.62],[-2.75,-60.88],[-3.12,-61.5],[-2.0,-62.88],[-1.0,-63.38],[2.75,-63.62],[5.5,-62.62],[7.0,-64.12],[12.25,-64.88]]]}},{"type":"Feature","properties":{"kind":"blob","cls":0,"id":2},"geometry":{"type":"Polygon","coordinates":[[[147.0,22.62],[147.88,23.5],[147.88,25.0],[146.25,26.12],[145.0,25.88],[144.12,25.0],[144.12,23.5],[145.0,22.62],[147.0,22.62]],[[145.0,23.38],[144.38,23.75],[145.25,24.12],[145.38,23.75],[145.0,23.38]]]}},{"type":"Feature","properties":{"kind":"blob","cls":4,"id":3},"geometry":{"type":"Polygon","coordinates":[[[-124.0,-72.62],[-121.25,-72.12],[-119.38,-70.75],[-119.38,-70.25],[-121.0,-69.12],[-123.0,-68.62],[-127.25,-68.38],[-130.0,-68.88],[-132.12,-70.25],[-132.12,-70.75],[-130.75,-71.88],[-124.0,-72.62]]]}},{"type":"Feature","properties":{"kind":"blob","cls":1,"id":4},"geometry":{"type":"Polygon","coordinates":[[[-1.62,-59.75],[-1.5,-59.88],[-1.38,-59.75],[-1.62,-59.75]]]}},{"type":"Feature","properties":{"kind":"blob","cls":2,"id":5},"geometry":{"type":"Polygon","coordinates":[[[-131.5,-63.88],[-129.88,-63.0],[-129.62,-62.0],[-130.75,-60.88],[-135.25,-60.12],[-136.88,-59.0],[-134.62,-58.0],[-134.38,-57.0],[-135.0,-56.12],[-138.0,-55.12],[-141.5,-55.62],[-142.62,-56.75],[-142.62,-57.25],[-141.38,-58.75],[-142.88,-59.5],[-143.12,-61.25],[-141.25,-62.62],[-138.5,-62.88],[-137.5,-63.62],[-131.5,-63.88]]]}},{"type":"Feature","properties":{"kind":"blob","cls":4,"id":6},"geometry":{"type":"Polygon","coordinates":[[[131.0,-57.12],[132.75,-56.62],[133.88,-55.5],[133.88,-54.5],[133.25,-53.88],[130.25,-52.62],[128.5,-52.62],[126.5,-53.38],[125.88,-54.25],[126.12,-55.25],[128.0,-56.62],[131.0,-57.12]]]}},{"type":"Feature","properties":{"kind":"blob","cls":3,"id":7},"geometry":{"type":"Polygon","coordinates":[[[119.0,-65.38],[121.5,-65.12],[122.75,-64.62],[123.62,-63.5],[122.75,-62.38],[120.25,-61.62],[117.0,-61.88],[115.38,-62.75],[117.5,-63.12],[118.38,-63.75],[119.0,-65.38]]]}},{"type":"Feature","properties":{"kind":"blob","cls":4,"id":8},"geometry":{"type":"Polygon","coordinates":[[[-176.75,-82.88],[-155.25,-83.12],[-145.88,-82.25],[-153.75,-81.62],[-165.0,-81.62],[-172.75,-82.12],[-176.75,-82.88]]]}},{"type":"Feature","properties":{"kind":"blob","cls":6,"id":9},"geometry":{"type":"Polygon","coordinates":[[[162.5,-79.38],[164.25,-79.62],[169.5,-78.88],[173.0,-77.38],[173.38,-76.5],[171.0,-75.38],[165.0,-74.62],[162.62,-77.0],[164.12,-78.0],[164.0,-78.38],[165.12,-78.5],[162.25,-78.62],[162.5,-79.38]],[[166.62,-77.5],[169.12,-77.5],[169.0,-77.62],[166.62,-77.5]]]}},{"type":"Feature","properties":{"kind":"blob","cls":4,"id":10},"geometry":{"type":"Polygon","coordinates":[[[166.75,-73.38],[170.25,-73.62],[173.0,-73.12],[174.62,-72.25],[174.62,-71.25],[173.0,-70.38],[170.25,-69.88],[166.25,-69.88],[163.38,-70.5],[163.75,-71.12],[164.5,-71.12],[164.5,-70.62],[166.25,-70.62],[170.62,-71.75],[169.88,-72.25],[170.38,-72.5],[169.5,-73.12],[168.5,-72.88],[166.75,-73.38]]]}},{"type":"Feature","properties":{"kind":"blob","cls":4,"id":11},"geometry":{"type":"Polygon","coordinates":[[[83.25,-54.62],[84.75,-54.12],[85.62,-53.25],[85.62,-52.25],[83.75,-50.62],[81.75,-50.38],[80.25,-50.88],[79.12,-52.0],[79.12,-53.0],[80.25,-54.12],[83.25,-54.62]]]}},{"type":"Feature","properties":{"kind":"blob","cls":4,"id":12},"geometry":{"type":"Polygon","coordinates":[[[162.5,-71.62],[162.62,-71.25],[162.25,-71.12],[162.5,-71.62]]]}},{"type":"Feature","properties":{"kind":"blob","cls":0,"id":13},"geometry":{"type":"Polygon","coordinates":[[[179.88,23.0],[180.0,26.62],[179.25,26.88],[177.62,25.75],[177.62,24.0],[178.5,23.12],[179.88,23.0]]]}},{"type":"Feature","properties":{"kind":"blob","cls":0,"id":13},"geometry":{"type":"Polygon","coordinates":[[[-179.75,26.62],[-180.0,23.12],[-179.5,23.12],[-178.62,24.0],[-178.62,25.75],[-179.75,26.62]]]}},{"type":"Feature","properties":{"kind":"blob","cls":0,"id":14},"geometry":{"type":"MultiPolygon","coordinates":[[[[-115.25,18.88],[-115.38,18.75],[-115.25,18.62],[-115.25,18.88]]],[[[-114.5,18.88],[-114.5,18.38],[-113.25,18.62],[-112.38,19.75],[-112.62,21.25],[-114.0,22.12],[-115.25,21.88],[-116.12,20.75],[-116.12,19.75],[-115.5,18.88],[-115.38,19.75],[-114.75,20.38],[-113.62,20.0],[-113.62,19.25],[-114.5,18.88]]]]}},{"type":"Feature","properties":{"kind":"blob","cls":1,"id":15},"geometry":{"type":"Polygon","coordinates":[[[78.5,-58.38],[80.12,-56.75],[79.0,-55.38],[78.0,-55.12],[77.25,-54.38],[74.0,-53.62],[71.5,-54.38],[70.62,-55.25],[70.12,-56.5],[71.25,-58.12],[78.5,-58.38]]]}},{"type":"Feature","properties":{"kind":"blob","cls":1,"id":16},"geometry":{"type":"Polygon","coordinates":[[[-165.5,54.12],[-163.75,54.62],[-162.88,55.5],[-162.88,56.5],[-164.25,57.62],[-168.5,57.38],[-169.38,56.5],[-169.38,55.5],[-168.0,54.38],[-165.5,54.12]]]}},{"type":"Feature","properties":{"kind":"blob","cls":1,"id":17},"geometry":{"type":"Polygon","coordinates":[[[3.75,66.88],[6.5,67.38],[10.0,68.62],[11.38,70.0],[10.5,71.12],[8.5,71.88],[4.5,72.12],[3.0,71.38],[2.0,71.38],[1.12,72.0],[1.25,72.38],[-2.75,72.12],[-4.75,71.38],[-5.38,70.75],[-5.38,70.0],[-4.0,69.12],[-3.25,68.12],[-1.75,67.38],[3.75,66.88]]]}},{"type":"Feature","properties":{"kind":"blob","cls":3,"id":18},"geometry":{"type":"Polygon","coordinates":[[[41.0,77.12],[45.25,78.12],[47.0,79.12],[47.38,79.75],[46.75,80.62],[45.0,81.38],[37.0,82.38],[30.75,82.38],[25.25,81.88],[23.25,81.38],[21.75,80.62],[21.38,80.0],[22.25,79.12],[25.25,77.88],[28.75,77.12],[41.0,77.12]]]}},{"type":"Feature","properties":{"kind":"blob","cls":4,"id":19},"geometry":{"type":"Polygon","coordinates":[[[-16.5,60.12],[-13.5,61.38],[-13.12,62.5],[-14.25,63.62],[-16.25,64.12],[-19.25,64.12],[-19.25,63.62],[-20.5,63.88],[-22.25,63.12],[-23.38,62.0],[-23.38,61.5],[-21.5,60.12],[-16.5,60.12]]]}},{"type":"Feature","properties":{"kind":"blob","cls":5,"id":20},"geometry":{"type":"Polygon","coordinates":[[[-154.5,61.88],[-154.25,62.38],[-153.5,62.38],[-150.75,63.62],[-147.38,64.25],[-150.0,65.12],[-152.75,64.88],[-154.75,64.12],[-155.38,63.5],[-155.38,62.5],[-154.5,61.88]]]}},{"type":"Feature","properties":{"kind":"blob","cls":4,"id":21},"geometry":{"type":"Polygon","coordinates":[[[-152.0,61.38],[-149.25,61.38],[-149.12,61.75],[-149.62,62.0],[-149.38,63.0],[-152.0,62.62],[-152.38,62.0],[-151.88,61.75],[-152.0,61.38]]]}},{"type":"Feature","properties":{"kind":"blob","cls":4,"id":22},"geometry":{"type":"Polygon","coordinates":[[[63.75,55.12],[63.75,56.12],[65.38,56.75],[63.5,58.62],[59.75,58.62],[58.12,57.25],[58.12,56.75],[59.25,55.38],[63.75,55.12]]]}},{"type":"Feature","properties":{"kind":"blob","cls":1,"id":23},"geometry":{"type":"Polygon","coordinates":[[[-31.5,59.12],[-29.88,60.25],[-29.88,61.25],[-32.25,62.88],[-37.0,62.88],[-39.12,61.5],[-39.12,60.5],[-37.25,59.12],[-31.5,59.12]]]}},{"type":"Feature","properties":{"kind":"blob","cls":4,"id":24},"geometry":{"type":"Polygon","coordinates":[[[-124.5,62.12],[-122.75,62.38],[-121.38,63.5],[-121.38,64.0],[-122.5,65.12],[-124.25,65.88],[-128.0,66.12],[-130.12,65.5],[-126.75,64.62],[-124.5,62.12]]]}},{"type":"Feature","properties":{"kind":"blob","cls":1,"id":25},"geometry":{"type":"MultiPolygon","coordinates":[[[[-56.25,66.88],[-53.75,67.38],[-52.12,68.5],[-51.88,69.5],[-53.5,70.62],[-56.5,71.12],[-56.12,69.75],[-56.38,69.25],[-56.75,68.88],[-58.25,68.88],[-60.0,71.12],[-61.5,71.12],[-63.0,70.62],[-64.12,69.5],[-64.12,69.0],[-63.25,68.12],[-61.5,67.38],[-56.25,66.88]],[[-53.5,69.62],[-53.88,70.0],[-52.62,69.75],[-53.5,69.62]]],[[[-56.75,71.38],[-56.88,71.25],[-56.75,71.12],[-56.75,71.38]]]]}},{"type":"Feature","properties":{"kind":"blob","cls":4,"id":26},"geometry":{"type":"Polygon","coordinates":[[[79.25,56.38],[81.25,57.12],[82.12,58.0],[82.12,59.0],[80.75,60.38],[78.25,61.12],[75.0,61.12],[73.25,60.62],[72.38,59.75],[72.38,58.75],[73.5,57.62],[79.25,56.38]]]}},{"type":"Feature","properties":{"kind":"blob","cls":6,"id":27},"geometry":{"type":"Polygon","coordinates":[[[-63.0,-54.38],[-62.12,-54.5],[-62.62,-53.75],[-62.62,-52.5],[-62.0,-51.88],[-60.5,-51.88],[-59.25,-52.38],[-58.0,-54.12],[-56.62,-53.0],[-56.62,-51.25],[-57.5,-50.38],[-59.0,-49.88],[-63.25,-50.12],[-64.62,-51.25],[-64.62,-53.0],[-63.0,-54.38]]]}},{"type":"Feature","properties":{"kind":"blob","cls":3,"id":28},"geometry":{"type":"Polygon","coordinates":[[[-78.75,51.12],[-76.25,51.62],[-74.62,53.25],[-75.75,54.62],[-76.75,55.12],[-81.0,55.12],[-82.0,54.62],[-83.12,53.25],[-82.0,51.62],[-78.75,51.12]]]}},{"type":"Feature","properties":{"kind":"blob","cls":3,"id":29},"geometry":{"type":"Polygon","coordinates":[[[-44.25,-41.12],[-42.62,-40.0],[-42.38,-38.75],[-43.5,-37.38],[-46.0,-36.88],[-47.62,-38.0],[-47.62,-39.75],[-46.5,-40.88],[-44.25,-41.12]]]}},{"type":"Feature","properties":{"kind":"blob","cls":1,"id":30},"geometry":{"type":"Polygon","coordinates":[[[-92.75,-41.62],[-91.0,-41.12],[-89.5,-39.38],[-87.5,-39.38],[-86.5,-38.88],[-85.62,-37.5],[-85.88,-36.5],[-87.5,-35.38],[-89.25,-35.38],[-91.25,-36.88],[-93.5,-37.12],[-95.62,-39.5],[-95.38,-40.5],[-94.5,-41.38],[-92.75,-41.62]]]}},{"type":"Feature","properties":{"kind":"blob","cls":4,"id":31},"geometry":{"type":"Polygon","coordinates":[[[-122.25,56.12],[-119.5,56.12],[-118.88,56.5],[-119.88,56.75],[-118.0,56.88],[-117.38,57.5],[-117.38,58.5],[-118.0,59.12],[-120.0,59.88],[-122.75,59.88],[-124.25,59.38],[-124.25,58.62],[-121.88,57.25],[-122.62,56.75],[-122.25,56.12]]]}},{"type":"Feature","properties":{"kind":"blob","cls":4,"id":32},"geometry":{"type":"Polygon","coordinates":[[[-63.25,-21.12],[-62.75,-21.12],[-61.38,-20.25],[-61.38,-18.0],[-62.25,-17.12],[-63.88,-17.0],[-63.62,-15.5],[-65.75,-12.38],[-67.25,-12.12],[-68.5,-12.62],[-69.38,-13.5],[-68.12,-14.25],[-67.88,-15.25],[-63.38,-18.25],[-63.88,-19.0],[-63.12,-19.5],[-63.25,-21.12]]]}},{"type":"Feature","properties":{"kind":"blob","cls":4,"id":33},"geometry":{"type":"Polygon","coordinates":[[[-55.62,73.5],[-58.0,74.38],[-60.25,76.38],[-64.62,76.5],[-63.5,75.12],[-61.75,74.12],[-55.62,73.5]]]}},{"type":"Feature","properties":{"kind":"blob","cls":4,"id":34},"geometry":{"type":"Polygon","coordinates":[[[134.25,38.88],[135.38,40.0],[135.62,41.5],[134.5,42.62],[132.75,42.88],[130.88,41.5],[130.62,40.0],[131.75,38.88],[134.25,38.88]]]}},{"type":"Feature","properties":{"kind":"blob","cls":3,"id":35},"geometry":{"type":"Polygon","coordinates":[[[71.75,28.62],[73.25,29.38],[74.12,30.5],[74.12,31.75],[73.5,32.38],[70.5,31.88],[70.12,31.5],[70.12,30.0],[69.12,29.5],[71.75,28.62]]]}},{"type":"Feature","properties":{"kind":"blob","cls":1,"id":36},"geometry":{"type":"Polygon","coordinates":[[[68.5,25.12],[69.88,27.0],[69.62,28.25],[68.0,29.38],[67.5,29.38],[67.12,28.75],[66.75,26.88],[65.38,26.75],[66.5,25.12],[68.5,25.12]]]}},{"type":"Feature","properties":{"kind":"blob","cls":1,"id":37},"geometry":{"type":"Polygon","coordinates":[[[-73.25,-12.12],[-72.75,-12.38],[-72.5,-11.88],[-72.0,-12.12],[-71.62,-11.75],[-71.38,-10.0],[-72.38,-8.25],[-73.5,-7.38],[-75.0,-8.38],[-75.75,-8.38],[-75.88,-8.75],[-75.38,-10.25],[-74.75,-10.62],[-74.25,-10.12],[-73.25,-12.12]]]}},{"type":"Feature","properties":{"kind":"blob","cls":4,"id":38},"geometry":{"type":"Polygon","coordinates":[[[-118.75,33.38],[-117.5,33.88],[-118.12,34.5],[-117.25,34.38],[-116.88,34.75],[-116.88,35.75],[-117.25,36.12],[-118.75,34.62],[-119.75,34.62],[-118.62,35.0],[-118.62,36.0],[-119.75,37.38],[-121.62,36.25],[-121.62,34.75],[-120.75,33.88],[-118.75,33.38]]]}},{"type":"Feature","properties":{"kind":"blob","cls":4,"id":39},"geometry":{"type":"MultiPolygon","coordinates":[[[[-68.88,-33.0],[-68.5,-33.62],[-68.0,-33.62],[-66.38,-32.75],[-66.12,-31.25],[-66.62,-31.0],[-66.75,-30.38],[-67.38,-30.25],[-67.38,-31.25],[-68.0,-31.62],[-68.12,-31.25],[-67.62,-31.0],[-68.38,-30.0],[-68.88,-33.0]]],[[[-67.25,-29.62],[-67.0,-30.12],[-66.12,-29.0],[-66.38,-28.25],[-66.12,-28.0],[-66.5,-27.62],[-66.88,-28.0],[-66.62,-29.0],[-67.25,-29.62]]],[[[-65.88,-28.75],[-66.0,-28.62],[-66.12,-28.75],[-65.88,-28.75]]],[[[-65.62,-28.5],[-65.75,-28.38],[-65.88,-28.5],[-65.62,-28.5]]]]}},{"type":"Feature","properties":{"kind":"blob","cls":4,"id":40},"geometry":{"type":"Polygon","coordinates":[[[-59.25,-81.62],[-49.12,-81.5],[-49.25,-81.38],[-59.25,-81.62]]]}},{"type":"Feature","properties":{"kind":"blob","cls":1,"id":41},"geometry":{"type":"Polygon","coordinates":[[[-74.0,-12.38],[-74.0,-11.62],[-74.12,-11.75],[-74.0,-12.38]]]}},{"type":"Feature","properties":{"kind":"blob","cls":4,"id":42},"geometry":{"type":"MultiPolygon","coordinates":[[[[-65.25,-28.62],[-64.12,-27.0],[-64.75,-25.88],[-64.88,-26.5],[-65.25,-26.12],[-65.88,-27.25],[-65.25,-28.62]]],[[[-65.0,-25.62],[-65.12,-25.75],[-65.0,-25.88],[-65.0,-25.62]]]]}},{"type":"Feature","properties":{"kind":"blob","cls":1,"id":43},"geometry":{"type":"Polygon","coordinates":[[[82.0,25.12],[82.88,26.0],[82.88,27.5],[81.5,28.88],[79.5,29.38],[78.25,29.12],[77.12,27.75],[77.38,26.75],[78.75,25.38],[82.0,25.12]]]}},{"type":"Feature","properties":{"kind":"blob","cls":0,"id":44},"geometry":{"type":"Polygon","coordinates":[[[-55.25,10.12],[-53.75,10.12],[-52.88,11.25],[-53.12,12.75],[-54.5,13.62],[-55.75,13.38],[-56.62,12.25],[-56.38,10.75],[-55.25,10.12]]]}},{"type":"Feature","properties":{"kind":"blob","cls":4,"id":45},"geometry":{"type":"Polygon","coordinates":[[[-110.75,49.12],[-110.38,50.0],[-110.62,50.75],[-112.0,51.88],[-114.25,52.12],[-113.12,50.5],[-113.38,50.0],[-110.75,49.12]]]}},{"type":"Feature","properties":{"kind":"blob","cls":1,"id":46},"geometry":{"type":"MultiPolygon","coordinates":[[[[-74.5,-11.12],[-74.62,-11.25],[-74.25,-11.38],[-74.5,-11.12]]],[[[-74.75,-10.88],[-74.88,-11.0],[-74.75,-11.12],[-74.75,-10.88]]]]}},{"type":"Feature","properties":{"kind":"blob","cls":1,"id":47},"geometry":{"type":"Polygon","coordinates":[[[51.25,28.38],[52.12,29.25],[51.12,30.0],[51.25,30.38],[50.75,30.38],[49.88,31.25],[49.75,32.12],[49.0,31.88],[47.88,30.5],[48.12,29.25],[49.0,28.38],[51.25,28.38]]]}},{"type":"Feature","properties":{"kind":"blob","cls":1,"id":48},"geometry":{"type":"Polygon","coordinates":[[[64.75,29.38],[65.12,29.5],[65.0,29.62],[64.75,29.38]]]}},{"type":"Feature","properties":{"kind":"blob","cls":1,"id":49},"geometry":{"type":"Polygon","coordinates":[[[-76.12,-9.25],[-76.0,-9.38],[-75.88,-9.25],[-76.12,-9.25]]]}},{"type":"Feature","properties":{"kind":"blob","cls":4,"id":50},"geometry":{"type":"Polygon","coordinates":[[[83.62,47.75],[83.75,47.38],[85.5,47.38],[86.38,48.25],[84.5,48.62],[83.62,47.75]]]}},{"type":"Feature","properties":{"kind":"blob","cls":1,"id":51},"geometry":{"type":"Polygon","coordinates":[[[63.0,29.38],[63.12,29.75],[62.5,30.12],[62.38,29.75],[63.0,29.38]]]}},{"type":"Feature","properties":{"kind":"blob","cls":3,"id":52},"geometry":{"type":"Polygon","coordinates":[[[87.25,43.88],[87.88,44.0],[87.75,44.12],[87.25,43.88]]]}},{"type":"Feature","properties":{"kind":"blob","cls":3,"id":53},"geometry":{"type":"Polygon","coordinates":[[[89.0,42.38],[89.38,43.0],[87.88,43.0],[88.0,42.62],[89.0,42.38]]]}},{"type":"Feature","properties":{"kind":"blob","cls":4,"id":54},"geometry":{"type":"Polygon","coordinates":[[[85.0,45.62],[85.12,46.25],[84.5,46.38],[84.38,46.25],[85.0,45.62]]]}},{"type":"Feature","properties":{"kind":"blob","cls":3,"id":55},"geometry":{"type":"Polygon","coordinates":[[[65.25,36.62],[66.25,36.62],[68.38,38.5],[68.0,38.62],[66.5,37.62],[66.38,38.25],[67.38,39.5],[65.75,39.38],[64.62,38.0],[65.25,36.62]]]}},{"type":"Feature","properties":{"kind":"blob","cls":4,"id":56},"geometry":{"type":"Polygon","coordinates":[[[83.75,46.62],[84.12,46.75],[84.0,46.88],[83.75,46.62]]]}},{"type":"Feature","properties":{"kind":"blob","cls":4,"id":57},"geometry":{"type":"MultiPolygon","coordinates":[[[[74.5,42.88],[75.12,43.0],[74.75,43.38],[74.5,42.88]]],[[[76.0,43.12],[79.38,43.75],[78.75,44.12],[78.0,43.88],[77.75,44.38],[76.25,44.38],[75.0,43.88],[74.88,43.5],[76.0,43.12]]]]}},{"type":"Feature","properties":{"kind":"center","id":1,"lat":-61.25,"lon":1.5,"mslp":937.9,"hvtl":317.4,"hvtu":-135.5,"hb":54.3,"idx":1.1,"cls":3,"psfc":937.9,"terrain":false,"radius_km":200,"name":"asym shallow warm","track":"T05"},"geometry":{"type":"Point","coordinates":[1.5,-61.25]}},{"type":"Feature","properties":{"kind":"center","id":2,"lat":24.25,"lon":146.0,"mslp":939.8,"hvtl":150.4,"hvtu":243.4,"hb":-4.7,"idx":2.8,"cls":0,"psfc":939.8,"terrain":false,"radius_km":200,"name":"sym deep warm","track":"T02"},"geometry":{"type":"Point","coordinates":[146.0,24.25]}},{"type":"Feature","properties":{"kind":"center","id":3,"lat":-70.5,"lon":-125.75,"mslp":940.4,"hvtl":-41.7,"hvtu":-6.3,"hb":12.0,"idx":-0.9,"cls":4,"psfc":940.4,"terrain":false,"radius_km":200,"name":"asym cold","track":"T03"},"geometry":{"type":"Point","coordinates":[-125.75,-70.5]}},{"type":"Feature","properties":{"kind":"center","id":4,"lat":-59.75,"lon":-1.5,"mslp":947.8,"hvtl":333.8,"hvtu":-140.9,"hb":-78.4,"idx":1.1,"cls":1,"psfc":947.8,"terrain":false,"radius_km":200,"name":"sym shallow warm"},"geometry":{"type":"Point","coordinates":[-1.5,-59.75]}},{"type":"Feature","properties":{"kind":"center","id":5,"lat":-60.75,"lon":-139.25,"mslp":953.9,"hvtl":201.0,"hvtu":16.5,"hb":35.6,"idx":2.1,"cls":2,"psfc":953.9,"terrain":false,"radius_km":200,"name":"asym deep warm","track":"T10"},"geometry":{"type":"Point","coordinates":[-139.25,-60.75]}},{"type":"Feature","properties":{"kind":"center","id":6,"lat":-54.75,"lon":129.75,"mslp":955.9,"hvtl":-194.8,"hvtu":-214.3,"hb":55.0,"idx":-2.9,"cls":4,"psfc":955.9,"terrain":false,"radius_km":200,"name":"asym cold","track":"T04"},"geometry":{"type":"Point","coordinates":[129.75,-54.75]}},{"type":"Feature","properties":{"kind":"center","id":7,"lat":-63.5,"lon":119.25,"mslp":961.4,"hvtl":167.0,"hvtu":-239.3,"hb":19.9,"idx":0.9,"cls":3,"psfc":961.4,"terrain":false,"radius_km":200,"name":"asym shallow warm"},"geometry":{"type":"Point","coordinates":[119.25,-63.5]}},{"type":"Feature","properties":{"kind":"center","id":8,"lat":-83.0,"lon":-159.5,"mslp":962.7,"hvtl":-457.6,"hvtu":-47.3,"hb":30.9,"idx":-2.4,"cls":4,"psfc":952.5,"terrain":false,"radius_km":200,"name":"asym cold"},"geometry":{"type":"Point","coordinates":[-159.5,-83.0]}},{"type":"Feature","properties":{"kind":"center","id":9,"lat":-77.0,"lon":173.25,"mslp":964.2,"hvtl":-228.3,"hvtu":21.8,"hb":37.5,"idx":-1.7,"cls":6,"psfc":964.1,"terrain":false,"radius_km":200,"name":"shallow cold","track":"T17"},"geometry":{"type":"Point","coordinates":[173.25,-77.0]}},{"type":"Feature","properties":{"kind":"center","id":10,"lat":-70.5,"lon":172.75,"mslp":965.7,"hvtl":-420.3,"hvtu":-255.1,"hb":105.1,"idx":-3.0,"cls":4,"psfc":965.7,"terrain":false,"radius_km":200,"name":"asym cold","track":"T35"},"geometry":{"type":"Point","coordinates":[172.75,-70.5]}},{"type":"Feature","properties":{"kind":"center","id":11,"lat":-52.75,"lon":82.5,"mslp":967.3,"hvtl":-124.2,"hvtu":-470.6,"hb":58.6,"idx":-2.7,"cls":4,"psfc":967.3,"terrain":false,"radius_km":200,"name":"asym cold","track":"T14"},"geometry":{"type":"Point","coordinates":[82.5,-52.75]}},{"type":"Feature","properties":{"kind":"center","id":12,"lat":-71.25,"lon":162.5,"mslp":969.4,"hvtl":-255.4,"hvtu":-232.1,"hb":93.6,"idx":-3.0,"cls":4,"psfc":901.5,"terrain":false,"radius_km":200,"name":"asym cold"},"geometry":{"type":"Point","coordinates":[162.5,-71.25]}},{"type":"Feature","properties":{"kind":"center","id":13,"lat":24.75,"lon":179.5,"mslp":970.0,"hvtl":88.9,"hvtu":334.2,"hb":-2.8,"idx":2.4,"cls":0,"psfc":970.0,"terrain":false,"radius_km":200,"name":"sym deep warm","track":"T44"},"geometry":{"type":"Point","coordinates":[179.5,24.75]}},{"type":"Feature","properties":{"kind":"center","id":14,"lat":20.5,"lon":-114.25,"mslp":974.3,"hvtl":52.0,"hvtu":236.2,"hb":4.8,"idx":1.9,"cls":0,"psfc":974.3,"terrain":false,"radius_km":200,"name":"sym deep warm","track":"T42"},"geometry":{"type":"Point","coordinates":[-114.25,20.5]}},{"type":"Feature","properties":{"kind":"center","id":15,"lat":-56.0,"lon":74.5,"mslp":975.5,"hvtl":119.4,"hvtu":-125.4,"hb":-17.1,"idx":0.8,"cls":1,"psfc":975.5,"terrain":false,"radius_km":200,"name":"sym shallow warm","track":"T08"},"geometry":{"type":"Point","coordinates":[74.5,-56.0]}},{"type":"Feature","properties":{"kind":"center","id":16,"lat":56.0,"lon":-166.25,"mslp":975.9,"hvtl":11.9,"hvtu":-64.1,"hb":7.7,"idx":-0.3,"cls":1,"psfc":975.9,"terrain":false,"radius_km":200,"name":"sym shallow warm","track":"T40"},"geometry":{"type":"Point","coordinates":[-166.25,56.0]}},{"type":"Feature","properties":{"kind":"center","id":17,"lat":69.25,"lon":3.0,"mslp":979.0,"hvtl":1.5,"hvtu":-124.3,"hb":7.8,"idx":-0.8,"cls":1,"psfc":979.0,"terrain":false,"radius_km":200,"name":"sym shallow warm","track":"T50"},"geometry":{"type":"Point","coordinates":[3.0,69.25]}},{"type":"Feature","properties":{"kind":"center","id":18,"lat":79.75,"lon":34.0,"mslp":983.1,"hvtl":12.8,"hvtu":-209.2,"hb":29.9,"idx":-0.7,"cls":3,"psfc":983.1,"terrain":false,"radius_km":200,"name":"asym shallow warm","track":"T63"},"geometry":{"type":"Point","coordinates":[34.0,79.75]}},{"type":"Feature","properties":{"kind":"center","id":19,"lat":62.0,"lon":-18.75,"mslp":984.4,"hvtl":-137.7,"hvtu":-431.1,"hb":58.6,"idx":-2.8,"cls":4,"psfc":984.4,"terrain":false,"radius_km":200,"name":"asym cold","track":"T59"},"geometry":{"type":"Point","coordinates":[-18.75,62.0]}},{"type":"Feature","properties":{"kind":"center","id":20,"lat":62.0,"lon":-154.5,"mslp":989.6,"hvtl":-43.0,"hvtu":-98.6,"hb":7.7,"idx":-1.6,"cls":5,"psfc":902.2,"terrain":false,"radius_km":200,"name":"sym cold","track":"T76"},"geometry":{"type":"Point","coordinates":[-154.5,62.0]}},{"type":"Feature","properties":{"kind":"center","id":21,"lat":61.75,"lon":-149.25,"mslp":991.0,"hvtl":-85.4,"hvtu":-78.0,"hb":13.6,"idx":-2.0,"cls":4,"psfc":907.3,"terrain":false,"radius_km":200,"name":"asym cold","track":"T82"},"geometry":{"type":"Point","coordinates":[-149.25,61.75]}},{"type":"Feature","properties":{"kind":"center","id":22,"lat":56.75,"lon":61.75,"mslp":992.1,"hvtl":-106.8,"hvtu":-137.2,"hb":34.4,"idx":-2.5,"cls":4,"psfc":967.3,"terrain":false,"radius_km":200,"name":"asym cold","track":"T84"},"geometry":{"type":"Point","coordinates":[61.75,56.75]}},{"type":"Feature","properties":{"kind":"center","id":23,"lat":61.0,"lon":-34.25,"mslp":994.7,"hvtl":56.5,"hvtu":-268.5,"hb":-5.0,"idx":0.0,"cls":1,"psfc":994.7,"terrain":false,"radius_km":200,"name":"sym shallow warm","track":"T62"},"geometry":{"type":"Point","coordinates":[-34.25,61.0]}},{"type":"Feature","properties":{"kind":"center","id":24,"lat":64.0,"lon":-126.0,"mslp":995.3,"hvtl":-142.2,"hvtu":-195.0,"hb":79.6,"idx":-2.7,"cls":4,"psfc":913.6,"terrain":false,"radius_km":200,"name":"asym cold"},"geometry":{"type":"Point","coordinates":[-126.0,64.0]}},{"type":"Feature","properties":{"kind":"center","id":25,"lat":69.0,"lon":-58.5,"mslp":996.2,"hvtl":50.3,"hvtu":-62.3,"hb":9.6,"idx":0.4,"cls":1,"psfc":996.2,"terrain":false,"radius_km":200,"name":"sym shallow warm","track":"T69"},"geometry":{"type":"Point","coordinates":[-58.5,69.0]}},{"type":"Feature","properties":{"kind":"center","id":26,"lat":58.75,"lon":77.5,"mslp":998.0,"hvtl":-185.2,"hvtu":-327.0,"hb":55.2,"idx":-2.9,"cls":4,"psfc":987.0,"terrain":false,"radius_km":200,"name":"asym cold","track":"T92"},"geometry":{"type":"Point","coordinates":[77.5,58.75]}},{"type":"Feature","properties":{"kind":"center","id":27,"lat":-52.0,"lon":-60.25,"mslp":998.3,"hvtl":-48.6,"hvtu":42.8,"hb":24.8,"idx":-0.5,"cls":6,"psfc":991.7,"terrain":false,"radius_km":200,"name":"shallow cold","track":"T86"},"geometry":{"type":"Point","coordinates":[-60.25,-52.0]}},{"type":"Feature","properties":{"kind":"center","id":28,"lat":53.25,"lon":-79.25,"mslp":998.7,"hvtl":70.7,"hvtu":-166.9,"hb":30.2,"idx":0.3,"cls":3,"psfc":998.8,"terrain":false,"radius_km":200,"name":"asym shallow warm","track":"T61"},"geometry":{"type":"Point","coordinates":[-79.25,53.25]}},{"type":"Feature","properties":{"kind":"center","id":29,"lat":-39.0,"lon":-45.25,"mslp":998.9,"hvtl":50.0,"hvtu":-313.2,"hb":52.7,"idx":-0.1,"cls":3,"psfc":998.9,"terrain":false,"radius_km":200,"name":"asym shallow warm","track":"T20"},"geometry":{"type":"Point","coordinates":[-45.25,-39.0]}},{"type":"Feature","properties":{"kind":"center","id":30,"lat":-39.0,"lon":-92.25,"mslp":999.3,"hvtl":55.6,"hvtu":-172.8,"hb":3.6,"idx":0.1,"cls":1,"psfc":999.3,"terrain":false,"radius_km":200,"name":"sym shallow warm","track":"T93"},"geometry":{"type":"Point","coordinates":[-92.25,-39.0]}},{"type":"Feature","properties":{"kind":"center","id":31,"lat":58.0,"lon":-121.75,"mslp":1000.4,"hvtl":-184.0,"hvtu":-222.1,"hb":43.2,"idx":-2.9,"cls":4,"psfc":936.3,"terrain":false,"radius_km":200,"name":"asym cold"},"geometry":{"type":"Point","coordinates":[-121.75,58.0]}},{"type":"Feature","properties":{"kind":"center","id":32,"lat":-18.75,"lon":-63.25,"mslp":1001.3,"hvtl":-75.9,"hvtu":-44.3,"hb":26.7,"idx":-1.7,"cls":4,"psfc":947.0,"terrain":false,"radius_km":200,"name":"asym cold","track":"T99"},"geometry":{"type":"Point","coordinates":[-63.25,-18.75]}},{"type":"Feature","properties":{"kind":"center","id":33,"lat":73.5,"lon":-56.25,"mslp":1001.5,"hvtl":-64.0,"hvtu":-50.1,"hb":40.3,"idx":-1.6,"cls":4,"psfc":1000.3,"terrain":false,"radius_km":200,"name":"asym cold","track":"T80"},"geometry":{"type":"Point","coordinates":[-56.25,73.5]}},{"type":"Feature","properties":{"kind":"center","id":34,"lat":41.0,"lon":133.25,"mslp":1004.5,"hvtl":-168.8,"hvtu":-464.8,"hb":56.5,"idx":-2.9,"cls":4,"psfc":1004.5,"terrain":false,"radius_km":200,"name":"asym cold","track":"T94"},"geometry":{"type":"Point","coordinates":[133.25,41.0]}},{"type":"Feature","properties":{"kind":"center","id":35,"lat":31.0,"lon":71.25,"mslp":1004.6,"hvtl":15.2,"hvtu":-70.1,"hb":18.6,"idx":-0.3,"cls":3,"psfc":987.6,"terrain":false,"radius_km":200,"name":"asym shallow warm","track":"T103"},"geometry":{"type":"Point","coordinates":[71.25,31.0]}},{"type":"Feature","properties":{"kind":"center","id":36,"lat":27.25,"lon":67.5,"mslp":1004.7,"hvtl":48.0,"hvtu":-41.2,"hb":1.4,"idx":0.5,"cls":1,"psfc":995.5,"terrain":false,"radius_km":200,"name":"sym shallow warm"},"geometry":{"type":"Point","coordinates":[67.5,27.25]}},{"type":"Feature","properties":{"kind":"center","id":37,"lat":-9.0,"lon":-74.25,"mslp":1005.9,"hvtl":36.5,"hvtu":-49.5,"hb":-5.7,"idx":0.2,"cls":1,"psfc":987.1,"terrain":false,"radius_km":200,"name":"sym shallow warm"},"geometry":{"type":"Point","coordinates":[-74.25,-9.0]}},{"type":"Feature","properties":{"kind":"center","id":38,"lat":35.25,"lon":-119.25,"mslp":1006.3,"hvtl":-104.6,"hvtu":-191.0,"hb":19.0,"idx":-2.5,"cls":4,"psfc":994.8,"terrain":false,"radius_km":200,"name":"asym cold"},"geometry":{"type":"Point","coordinates":[-119.25,35.25]}},{"type":"Feature","properties":{"kind":"center","id":39,"lat":-28.25,"lon":-66.5,"mslp":1006.3,"hvtl":-44.0,"hvtu":-222.8,"hb":29.0,"idx":-1.8,"cls":4,"psfc":923.4,"terrain":false,"radius_km":200,"name":"asym cold"},"geometry":{"type":"Point","coordinates":[-66.5,-28.25]}},{"type":"Feature","properties":{"kind":"center","id":40,"lat":-81.5,"lon":-59.25,"mslp":1006.3,"hvtl":-343.3,"hvtu":-169.8,"hb":63.8,"idx":-2.9,"cls":4,"psfc":989.3,"terrain":false,"radius_km":200,"name":"asym cold","track":"T67"},"geometry":{"type":"Point","coordinates":[-59.25,-81.5]}},{"type":"Feature","properties":{"kind":"center","id":41,"lat":-12.0,"lon":-74.0,"mslp":1007.0,"hvtl":78.1,"hvtu":-85.8,"hb":-11.3,"idx":0.6,"cls":1,"psfc":931.0,"terrain":false,"radius_km":200,"name":"sym shallow warm"},"geometry":{"type":"Point","coordinates":[-74.0,-12.0]}},{"type":"Feature","properties":{"kind":"center","id":42,"lat":-27.0,"lon":-64.25,"mslp":1007.5,"hvtl":-1.1,"hvtu":-218.7,"hb":44.9,"idx":-1.0,"cls":4,"psfc":982.9,"terrain":false,"radius_km":200,"name":"asym cold","track":"T98"},"geometry":{"type":"Point","coordinates":[-64.25,-27.0]}},{"type":"Feature","properties":{"kind":"center","id":43,"lat":27.0,"lon":79.75,"mslp":1008.2,"hvtl":10.5,"hvtu":-104.2,"hb":9.4,"idx":-0.6,"cls":1,"psfc":991.8,"terrain":false,"radius_km":200,"name":"sym shallow warm"},"geometry":{"type":"Point","coordinates":[79.75,27.0]}},{"type":"Feature","properties":{"kind":"center","id":44,"lat":11.75,"lon":-54.75,"mslp":1008.2,"hvtl":39.7,"hvtu":37.4,"hb":-9.2,"idx":1.1,"cls":0,"psfc":1008.2,"terrain":false,"radius_km":200,"name":"sym deep warm"},"geometry":{"type":"Point","coordinates":[-54.75,11.75]}},{"type":"Feature","properties":{"kind":"center","id":45,"lat":50.0,"lon":-113.25,"mslp":1008.7,"hvtl":-125.6,"hvtu":-37.1,"hb":42.2,"idx":-2.1,"cls":4,"psfc":901.1,"terrain":true,"radius_km":200,"name":"asym cold"},"geometry":{"type":"Point","coordinates":[-113.25,50.0]}},{"type":"Feature","properties":{"kind":"center","id":46,"lat":-11.25,"lon":-74.25,"mslp":1009.5,"hvtl":51.5,"hvtu":-79.5,"hb":-12.5,"idx":0.3,"cls":1,"psfc":903.2,"terrain":true,"radius_km":200,"name":"sym shallow warm"},"geometry":{"type":"Point","coordinates":[-74.25,-11.25]}},{"type":"Feature","properties":{"kind":"center","id":47,"lat":29.25,"lon":50.75,"mslp":1009.7,"hvtl":61.2,"hvtu":-121.6,"hb":9.0,"idx":0.3,"cls":1,"psfc":1009.3,"terrain":false,"radius_km":200,"name":"sym shallow warm","track":"T128"},"geometry":{"type":"Point","coordinates":[50.75,29.25]}},{"type":"Feature","properties":{"kind":"center","id":48,"lat":29.5,"lon":65.0,"mslp":1010.1,"hvtl":106.5,"hvtu":-52.6,"hb":2.9,"idx":1.1,"cls":1,"psfc":915.2,"terrain":true,"radius_km":200,"name":"sym shallow warm"},"geometry":{"type":"Point","coordinates":[65.0,29.5]}},{"type":"Feature","properties":{"kind":"center","id":49,"lat":-9.25,"lon":-76.0,"mslp":1011.5,"hvtl":44.0,"hvtu":-38.5,"hb":-29.7,"idx":0.5,"cls":1,"psfc":901.9,"terrain":true,"radius_km":200,"name":"sym shallow warm"},"geometry":{"type":"Point","coordinates":[-76.0,-9.25]}},{"type":"Feature","properties":{"kind":"center","id":50,"lat":47.5,"lon":85.0,"mslp":1013.6,"hvtl":-137.3,"hvtu":-125.5,"hb":75.8,"idx":-2.6,"cls":4,"psfc":941.6,"terrain":false,"radius_km":200,"name":"asym cold"},"geometry":{"type":"Point","coordinates":[85.0,47.5]}},{"type":"Feature","properties":{"kind":"center","id":51,"lat":30.0,"lon":62.5,"mslp":1013.9,"hvtl":246.1,"hvtu":-80.7,"hb":9.9,"idx":1.3,"cls":1,"psfc":954.6,"terrain":false,"radius_km":200,"name":"sym shallow warm","track":"T130"},"geometry":{"type":"Point","coordinates":[62.5,30.0]}},{"type":"Feature","properties":{"kind":"center","id":52,"lat":44.0,"lon":87.75,"mslp":1014.5,"hvtl":74.0,"hvtu":-49.9,"hb":14.7,"idx":0.8,"cls":3,"psfc":936.2,"terrain":false,"radius_km":200,"name":"asym shallow warm"},"geometry":{"type":"Point","coordinates":[87.75,44.0]}},{"type":"Feature","properties":{"kind":"center","id":53,"lat":42.75,"lon":89.25,"mslp":1017.5,"hvtl":40.8,"hvtu":-88.8,"hb":18.7,"idx":0.1,"cls":3,"psfc":1032.6,"terrain":false,"radius_km":200,"name":"asym shallow warm"},"geometry":{"type":"Point","coordinates":[89.25,42.75]}},{"type":"Feature","properties":{"kind":"center","id":54,"lat":45.75,"lon":85.0,"mslp":1017.8,"hvtl":-26.0,"hvtu":-107.7,"hb":63.4,"idx":-1.3,"cls":4,"psfc":947.6,"terrain":false,"radius_km":200,"name":"asym cold"},"geometry":{"type":"Point","coordinates":[85.0,45.75]}},{"type":"Feature","properties":{"kind":"center","id":55,"lat":37.75,"lon":67.0,"mslp":1020.0,"hvtl":210.4,"hvtu":-264.2,"hb":50.8,"idx":1.0,"cls":3,"psfc":953.7,"terrain":false,"radius_km":200,"name":"asym shallow warm","track":"T131"},"geometry":{"type":"Point","coordinates":[67.0,37.75]}},{"type":"Feature","properties":{"kind":"center","id":56,"lat":46.75,"lon":84.0,"mslp":1020.4,"hvtl":-124.6,"hvtu":-126.0,"hb":78.6,"idx":-2.5,"cls":4,"psfc":926.6,"terrain":true,"radius_km":200,"name":"asym cold"},"geometry":{"type":"Point","coordinates":[84.0,46.75]}},{"type":"Feature","properties":{"kind":"center","id":57,"lat":43.75,"lon":79.25,"mslp":1020.5,"hvtl":-146.6,"hvtu":-185.7,"hb":108.8,"idx":-2.8,"cls":4,"psfc":952.6,"terrain":false,"radius_km":200,"name":"asym cold"},"geometry":{"type":"Point","coordinates":[79.25,43.75]}}]}