{"type":"FeatureCollection","features":[{"type":"Feature","properties":{"kind":"blob","cls":4,"id":1},"geometry":{"type":"Polygon","coordinates":[[[-129.75,-59.38],[-128.38,-58.5],[-128.12,-57.5],[-128.75,-56.62],[-131.5,-54.88],[-134.0,-54.62],[-135.75,-55.12],[-136.88,-56.5],[-136.62,-57.0],[-135.5,-58.38],[-133.5,-59.38],[-129.75,-59.38]]]}},{"type":"Feature","properties":{"kind":"blob","cls":4,"id":2},"geometry":{"type":"Polygon","coordinates":[[[-145.0,-77.62],[-144.88,-77.0],[-145.62,-76.5],[-145.25,-75.88],[-141.0,-75.88],[-140.0,-75.38],[-136.25,-74.88],[-134.5,-75.12],[-133.88,-74.0],[-135.5,-72.88],[-137.25,-72.38],[-142.5,-72.12],[-149.5,-73.38],[-154.62,-75.75],[-154.25,-76.62],[-152.5,-77.38],[-145.0,-77.62]]]}},{"type":"Feature","properties":{"kind":"blob","cls":3,"id":3},"geometry":{"type":"Polygon","coordinates":[[[-13.5,-54.12],[-12.0,-53.62],[-11.12,-52.75],[-11.38,-51.0],[-13.25,-49.12],[-14.25,-48.62],[-17.25,-48.38],[-18.75,-48.88],[-19.62,-50.0],[-19.38,-51.75],[-18.25,-52.88],[-13.5,-54.12]]]}},{"type":"Feature","properties":{"kind":"blob","cls":4,"id":4},"geometry":{"type":"Polygon","coordinates":[[[-131.5,-66.62],[-127.0,-65.62],[-124.62,-64.0],[-124.88,-62.75],[-126.0,-61.88],[-128.0,-61.38],[-131.25,-61.38],[-133.25,-61.88],[-136.88,-64.0],[-135.0,-63.88],[-134.88,-65.0],[-135.88,-66.0],[-131.5,-66.62]]]}},{"type":"Feature","properties":{"kind":"blob","cls":1,"id":5},"geometry":{"type":"Polygon","coordinates":[[[113.25,-66.12],[115.12,-65.0],[115.38,-64.0],[115.0,-63.38],[113.5,-62.62],[112.0,-62.38],[109.5,-62.38],[107.5,-62.88],[109.75,-63.62],[110.12,-64.25],[108.5,-64.62],[106.25,-64.38],[106.38,-65.0],[108.25,-66.12],[113.25,-66.12]]]}},{"type":"Feature","properties":{"kind":"blob","cls":4,"id":6},"geometry":{"type":"Polygon","coordinates":[[[179.88,-67.5],[179.75,-63.88],[176.5,-63.62],[172.25,-64.38],[169.88,-65.75],[169.88,-66.75],[170.5,-67.38],[173.5,-68.38],[176.0,-68.38],[179.88,-67.5]]]}},{"type":"Feature","properties":{"kind":"blob","cls":4,"id":6},"geometry":{"type":"Polygon","coordinates":[[[-179.75,-64.12],[-180.0,-67.38],[-178.5,-66.88],[-177.75,-65.88],[-174.25,-66.12],[-171.75,-65.62],[-169.75,-64.62],[-168.88,-63.5],[-170.25,-62.12],[-174.0,-61.62],[-177.25,-62.38],[-179.25,-63.38],[-179.75,-64.12]]]}},{"type":"Feature","properties":{"kind":"blob","cls":4,"id":7},"geometry":{"type":"Polygon","coordinates":[[[74.5,-59.38],[79.25,-59.62],[81.5,-59.12],[83.0,-58.38],[84.12,-57.25],[84.12,-55.75],[82.75,-54.62],[79.75,-54.38],[73.75,-55.88],[72.38,-56.75],[72.12,-58.0],[72.75,-58.88],[74.5,-59.38]]]}},{"type":"Feature","properties":{"kind":"blob","cls":0,"id":8},"geometry":{"type":"Polygon","coordinates":[[[145.75,18.62],[147.25,18.62],[148.12,19.75],[147.88,21.25],[146.5,22.12],[145.25,21.88],[144.38,20.75],[144.62,19.25],[145.75,18.62]],[[144.88,20.5],[144.88,21.0],[145.5,21.38],[145.88,20.75],[144.88,20.5]]]}},{"type":"Feature","properties":{"kind":"blob","cls":4,"id":9},"geometry":{"type":"Polygon","coordinates":[[[-22.0,-75.88],[-19.5,-74.62],[-15.0,-73.88],[-15.62,-73.5],[-14.5,-73.38],[-14.38,-72.75],[-15.0,-71.88],[-16.75,-70.88],[-24.0,-69.12],[-28.25,-69.38],[-30.25,-70.12],[-31.12,-71.0],[-31.12,-71.5],[-29.88,-72.5],[-30.38,-73.25],[-30.0,-74.12],[-27.25,-75.38],[-22.0,-75.88]]]}},{"type":"Feature","properties":{"kind":"blob","cls":6,"id":10},"geometry":{"type":"MultiPolygon","coordinates":[[[[80.38,-68.0],[81.12,-68.0],[81.0,-67.88],[80.38,-68.0]]],[[[81.12,-67.75],[83.25,-67.88],[84.25,-67.38],[88.62,-67.0],[86.75,-66.12],[85.25,-66.12],[81.12,-67.75]]]]}},{"type":"Feature","properties":{"kind":"blob","cls":4,"id":11},"geometry":{"type":"Polygon","coordinates":[[[65.75,-60.88],[67.5,-60.38],[68.38,-59.5],[68.38,-58.25],[67.75,-57.62],[65.75,-56.88],[61.75,-57.12],[60.12,-58.25],[60.12,-59.5],[61.0,-60.38],[65.75,-60.88]]]}},{"type":"Feature","properties":{"kind":"blob","cls":5,"id":12},"geometry":{"type":"Polygon","coordinates":[[[170.5,49.88],[172.0,50.38],[172.88,51.25],[172.88,52.5],[172.0,53.38],[170.5,53.88],[167.5,53.38],[166.62,52.5],[166.62,51.5],[167.75,50.38],[170.5,49.88]]]}},{"type":"Feature","properties":{"kind":"blob","cls":5,"id":13},"geometry":{"type":"Polygon","coordinates":[[[76.0,-67.88],[82.12,-65.75],[80.5,-65.62],[78.0,-66.12],[76.25,-66.88],[76.0,-67.88]]]}},{"type":"Feature","properties":{"kind":"blob","cls":4,"id":14},"geometry":{"type":"Polygon","coordinates":[[[-110.0,-64.38],[-108.12,-63.25],[-108.38,-61.5],[-107.62,-61.0],[-107.12,-60.0],[-107.12,-58.0],[-107.75,-57.38],[-109.75,-56.62],[-111.5,-56.62],[-113.5,-57.38],[-114.62,-58.5],[-115.12,-59.5],[-114.88,-60.5],[-116.12,-61.5],[-115.88,-63.25],[-114.75,-64.12],[-110.0,-64.38]]]}},{"type":"Feature","properties":{"kind":"blob","cls":1,"id":15},"geometry":{"type":"Polygon","coordinates":[[[27.5,-65.12],[29.5,-64.62],[30.62,-63.75],[30.62,-62.75],[29.25,-61.62],[27.25,-61.12],[25.25,-61.12],[22.75,-61.88],[22.12,-62.5],[22.12,-63.75],[23.25,-64.62],[27.5,-65.12]]]}},{"type":"Feature","properties":{"kind":"blob","cls":1,"id":16},"geometry":{"type":"Polygon","coordinates":[[[6.25,-68.12],[8.0,-67.38],[8.62,-66.5],[8.0,-65.62],[4.5,-64.38],[1.0,-64.62],[-1.62,-66.0],[-1.88,-66.5],[-1.25,-67.38],[0.5,-68.12],[6.25,-68.12]]]}},{"type":"Feature","properties":{"kind":"blob","cls":0,"id":17},"geometry":{"type":"Polygon","coordinates":[[[-110.75,17.88],[-109.88,19.0],[-110.12,20.5],[-111.5,21.38],[-112.75,21.12],[-113.62,20.0],[-113.5,19.12],[-112.5,20.12],[-111.38,19.5],[-112.25,18.38],[-113.12,18.25],[-110.75,17.88]]]}},{"type":"Feature","properties":{"kind":"blob","cls":5,"id":18},"geometry":{"type":"Polygon","coordinates":[[[23.5,-70.38],[24.12,-70.25],[24.0,-70.12],[23.5,-70.38]]]}},{"type":"Feature","properties":{"kind":"blob","cls":5,"id":19},"geometry":{"type":"Polygon","coordinates":[[[21.25,-70.62],[22.88,-70.5],[22.75,-70.38],[21.25,-70.62]]]}},{"type":"Feature","properties":{"kind":"blob","cls":4,"id":20},"geometry":{"type":"Polygon","coordinates":[[[-150.75,-51.62],[-149.0,-50.88],[-148.38,-50.0],[-148.62,-49.0],[-150.75,-47.88],[-152.75,-48.12],[-153.5,-48.62],[-154.12,-49.5],[-153.88,-50.5],[-152.75,-51.38],[-150.75,-51.62]]]}},{"type":"Feature","properties":{"kind":"blob","cls":4,"id":21},"geometry":{"type":"Polygon","coordinates":[[[-30.25,60.62],[-27.5,61.38],[-25.88,62.5],[-25.88,63.75],[-27.0,64.62],[-29.0,65.12],[-31.75,65.12],[-33.75,64.62],[-35.62,63.25],[-35.88,62.25],[-34.75,61.12],[-30.25,60.62]]]}},{"type":"Feature","properties":{"kind":"blob","cls":0,"id":22},"geometry":{"type":"Polygon","coordinates":[[[-169.25,21.38],[-168.38,22.25],[-168.38,23.75],[-169.25,24.62],[-170.5,24.88],[-172.12,23.75],[-172.12,22.25],[-171.25,21.38],[-169.25,21.38]]]}},{"type":"Feature","properties":{"kind":"blob","cls":3,"id":23},"geometry":{"type":"Polygon","coordinates":[[[164.75,-74.88],[166.75,-74.88],[170.5,-74.12],[171.62,-73.25],[172.12,-72.0],[171.0,-71.12],[169.25,-70.62],[165.0,-70.38],[170.62,-71.75],[169.25,-73.12],[166.75,-73.12],[165.75,-73.88],[165.0,-73.62],[164.75,-74.88]],[[169.75,-73.62],[169.62,-73.5],[169.75,-73.38],[169.75,-73.62]]]}},{"type":"Feature","properties":{"kind":"blob","cls":6,"id":24},"geometry":{"type":"Polygon","coordinates":[[[112.5,71.62],[119.0,71.62],[120.75,72.12],[121.88,73.0],[119.75,73.12],[118.62,73.75],[119.75,74.12],[121.38,74.0],[120.75,74.38],[117.0,75.12],[110.75,74.88],[109.0,74.38],[107.88,73.5],[107.88,73.0],[109.0,72.12],[112.5,71.62]]]}},{"type":"Feature","properties":{"kind":"blob","cls":2,"id":25},"geometry":{"type":"Polygon","coordinates":[[[164.5,-71.12],[164.62,-70.75],[163.5,-70.62],[164.5,-71.12]]]}},{"type":"Feature","properties":{"kind":"blob","cls":2,"id":26},"geometry":{"type":"Polygon","coordinates":[[[162.0,-71.38],[162.5,-71.62],[162.62,-71.25],[162.25,-70.88],[162.0,-71.38]]]}},{"type":"Feature","properties":{"kind":"blob","cls":5,"id":27},"geometry":{"type":"Polygon","coordinates":[[[-79.5,-78.88],[-73.5,-78.62],[-70.5,-77.88],[-69.88,-76.75],[-70.5,-76.12],[-72.5,-76.12],[-72.25,-75.62],[-73.5,-75.38],[-82.0,-75.38],[-81.12,-75.75],[-81.5,-76.38],[-78.5,-76.62],[-77.88,-77.25],[-79.75,-77.38],[-79.5,-78.88]]]}},{"type":"Feature","properties":{"kind":"blob","cls":4,"id":28},"geometry":{"type":"Polygon","coordinates":[[[-53.75,61.62],[-51.88,62.75],[-51.88,63.75],[-52.5,64.38],[-54.12,65.0],[-53.12,65.75],[-53.12,66.75],[-54.5,67.62],[-56.5,68.12],[-59.25,68.12],[-62.25,67.12],[-62.62,66.75],[-62.62,65.75],[-59.88,64.25],[-60.38,63.75],[-60.38,62.75],[-59.25,61.88],[-53.75,61.62]]]}},{"type":"Feature","properties":{"kind":"blob","cls":1,"id":29},"geometry":{"type":"Polygon","coordinates":[[[-83.75,-50.12],[-82.5,-49.62],[-82.12,-49.25],[-82.38,-48.75],[-81.12,-48.0],[-81.12,-46.5],[-82.0,-45.62],[-83.25,-45.12],[-85.75,-45.62],[-87.62,-47.5],[-87.62,-48.75],[-86.75,-49.62],[-83.75,-50.12]]]}},{"type":"Feature","properties":{"kind":"blob","cls":4,"id":30},"geometry":{"type":"Polygon","coordinates":[[[-50.5,67.12],[-50.38,67.5],[-51.62,70.0],[-52.0,70.38],[-53.62,70.5],[-52.25,70.62],[-52.12,71.0],[-53.0,71.88],[-54.25,71.88],[-54.0,72.62],[-58.0,72.12],[-59.62,71.0],[-59.62,70.5],[-58.5,69.38],[-57.5,68.88],[-53.75,68.12],[-52.25,67.38],[-50.5,67.12]],[[-54.12,70.0],[-53.0,70.12],[-52.62,69.75],[-54.12,70.0]]]}},{"type":"Feature","properties":{"kind":"blob","cls":4,"id":31},"geometry":{"type":"Polygon","coordinates":[[[-108.0,-47.38],[-106.75,-46.88],[-105.75,-45.62],[-104.38,-44.75],[-104.38,-43.25],[-106.25,-42.12],[-109.75,-42.12],[-111.0,-42.62],[-111.62,-43.25],[-111.88,-45.0],[-110.75,-46.62],[-108.0,-47.38]]]}},{"type":"Feature","properties":{"kind":"blob","cls":4,"id":32},"geometry":{"type":"Polygon","coordinates":[[[-65.5,72.88],[-60.75,72.88],[-58.75,73.38],[-57.62,74.25],[-59.5,75.12],[-60.75,76.38],[-66.25,76.38],[-68.75,77.12],[-73.5,76.62],[-75.25,76.12],[-76.38,75.25],[-76.38,74.75],[-75.25,73.88],[-69.25,72.88],[-66.0,75.12],[-63.25,75.88],[-61.88,75.5],[-62.75,74.38],[-65.5,72.88]]]}},{"type":"Feature","properties":{"kind":"blob","cls":3,"id":33},"geometry":{"type":"Polygon","coordinates":[[[-149.5,53.38],[-147.88,54.5],[-147.88,56.0],[-149.0,57.12],[-150.75,57.62],[-154.75,57.38],[-155.38,57.0],[-155.12,55.5],[-156.38,54.5],[-154.75,53.38],[-149.5,53.38]]]}},{"type":"Feature","properties":{"kind":"blob","cls":4,"id":34},"geometry":{"type":"Polygon","coordinates":[[[149.5,71.12],[152.5,71.62],[153.75,72.12],[154.88,73.25],[154.88,74.0],[154.0,75.12],[152.75,75.88],[150.5,76.38],[150.62,77.25],[150.0,77.88],[148.0,78.62],[140.5,79.12],[135.5,78.38],[134.12,77.5],[134.12,77.0],[135.25,76.12],[139.25,75.38],[139.88,74.0],[142.25,72.12],[144.5,71.38],[149.5,71.12]]]}},{"type":"Feature","properties":{"kind":"blob","cls":4,"id":35},"geometry":{"type":"Polygon","coordinates":[[[-27.25,70.38],[-22.0,70.12],[-18.25,70.62],[-13.5,72.38],[-12.38,73.25],[-12.38,73.75],[-14.0,74.88],[-15.75,75.38],[-21.25,75.62],[-21.75,74.38],[-23.25,74.38],[-24.38,73.75],[-24.38,73.0],[-24.88,72.5],[-24.25,71.88],[-25.0,71.38],[-25.75,71.62],[-26.0,70.62],[-27.25,70.38]],[[-23.62,73.75],[-22.88,73.75],[-23.0,73.62],[-23.62,73.75]]]}},{"type":"Feature","properties":{"kind":"blob","cls":3,"id":36},"geometry":{"type":"Polygon","coordinates":[[[4.75,81.62],[16.5,82.12],[24.25,83.12],[25.75,83.62],[25.88,84.25],[25.25,84.62],[17.0,84.38],[-2.25,83.12],[-8.88,82.25],[-7.75,81.88],[4.75,81.62]]]}},{"type":"Feature","properties":{"kind":"blob","cls":4,"id":37},"geometry":{"type":"MultiPolygon","coordinates":[[[[146.5,65.62],[146.38,65.5],[146.75,65.38],[146.5,65.62]]],[[[142.75,65.88],[142.38,65.75],[146.38,65.75],[143.75,66.38],[143.12,67.0],[143.5,67.38],[147.0,66.12],[147.12,66.75],[145.75,67.62],[143.75,68.12],[139.62,67.75],[140.75,66.62],[141.5,66.62],[142.75,65.88]]]]}},{"type":"Feature","properties":{"kind":"blob","cls":1,"id":38},"geometry":{"type":"Polygon","coordinates":[[[-66.25,-51.12],[-64.0,-50.12],[-63.62,-49.5],[-63.88,-47.75],[-66.0,-46.62],[-67.25,-46.62],[-69.0,-47.38],[-70.12,-49.25],[-69.5,-50.38],[-66.25,-51.12]]]}},{"type":"Feature","properties":{"kind":"blob","cls":4,"id":39},"geometry":{"type":"Polygon","coordinates":[[[62.75,79.38],[67.5,80.38],[67.88,81.25],[67.0,81.88],[64.25,82.62],[57.0,83.38],[43.75,83.12],[40.25,82.62],[38.12,81.75],[38.75,80.62],[40.25,80.12],[45.25,79.38],[62.75,79.38]]]}},{"type":"Feature","properties":{"kind":"blob","cls":4,"id":40},"geometry":{"type":"Polygon","coordinates":[[[-66.38,77.0],[-66.25,76.88],[-66.12,77.0],[-66.38,77.0]]]}},{"type":"Feature","properties":{"kind":"blob","cls":4,"id":41},"geometry":{"type":"Polygon","coordinates":[[[141.75,64.38],[142.12,64.5],[142.0,64.62],[141.75,64.38]]]}},{"type":"Feature","properties":{"kind":"blob","cls":4,"id":42},"geometry":{"type":"Polygon","coordinates":[[[5.0,65.12],[7.25,65.62],[9.12,67.25],[9.38,68.5],[8.5,69.38],[7.0,69.88],[3.0,70.12],[0.0,69.38],[-1.38,68.25],[-1.38,67.0],[-0.5,66.12],[1.25,65.38],[5.0,65.12]]]}},{"type":"Feature","properties":{"kind":"blob","cls":4,"id":43},"geometry":{"type":"Polygon","coordinates":[[[137.75,66.38],[138.25,66.38],[138.38,67.0],[138.0,67.12],[137.75,66.38]]]}},{"type":"Feature","properties":{"kind":"blob","cls":4,"id":44},"geometry":{"type":"MultiPolygon","coordinates":[[[[-64.0,-30.62],[-62.62,-29.0],[-63.38,-27.5],[-62.75,-27.38],[-61.62,-26.25],[-61.62,-24.0],[-62.75,-22.62],[-64.0,-22.38],[-64.38,-22.75],[-64.62,-24.0],[-64.12,-24.25],[-65.12,-25.75],[-64.62,-26.0],[-65.0,-26.62],[-65.38,-26.25],[-65.88,-27.25],[-65.38,-28.75],[-65.75,-28.38],[-66.38,-28.75],[-66.12,-28.0],[-66.5,-27.62],[-66.88,-28.0],[-66.62,-29.0],[-67.38,-29.75],[-67.0,-30.38],[-64.0,-30.62]]],[[[-64.75,-24.38],[-64.88,-24.5],[-64.75,-24.62],[-64.75,-24.38]]]]}},{"type":"Feature","properties":{"kind":"blob","cls":1,"id":45},"geometry":{"type":"Polygon","coordinates":[[[-63.25,-20.88],[-61.75,-20.62],[-60.88,-19.5],[-61.12,-17.75],[-62.75,-16.62],[-64.62,-17.25],[-63.38,-18.25],[-63.88,-19.0],[-63.12,-19.5],[-63.25,-20.88]]]}},{"type":"Feature","properties":{"kind":"blob","cls":4,"id":46},"geometry":{"type":"Polygon","coordinates":[[[-104.75,-35.62],[-103.12,-34.75],[-102.88,-33.0],[-103.5,-32.12],[-105.75,-31.38],[-107.62,-32.5],[-107.62,-34.5],[-107.0,-35.12],[-104.75,-35.62]]]}},{"type":"Feature","properties":{"kind":"blob","cls":4,"id":47},"geometry":{"type":"Polygon","coordinates":[[[66.5,55.12],[68.12,56.75],[66.5,58.38],[62.5,58.38],[60.88,56.75],[62.0,55.38],[66.5,55.12]]]}},{"type":"Feature","properties":{"kind":"blob","cls":1,"id":48},"geometry":{"type":"Polygon","coordinates":[[[68.75,25.38],[70.12,27.0],[69.88,28.25],[68.0,29.62],[67.38,29.5],[66.88,27.0],[65.62,26.75],[65.62,26.25],[66.5,25.38],[68.75,25.38]]]}},{"type":"Feature","properties":{"kind":"blob","cls":1,"id":49},"geometry":{"type":"Polygon","coordinates":[[[72.75,29.12],[75.0,28.88],[76.25,29.38],[76.88,30.25],[76.88,31.25],[75.25,32.38],[72.25,32.38],[70.5,31.88],[70.12,31.5],[70.12,30.0],[72.75,29.12]]]}},{"type":"Feature","properties":{"kind":"blob","cls":4,"id":50},"geometry":{"type":"MultiPolygon","coordinates":[[[[56.25,36.88],[56.12,36.75],[56.5,36.62],[56.25,36.88]]],[[[56.75,37.12],[56.62,37.0],[56.75,36.88],[56.75,37.12]]]]}},{"type":"Feature","properties":{"kind":"blob","cls":4,"id":51},"geometry":{"type":"Polygon","coordinates":[[[57.75,34.38],[57.88,35.0],[56.62,35.5],[57.38,36.0],[57.0,36.38],[56.25,36.38],[55.38,35.5],[56.5,34.62],[57.75,34.38]]]}},{"type":"Feature","properties":{"kind":"blob","cls":6,"id":52},"geometry":{"type":"Polygon","coordinates":[[[-147.25,72.12],[-145.0,72.88],[-144.12,74.0],[-145.0,75.12],[-146.25,75.62],[-149.25,76.62],[-152.75,77.12],[-159.25,76.88],[-161.25,76.38],[-162.62,75.25],[-158.0,75.12],[-156.12,74.5],[-156.25,73.88],[-157.0,73.62],[-160.38,73.25],[-159.0,72.62],[-147.25,72.12]]]}},{"type":"Feature","properties":{"kind":"blob","cls":3,"id":53},"geometry":{"type":"Polygon","coordinates":[[[17.88,-25.75],[18.0,-25.88],[18.12,-25.75],[17.88,-25.75]]]}},{"type":"Feature","properties":{"kind":"blob","cls":4,"id":54},"geometry":{"type":"Polygon","coordinates":[[[57.5,55.12],[59.12,56.75],[57.5,58.38],[53.75,58.38],[52.12,56.75],[53.25,55.38],[57.5,55.12]]]}},{"type":"Feature","properties":{"kind":"blob","cls":4,"id":55},"geometry":{"type":"Polygon","coordinates":[[[54.25,36.62],[55.25,36.88],[56.0,37.62],[57.0,37.62],[56.62,38.25],[57.12,38.5],[55.5,38.62],[53.88,37.5],[54.25,36.62]]]}},{"type":"Feature","properties":{"kind":"blob","cls":1,"id":56},"geometry":{"type":"Polygon","coordinates":[[[45.5,-18.12],[46.25,-18.38],[47.25,-17.88],[47.5,-18.38],[47.75,-17.62],[48.25,-18.12],[50.12,-15.5],[50.12,-14.25],[49.5,-13.88],[49.38,-14.75],[48.75,-14.88],[48.38,-14.5],[49.38,-13.75],[48.25,-13.12],[47.25,-13.12],[44.88,-16.25],[44.88,-17.25],[45.5,-18.12]],[[48.0,-16.88],[47.88,-16.75],[48.0,-16.62],[48.0,-16.88]]]}},{"type":"Feature","properties":{"kind":"blob","cls":4,"id":57},"geometry":{"type":"Polygon","coordinates":[[[-101.0,41.88],[-100.25,41.88],[-98.38,43.0],[-98.38,44.5],[-99.0,45.12],[-100.25,45.62],[-102.25,45.62],[-104.12,45.0],[-103.38,44.5],[-103.0,43.12],[-102.0,43.38],[-101.0,41.88]]]}},{"type":"Feature","properties":{"kind":"blob","cls":3,"id":58},"geometry":{"type":"Polygon","coordinates":[[[15.75,-24.62],[15.75,-23.38],[15.62,-23.5],[15.75,-24.62]]]}},{"type":"Feature","properties":{"kind":"blob","cls":4,"id":59},"geometry":{"type":"Polygon","coordinates":[[[120.25,39.12],[122.12,40.5],[122.12,41.5],[120.5,43.12],[119.5,43.38],[119.0,44.38],[118.75,43.88],[118.25,44.12],[117.88,43.5],[118.62,42.75],[118.62,41.25],[117.25,41.62],[116.88,41.25],[116.88,40.5],[118.0,39.38],[120.25,39.12]]]}},{"type":"Feature","properties":{"kind":"blob","cls":3,"id":60},"geometry":{"type":"Polygon","coordinates":[[[45.75,-26.62],[46.62,-25.75],[46.62,-24.25],[45.0,-23.12],[43.75,-23.38],[42.88,-24.25],[42.88,-25.75],[43.75,-26.62],[45.75,-26.62]]]}},{"type":"Feature","properties":{"kind":"blob","cls":4,"id":61},"geometry":{"type":"Polygon","coordinates":[[[57.38,38.25],[57.5,38.12],[57.62,38.25],[57.38,38.25]]]}},{"type":"Feature","properties":{"kind":"blob","cls":4,"id":62},"geometry":{"type":"Polygon","coordinates":[[[57.88,38.0],[58.0,37.88],[58.12,38.0],[57.88,38.0]]]}},{"type":"Feature","properties":{"kind":"blob","cls":4,"id":63},"geometry":{"type":"MultiPolygon","coordinates":[[[[44.75,36.12],[44.62,36.0],[45.0,35.88],[44.75,36.12]]],[[[43.88,36.25],[44.62,36.25],[44.5,36.38],[43.88,36.25]]]]}},{"type":"Feature","properties":{"kind":"blob","cls":4,"id":64},"geometry":{"type":"Polygon","coordinates":[[[149.75,-40.88],[151.38,-39.75],[151.62,-38.75],[150.25,-37.12],[148.5,-36.88],[146.88,-38.0],[146.88,-39.75],[147.75,-40.62],[149.75,-40.88]]]}},{"type":"Feature","properties":{"kind":"blob","cls":3,"id":65},"geometry":{"type":"MultiPolygon","coordinates":[[[[66.5,-29.88],[66.38,-30.0],[66.5,-30.12],[66.5,-29.88]]],[[[67.75,-31.12],[69.0,-31.38],[70.62,-30.25],[70.88,-29.0],[69.75,-27.62],[68.0,-27.38],[66.38,-28.5],[66.25,-29.62],[68.0,-29.38],[68.62,-29.75],[68.25,-30.38],[66.62,-30.25],[67.75,-31.12]]]]}},{"type":"Feature","properties":{"kind":"blob","cls":4,"id":66},"geometry":{"type":"MultiPolygon","coordinates":[[[[52.62,36.25],[53.38,36.25],[53.25,36.38],[52.62,36.25]]],[[[53.5,36.62],[53.38,36.5],[53.5,36.38],[53.5,36.62]]]]}},{"type":"Feature","properties":{"kind":"blob","cls":4,"id":67},"geometry":{"type":"Polygon","coordinates":[[[49.0,37.62],[49.38,37.75],[49.12,38.75],[48.25,39.62],[46.88,39.75],[48.5,38.88],[49.0,37.62]]]}},{"type":"Feature","properties":{"kind":"blob","cls":5,"id":68},"geometry":{"type":"Polygon","coordinates":[[[116.0,44.12],[117.0,44.88],[117.88,44.75],[117.5,45.12],[116.25,45.12],[115.38,44.75],[116.0,44.12]]]}},{"type":"Feature","properties":{"kind":"center","id":1,"lat":-57.0,"lon":-133.0,"mslp":947.9,"hvtl":-48.7,"hvtu":-175.9,"hb":67.6,"idx":-1.8,"cls":4,"psfc":947.9,"terrain":false,"radius_km":200,"name":"asym cold","track":"T03"},"geometry":{"type":"Point","coordinates":[-133.0,-57.0]}},{"type":"Feature","properties":{"kind":"center","id":2,"lat":-75.25,"lon":-145.0,"mslp":949.2,"hvtl":-26.3,"hvtu":-40.0,"hb":51.8,"idx":-0.9,"cls":4,"psfc":949.2,"terrain":false,"radius_km":200,"name":"asym cold"},"geometry":{"type":"Point","coordinates":[-145.0,-75.25]}},{"type":"Feature","properties":{"kind":"center","id":3,"lat":-51.25,"lon":-15.75,"mslp":953.1,"hvtl":220.9,"hvtu":-122.4,"hb":78.6,"idx":1.1,"cls":3,"psfc":953.1,"terrain":false,"radius_km":200,"name":"asym shallow warm","track":"T05"},"geometry":{"type":"Point","coordinates":[-15.75,-51.25]}},{"type":"Feature","properties":{"kind":"center","id":4,"lat":-62.75,"lon":-131.0,"mslp":953.9,"hvtl":-44.9,"hvtu":-83.6,"hb":42.5,"idx":-1.5,"cls":4,"psfc":953.9,"terrain":false,"radius_km":200,"name":"asym cold"},"geometry":{"type":"Point","coordinates":[-131.0,-62.75]}},{"type":"Feature","properties":{"kind":"center","id":5,"lat":-64.25,"lon":110.75,"mslp":953.9,"hvtl":57.6,"hvtu":-79.2,"hb":6.9,"idx":0.4,"cls":1,"psfc":953.9,"terrain":false,"radius_km":200,"name":"sym shallow warm","track":"T16"},"geometry":{"type":"Point","coordinates":[110.75,-64.25]}},{"type":"Feature","properties":{"kind":"center","id":6,"lat":-64.0,"lon":-174.75,"mslp":961.7,"hvtl":-177.5,"hvtu":-194.1,"hb":68.8,"idx":-2.8,"cls":4,"psfc":961.7,"terrain":false,"radius_km":200,"name":"asym cold","track":"T10"},"geometry":{"type":"Point","coordinates":[-174.75,-64.0]}},{"type":"Feature","properties":{"kind":"center","id":7,"lat":-57.25,"lon":77.75,"mslp":964.2,"hvtl":-301.5,"hvtu":-386.3,"hb":65.0,"idx":-3.0,"cls":4,"psfc":964.2,"terrain":false,"radius_km":200,"name":"asym cold"},"geometry":{"type":"Point","coordinates":[77.75,-57.25]}},{"type":"Feature","properties":{"kind":"center","id":8,"lat":20.25,"lon":146.25,"mslp":964.6,"hvtl":104.7,"hvtu":172.8,"hb":-1.7,"idx":2.5,"cls":0,"psfc":964.6,"terrain":false,"radius_km":200,"name":"sym deep warm","track":"T02"},"geometry":{"type":"Point","coordinates":[146.25,20.25]}},{"type":"Feature","properties":{"kind":"center","id":9,"lat":-73.0,"lon":-21.25,"mslp":965.8,"hvtl":-246.4,"hvtu":-77.0,"hb":40.5,"idx":-2.6,"cls":4,"psfc":965.8,"terrain":false,"radius_km":200,"name":"asym cold","track":"T36"},"geometry":{"type":"Point","coordinates":[-21.25,-73.0]}},{"type":"Feature","properties":{"kind":"center","id":10,"lat":-67.0,"lon":88.5,"mslp":966.9,"hvtl":-277.1,"hvtu":16.3,"hb":11.8,"idx":-1.8,"cls":6,"psfc":904.2,"terrain":false,"radius_km":200,"name":"shallow cold"},"geometry":{"type":"Point","coordinates":[88.5,-67.0]}},{"type":"Feature","properties":{"kind":"center","id":11,"lat":-58.75,"lon":66.75,"mslp":967.4,"hvtl":-257.5,"hvtu":-265.5,"hb":70.5,"idx":-3.0,"cls":4,"psfc":967.4,"terrain":false,"radius_km":200,"name":"asym cold","track":"T08"},"geometry":{"type":"Point","coordinates":[66.75,-58.75]}},{"type":"Feature","properties":{"kind":"center","id":12,"lat":52.0,"lon":169.75,"mslp":967.8,"hvtl":-16.2,"hvtu":-310.4,"hb":3.4,"idx":-1.3,"cls":5,"psfc":967.8,"terrain":false,"radius_km":200,"name":"sym cold","track":"T40"},"geometry":{"type":"Point","coordinates":[169.75,52.0]}},{"type":"Feature","properties":{"kind":"center","id":13,"lat":-66.25,"lon":80.25,"mslp":968.1,"hvtl":-72.8,"hvtu":-199.4,"hb":-4.4,"idx":-2.2,"cls":5,"psfc":968.1,"terrain":false,"radius_km":200,"name":"sym cold"},"geometry":{"type":"Point","coordinates":[80.25,-66.25]}},{"type":"Feature","properties":{"kind":"center","id":14,"lat":-59.0,"lon":-111.0,"mslp":968.5,"hvtl":-224.4,"hvtu":-142.3,"hb":44.6,"idx":-2.8,"cls":4,"psfc":968.5,"terrain":false,"radius_km":200,"name":"asym cold"},"geometry":{"type":"Point","coordinates":[-111.0,-59.0]}},{"type":"Feature","properties":{"kind":"center","id":15,"lat":-63.0,"lon":26.25,"mslp":970.7,"hvtl":122.0,"hvtu":-80.7,"hb":-22.3,"idx":1.0,"cls":1,"psfc":970.7,"terrain":false,"radius_km":200,"name":"sym shallow warm"},"geometry":{"type":"Point","coordinates":[26.25,-63.0]}},{"type":"Feature","properties":{"kind":"center","id":16,"lat":-66.5,"lon":3.5,"mslp":972.5,"hvtl":0.7,"hvtu":-231.4,"hb":-7.5,"idx":-1.0,"cls":1,"psfc":972.5,"terrain":false,"radius_km":200,"name":"sym shallow warm"},"geometry":{"type":"Point","coordinates":[3.5,-66.5]}},{"type":"Feature","properties":{"kind":"center","id":17,"lat":19.75,"lon":-111.5,"mslp":974.2,"hvtl":89.8,"hvtu":267.2,"hb":0.1,"idx":2.4,"cls":0,"psfc":974.2,"terrain":false,"radius_km":200,"name":"sym deep warm","track":"T42"},"geometry":{"type":"Point","coordinates":[-111.5,19.75]}},{"type":"Feature","properties":{"kind":"center","id":18,"lat":-70.25,"lon":24.0,"mslp":974.7,"hvtl":-34.3,"hvtu":-113.4,"hb":2.0,"idx":-1.5,"cls":5,"psfc":973.4,"terrain":false,"radius_km":200,"name":"sym cold","track":"T47"},"geometry":{"type":"Point","coordinates":[24.0,-70.25]}},{"type":"Feature","properties":{"kind":"center","id":19,"lat":-70.5,"lon":21.75,"mslp":974.8,"hvtl":-19.7,"hvtu":-127.2,"hb":3.7,"idx":-1.2,"cls":5,"psfc":952.3,"terrain":false,"radius_km":200,"name":"sym cold"},"geometry":{"type":"Point","coordinates":[21.75,-70.5]}},{"type":"Feature","properties":{"kind":"center","id":20,"lat":-49.75,"lon":-150.75,"mslp":977.3,"hvtl":-107.6,"hvtu":-226.0,"hb":23.3,"idx":-2.6,"cls":4,"psfc":977.3,"terrain":false,"radius_km":200,"name":"asym cold"},"geometry":{"type":"Point","coordinates":[-150.75,-49.75]}},{"type":"Feature","properties":{"kind":"center","id":21,"lat":63.0,"lon":-30.75,"mslp":979.6,"hvtl":-112.0,"hvtu":-308.1,"hb":46.0,"idx":-2.6,"cls":4,"psfc":979.6,"terrain":false,"radius_km":200,"name":"asym cold"},"geometry":{"type":"Point","coordinates":[-30.75,63.0]}},{"type":"Feature","properties":{"kind":"center","id":22,"lat":23.0,"lon":-170.25,"mslp":979.7,"hvtl":89.2,"hvtu":226.3,"hb":-6.2,"idx":2.4,"cls":0,"psfc":979.7,"terrain":false,"radius_km":200,"name":"sym deep warm","track":"T44"},"geometry":{"type":"Point","coordinates":[-170.25,23.0]}},{"type":"Feature","properties":{"kind":"center","id":23,"lat":-71.0,"lon":170.25,"mslp":980.7,"hvtl":182.3,"hvtu":-55.9,"hb":30.2,"idx":1.4,"cls":3,"psfc":980.7,"terrain":false,"radius_km":200,"name":"asym shallow warm","track":"T17"},"geometry":{"type":"Point","coordinates":[170.25,-71.0]}},{"type":"Feature","properties":{"kind":"center","id":24,"lat":73.25,"lon":115.0,"mslp":980.9,"hvtl":-62.4,"hvtu":38.5,"hb":21.5,"idx":-0.7,"cls":6,"psfc":976.8,"terrain":false,"radius_km":200,"name":"shallow cold","track":"T60"},"geometry":{"type":"Point","coordinates":[115.0,73.25]}},{"type":"Feature","properties":{"kind":"center","id":25,"lat":-70.75,"lon":163.5,"mslp":982.7,"hvtl":80.6,"hvtu":21.6,"hb":34.3,"idx":1.5,"cls":2,"psfc":940.2,"terrain":false,"radius_km":200,"name":"asym deep warm"},"geometry":{"type":"Point","coordinates":[163.5,-70.75]}},{"type":"Feature","properties":{"kind":"center","id":26,"lat":-71.0,"lon":162.25,"mslp":983.6,"hvtl":63.5,"hvtu":26.0,"hb":35.0,"idx":1.4,"cls":2,"psfc":940.6,"terrain":false,"radius_km":200,"name":"asym deep warm","track":"T35"},"geometry":{"type":"Point","coordinates":[162.25,-71.0]}},{"type":"Feature","properties":{"kind":"center","id":27,"lat":-77.0,"lon":-77.75,"mslp":985.7,"hvtl":-81.7,"hvtu":-111.2,"hb":8.7,"idx":-2.2,"cls":5,"psfc":914.4,"terrain":false,"radius_km":200,"name":"sym cold","track":"T67"},"geometry":{"type":"Point","coordinates":[-77.75,-77.0]}},{"type":"Feature","properties":{"kind":"center","id":28,"lat":66.25,"lon":-58.0,"mslp":986.3,"hvtl":-13.7,"hvtu":-12.3,"hb":24.9,"idx":-0.4,"cls":4,"psfc":986.3,"terrain":false,"radius_km":200,"name":"asym cold","track":"T69"},"geometry":{"type":"Point","coordinates":[-58.0,66.25]}},{"type":"Feature","properties":{"kind":"center","id":29,"lat":-47.75,"lon":-81.25,"mslp":990.2,"hvtl":11.3,"hvtu":-137.7,"hb":6.5,"idx":-0.7,"cls":1,"psfc":990.2,"terrain":false,"radius_km":200,"name":"sym shallow warm"},"geometry":{"type":"Point","coordinates":[-81.25,-47.75]}},{"type":"Feature","properties":{"kind":"center","id":30,"lat":70.0,"lon":-54.5,"mslp":990.2,"hvtl":-200.4,"hvtu":-69.5,"hb":58.1,"idx":-2.5,"cls":4,"psfc":922.2,"terrain":false,"radius_km":200,"name":"asym cold","track":"T80"},"geometry":{"type":"Point","coordinates":[-54.5,70.0]}},{"type":"Feature","properties":{"kind":"center","id":31,"lat":-44.75,"lon":-109.0,"mslp":992.1,"hvtl":-155.9,"hvtu":-152.7,"hb":45.7,"idx":-2.7,"cls":4,"psfc":992.1,"terrain":false,"radius_km":200,"name":"asym cold","track":"T73"},"geometry":{"type":"Point","coordinates":[-109.0,-44.75]}},{"type":"Feature","properties":{"kind":"center","id":32,"lat":73.75,"lon":-63.75,"mslp":992.5,"hvtl":-126.3,"hvtu":-74.4,"hb":31.6,"idx":-2.3,"cls":4,"psfc":992.6,"terrain":false,"radius_km":200,"name":"asym cold","track":"T83"},"geometry":{"type":"Point","coordinates":[-63.75,73.75]}},{"type":"Feature","properties":{"kind":"center","id":33,"lat":55.25,"lon":-152.0,"mslp":992.9,"hvtl":23.1,"hvtu":-99.6,"hb":37.0,"idx":-0.3,"cls":3,"psfc":992.9,"terrain":false,"radius_km":200,"name":"asym shallow warm","track":"T78"},"geometry":{"type":"Point","coordinates":[-152.0,55.25]}},{"type":"Feature","properties":{"kind":"center","id":34,"lat":74.25,"lon":147.0,"mslp":993.0,"hvtl":-177.6,"hvtu":-71.2,"hb":45.5,"idx":-2.5,"cls":4,"psfc":993.0,"terrain":false,"radius_km":200,"name":"asym cold","track":"T75"},"geometry":{"type":"Point","coordinates":[147.0,74.25]}},{"type":"Feature","properties":{"kind":"center","id":35,"lat":73.25,"lon":-22.0,"mslp":993.4,"hvtl":-86.9,"hvtu":-20.4,"hb":15.4,"idx":-1.6,"cls":4,"psfc":985.1,"terrain":false,"radius_km":200,"name":"asym cold","track":"T50"},"geometry":{"type":"Point","coordinates":[-22.0,73.25]}},{"type":"Feature","properties":{"kind":"center","id":36,"lat":83.5,"lon":5.25,"mslp":994.9,"hvtl":22.3,"hvtu":-0.6,"hb":29.2,"idx":0.4,"cls":3,"psfc":994.9,"terrain":false,"radius_km":200,"name":"asym shallow warm"},"geometry":{"type":"Point","coordinates":[5.25,83.5]}},{"type":"Feature","properties":{"kind":"center","id":37,"lat":66.25,"lon":142.75,"mslp":995.0,"hvtl":-49.0,"hvtu":-130.8,"hb":69.2,"idx":-1.8,"cls":4,"psfc":940.3,"terrain":false,"radius_km":200,"name":"asym cold"},"geometry":{"type":"Point","coordinates":[142.75,66.25]}},{"type":"Feature","properties":{"kind":"center","id":38,"lat":-48.75,"lon":-66.75,"mslp":995.4,"hvtl":140.7,"hvtu":-130.1,"hb":2.0,"idx":0.9,"cls":1,"psfc":995.4,"terrain":false,"radius_km":200,"name":"sym shallow warm","track":"T86"},"geometry":{"type":"Point","coordinates":[-66.75,-48.75]}},{"type":"Feature","properties":{"kind":"center","id":39,"lat":81.25,"lon":53.25,"mslp":996.5,"hvtl":-171.9,"hvtu":-157.3,"hb":73.5,"idx":-2.8,"cls":4,"psfc":996.5,"terrain":false,"radius_km":200,"name":"asym cold"},"geometry":{"type":"Point","coordinates":[53.25,81.25]}},{"type":"Feature","properties":{"kind":"center","id":40,"lat":77.0,"lon":-66.25,"mslp":997.0,"hvtl":-109.5,"hvtu":-68.4,"hb":23.0,"idx":-2.2,"cls":4,"psfc":900.0,"terrain":true,"radius_km":200,"name":"asym cold"},"geometry":{"type":"Point","coordinates":[-66.25,77.0]}},{"type":"Feature","properties":{"kind":"center","id":41,"lat":64.5,"lon":141.75,"mslp":999.8,"hvtl":-75.1,"hvtu":-182.1,"hb":49.2,"idx":-2.2,"cls":4,"psfc":903.1,"terrain":true,"radius_km":200,"name":"asym cold"},"geometry":{"type":"Point","coordinates":[141.75,64.5]}},{"type":"Feature","properties":{"kind":"center","id":42,"lat":67.5,"lon":3.5,"mslp":1000.5,"hvtl":-151.3,"hvtu":-158.2,"hb":37.9,"idx":-2.7,"cls":4,"psfc":1000.5,"terrain":false,"radius_km":200,"name":"asym cold","track":"T63"},"geometry":{"type":"Point","coordinates":[3.5,67.5]}},{"type":"Feature","properties":{"kind":"center","id":43,"lat":66.75,"lon":138.25,"mslp":1002.5,"hvtl":-127.6,"hvtu":-93.0,"hb":42.2,"idx":-2.4,"cls":4,"psfc":914.1,"terrain":false,"radius_km":200,"name":"asym cold"},"geometry":{"type":"Point","coordinates":[138.25,66.75]}},{"type":"Feature","properties":{"kind":"center","id":44,"lat":-24.75,"lon":-64.0,"mslp":1002.6,"hvtl":-138.3,"hvtu":-303.5,"hb":19.1,"idx":-2.8,"cls":4,"psfc":958.4,"terrain":false,"radius_km":200,"name":"asym cold"},"geometry":{"type":"Point","coordinates":[-64.0,-24.75]}},{"type":"Feature","properties":{"kind":"center","id":45,"lat":-18.75,"lon":-63.0,"mslp":1003.3,"hvtl":52.1,"hvtu":-155.5,"hb":-1.0,"idx":0.0,"cls":1,"psfc":959.0,"terrain":false,"radius_km":200,"name":"sym shallow warm","track":"T89"},"geometry":{"type":"Point","coordinates":[-63.0,-18.75]}},{"type":"Feature","properties":{"kind":"center","id":46,"lat":-33.75,"lon":-105.25,"mslp":1003.9,"hvtl":-198.4,"hvtu":-366.4,"hb":35.8,"idx":-2.9,"cls":4,"psfc":1003.9,"terrain":false,"radius_km":200,"name":"asym cold"},"geometry":{"type":"Point","coordinates":[-105.25,-33.75]}},{"type":"Feature","properties":{"kind":"center","id":47,"lat":56.75,"lon":64.5,"mslp":1006.0,"hvtl":-73.1,"hvtu":-215.5,"hb":37.2,"idx":-2.2,"cls":4,"psfc":991.6,"terrain":false,"radius_km":200,"name":"asym cold","track":"T118"},"geometry":{"type":"Point","coordinates":[64.5,56.75]}},{"type":"Feature","properties":{"kind":"center","id":48,"lat":27.25,"lon":67.75,"mslp":1006.1,"hvtl":32.6,"hvtu":-70.5,"hb":-12.5,"idx":0.0,"cls":1,"psfc":1001.3,"terrain":false,"radius_km":200,"name":"sym shallow warm"},"geometry":{"type":"Point","coordinates":[67.75,27.25]}},{"type":"Feature","properties":{"kind":"center","id":49,"lat":29.75,"lon":70.5,"mslp":1006.6,"hvtl":2.5,"hvtu":-93.4,"hb":3.3,"idx":-0.7,"cls":1,"psfc":993.2,"terrain":false,"radius_km":200,"name":"sym shallow warm","track":"T103"},"geometry":{"type":"Point","coordinates":[70.5,29.75]}},{"type":"Feature","properties":{"kind":"center","id":50,"lat":36.75,"lon":56.25,"mslp":1008.8,"hvtl":-283.9,"hvtu":-148.2,"hb":123.9,"idx":-2.9,"cls":4,"psfc":904.4,"terrain":true,"radius_km":200,"name":"asym cold"},"geometry":{"type":"Point","coordinates":[56.25,36.75]}},{"type":"Feature","properties":{"kind":"center","id":51,"lat":36.25,"lon":56.5,"mslp":1009.1,"hvtl":-244.1,"hvtu":-121.0,"hb":118.9,"idx":-2.8,"cls":4,"psfc":920.7,"terrain":false,"radius_km":200,"name":"asym cold","track":"T125"},"geometry":{"type":"Point","coordinates":[56.5,36.25]}},{"type":"Feature","properties":{"kind":"center","id":52,"lat":74.75,"lon":-154.5,"mslp":1009.7,"hvtl":-91.1,"hvtu":40.7,"hb":1.5,"idx":-1.1,"cls":6,"psfc":1009.7,"terrain":false,"radius_km":200,"name":"shallow cold","track":"T123"},"geometry":{"type":"Point","coordinates":[-154.5,74.75]}},{"type":"Feature","properties":{"kind":"center","id":53,"lat":-25.75,"lon":18.0,"mslp":1010.0,"hvtl":105.8,"hvtu":-202.7,"hb":29.6,"idx":0.6,"cls":3,"psfc":902.8,"terrain":true,"radius_km":200,"name":"asym shallow warm"},"geometry":{"type":"Point","coordinates":[18.0,-25.75]}},{"type":"Feature","properties":{"kind":"center","id":54,"lat":57.0,"lon":56.25,"mslp":1010.2,"hvtl":-33.5,"hvtu":-70.9,"hb":27.2,"idx":-1.3,"cls":4,"psfc":978.7,"terrain":false,"radius_km":200,"name":"asym cold"},"geometry":{"type":"Point","coordinates":[56.25,57.0]}},{"type":"Feature","properties":{"kind":"center","id":55,"lat":37.75,"lon":57.0,"mslp":1010.6,"hvtl":-333.6,"hvtu":-179.9,"hb":112.0,"idx":-2.9,"cls":4,"psfc":912.9,"terrain":true,"radius_km":200,"name":"asym cold"},"geometry":{"type":"Point","coordinates":[57.0,37.75]}},{"type":"Feature","properties":{"kind":"center","id":56,"lat":-14.75,"lon":48.25,"mslp":1011.1,"hvtl":60.2,"hvtu":-101.5,"hb":-18.1,"idx":0.3,"cls":1,"psfc":989.6,"terrain":false,"radius_km":200,"name":"sym shallow warm"},"geometry":{"type":"Point","coordinates":[48.25,-14.75]}},{"type":"Feature","properties":{"kind":"center","id":57,"lat":43.75,"lon":-101.25,"mslp":1011.2,"hvtl":-110.3,"hvtu":-247.6,"hb":18.4,"idx":-2.6,"cls":4,"psfc":931.9,"terrain":false,"radius_km":200,"name":"asym cold","track":"T61"},"geometry":{"type":"Point","coordinates":[-101.25,43.75]}},{"type":"Feature","properties":{"kind":"center","id":58,"lat":-24.5,"lon":15.75,"mslp":1011.4,"hvtl":106.7,"hvtu":-269.9,"hb":32.0,"idx":0.6,"cls":3,"psfc":915.5,"terrain":true,"radius_km":200,"name":"asym shallow warm"},"geometry":{"type":"Point","coordinates":[15.75,-24.5]}},{"type":"Feature","properties":{"kind":"center","id":59,"lat":41.5,"lon":119.25,"mslp":1014.3,"hvtl":-158.8,"hvtu":-292.2,"hb":63.8,"idx":-2.8,"cls":4,"psfc":942.6,"terrain":false,"radius_km":200,"name":"asym cold","track":"T94"},"geometry":{"type":"Point","coordinates":[119.25,41.5]}},{"type":"Feature","properties":{"kind":"center","id":60,"lat":-25.0,"lon":44.75,"mslp":1014.9,"hvtl":76.1,"hvtu":-25.6,"hb":11.0,"idx":1.0,"cls":3,"psfc":1000.5,"terrain":false,"radius_km":200,"name":"asym shallow warm"},"geometry":{"type":"Point","coordinates":[44.75,-25.0]}},{"type":"Feature","properties":{"kind":"center","id":61,"lat":38.25,"lon":57.5,"mslp":1015.2,"hvtl":-353.2,"hvtu":-193.0,"hb":110.8,"idx":-3.0,"cls":4,"psfc":926.4,"terrain":false,"radius_km":200,"name":"asym cold","track":"T128"},"geometry":{"type":"Point","coordinates":[57.5,38.25]}},{"type":"Feature","properties":{"kind":"center","id":62,"lat":38.0,"lon":58.0,"mslp":1015.2,"hvtl":-329.9,"hvtu":-168.1,"hb":108.9,"idx":-2.9,"cls":4,"psfc":921.8,"terrain":true,"radius_km":200,"name":"asym cold"},"geometry":{"type":"Point","coordinates":[58.0,38.0]}},{"type":"Feature","properties":{"kind":"center","id":63,"lat":36.25,"lon":44.0,"mslp":1015.4,"hvtl":-221.8,"hvtu":-225.7,"hb":44.4,"idx":-2.9,"cls":4,"psfc":964.5,"terrain":false,"radius_km":200,"name":"asym cold"},"geometry":{"type":"Point","coordinates":[44.0,36.25]}},{"type":"Feature","properties":{"kind":"center","id":64,"lat":-39.0,"lon":149.0,"mslp":1015.9,"hvtl":-23.9,"hvtu":-79.7,"hb":34.6,"idx":-1.1,"cls":4,"psfc":1015.9,"terrain":false,"radius_km":200,"name":"asym cold"},"geometry":{"type":"Point","coordinates":[149.0,-39.0]}},{"type":"Feature","properties":{"kind":"center","id":65,"lat":-29.5,"lon":68.5,"mslp":1015.9,"hvtl":54.7,"hvtu":-142.9,"hb":36.4,"idx":0.1,"cls":3,"psfc":1015.9,"terrain":false,"radius_km":200,"name":"asym shallow warm","track":"T134"},"geometry":{"type":"Point","coordinates":[68.5,-29.5]}},{"type":"Feature","properties":{"kind":"center","id":66,"lat":36.25,"lon":53.0,"mslp":1016.8,"hvtl":-262.0,"hvtu":-167.2,"hb":164.9,"idx":-2.9,"cls":4,"psfc":937.8,"terrain":false,"radius_km":200,"name":"asym cold"},"geometry":{"type":"Point","coordinates":[53.0,36.25]}},{"type":"Feature","properties":{"kind":"center","id":67,"lat":38.0,"lon":49.25,"mslp":1018.5,"hvtl":-324.5,"hvtu":-253.6,"hb":111.2,"idx":-3.0,"cls":4,"psfc":1021.7,"terrain":false,"radius_km":200,"name":"asym cold"},"geometry":{"type":"Point","coordinates":[49.25,38.0]}},{"type":"Feature","properties":{"kind":"center","id":68,"lat":44.5,"lon":116.5,"mslp":1019.0,"hvtl":-65.9,"hvtu":-235.7,"hb":6.7,"idx":-2.1,"cls":5,"psfc":903.3,"terrain":true,"radius_km":200,"name":"sym cold"},"geometry":{"type":"Point","coordinates":[116.5,44.5]}}]}