{"type":"FeatureCollection","features":[{"type":"Feature","properties":{"kind":"blob","cls":3,"id":1},"geometry":{"type":"Polygon","coordinates":[[[124.75,-66.62],[125.38,-65.5],[123.75,-64.12],[121.5,-63.62],[119.0,-63.62],[116.25,-64.38],[117.0,-64.88],[118.75,-64.88],[120.38,-65.5],[119.5,-65.88],[115.38,-66.0],[116.0,-66.62],[124.75,-66.62]]]}},{"type":"Feature","properties":{"kind":"blob","cls":1,"id":2},"geometry":{"type":"Polygon","coordinates":[[[-159.75,-70.62],[-155.5,-70.12],[-152.75,-69.38],[-151.75,-68.88],[-151.12,-68.0],[-151.75,-67.12],[-153.5,-66.38],[-159.25,-66.12],[-165.25,-66.88],[-167.25,-67.38],[-168.62,-68.25],[-168.62,-69.25],[-168.25,-69.62],[-166.25,-70.38],[-159.75,-70.62]],[[-164.88,-68.5],[-164.75,-68.12],[-162.5,-67.12],[-160.5,-66.88],[-160.12,-67.25],[-160.25,-67.62],[-162.0,-68.38],[-164.88,-68.5]]]}},{"type":"Feature","properties":{"kind":"blob","cls":0,"id":3},"geometry":{"type":"Polygon","coordinates":[[[2.75,-62.88],[4.62,-61.5],[4.62,-60.5],[2.5,-59.12],[-1.0,-58.88],[-2.25,-59.12],[-4.38,-60.5],[-4.38,-61.5],[-3.75,-62.12],[-2.25,-62.88],[2.75,-62.88]],[[1.5,-62.12],[-0.12,-61.0],[0.25,-60.12],[1.25,-60.38],[2.12,-61.25],[2.12,-62.0],[1.5,-62.12]]]}},{"type":"Feature","properties":{"kind":"blob","cls":5,"id":4},"geometry":{"type":"Polygon","coordinates":[[[99.88,-66.0],[100.0,-66.38],[104.25,-66.12],[109.62,-65.0],[106.0,-64.38],[103.25,-64.38],[101.25,-64.88],[99.88,-66.0]]]}},{"type":"Feature","properties":{"kind":"blob","cls":4,"id":5},"geometry":{"type":"Polygon","coordinates":[[[18.5,-57.12],[20.25,-56.62],[21.12,-55.75],[21.12,-54.75],[20.0,-53.62],[17.5,-52.62],[16.0,-52.62],[14.0,-53.38],[13.38,-54.25],[13.62,-55.5],[15.0,-56.62],[18.5,-57.12]]]}},{"type":"Feature","properties":{"kind":"blob","cls":3,"id":6},"geometry":{"type":"Polygon","coordinates":[[[109.25,-66.38],[111.0,-66.62],[111.12,-66.25],[110.0,-66.12],[109.25,-66.38]]]}},{"type":"Feature","properties":{"kind":"blob","cls":4,"id":7},"geometry":{"type":"Polygon","coordinates":[[[89.75,-60.62],[92.25,-60.12],[94.38,-58.5],[94.38,-57.5],[93.75,-56.88],[91.75,-56.12],[88.25,-56.12],[85.25,-57.38],[84.62,-58.0],[84.62,-59.0],[85.25,-59.62],[89.75,-60.62]]]}},{"type":"Feature","properties":{"kind":"blob","cls":1,"id":8},"geometry":{"type":"Polygon","coordinates":[[[18.0,-67.38],[18.62,-66.5],[18.0,-65.62],[15.0,-64.62],[12.5,-64.62],[9.88,-65.5],[12.5,-66.38],[18.0,-67.38]]]}},{"type":"Feature","properties":{"kind":"blob","cls":4,"id":9},"geometry":{"type":"Polygon","coordinates":[[[69.0,-68.62],[77.25,-68.88],[81.88,-67.75],[77.25,-66.62],[72.25,-66.62],[68.75,-67.38],[67.62,-68.0],[69.25,-68.12],[69.38,-68.5],[69.0,-68.62]]]}},{"type":"Feature","properties":{"kind":"blob","cls":4,"id":10},"geometry":{"type":"Polygon","coordinates":[[[51.0,-67.38],[51.38,-67.0],[51.12,-66.5],[52.0,-66.12],[55.75,-66.38],[56.62,-65.25],[55.75,-64.12],[53.0,-63.38],[48.75,-63.62],[46.88,-64.75],[46.62,-65.75],[47.5,-66.62],[51.0,-67.38]]]}},{"type":"Feature","properties":{"kind":"blob","cls":3,"id":11},"geometry":{"type":"Polygon","coordinates":[[[151.5,54.12],[153.25,54.62],[154.38,55.75],[154.38,57.0],[153.0,58.12],[151.0,58.38],[148.5,57.62],[147.62,56.75],[147.62,55.5],[149.0,54.38],[151.5,54.12]]]}},{"type":"Feature","properties":{"kind":"blob","cls":1,"id":12},"geometry":{"type":"MultiPolygon","coordinates":[[[[9.5,-67.12],[9.38,-67.25],[9.5,-67.38],[9.5,-67.12]]],[[[9.25,-66.88],[9.12,-67.0],[9.25,-67.12],[9.25,-66.88]]]]}},{"type":"Feature","properties":{"kind":"blob","cls":5,"id":13},"geometry":{"type":"Polygon","coordinates":[[[-107.25,-70.62],[-104.75,-70.12],[-103.38,-69.25],[-103.38,-68.25],[-104.25,-67.38],[-106.25,-66.62],[-110.0,-66.38],[-113.0,-67.12],[-114.12,-68.25],[-113.5,-69.38],[-112.0,-69.62],[-111.5,-70.38],[-107.25,-70.62]]]}},{"type":"Feature","properties":{"kind":"blob","cls":1,"id":14},"geometry":{"type":"Polygon","coordinates":[[[9.88,-67.5],[10.0,-67.62],[10.12,-67.5],[9.88,-67.5]]]}},{"type":"Feature","properties":{"kind":"blob","cls":1,"id":15},"geometry":{"type":"Polygon","coordinates":[[[10.38,-67.75],[10.5,-67.88],[10.62,-67.75],[10.38,-67.75]]]}},{"type":"Feature","properties":{"kind":"blob","cls":1,"id":16},"geometry":{"type":"Polygon","coordinates":[[[11.12,-68.0],[11.25,-68.12],[11.38,-68.0],[11.12,-68.0]]]}},{"type":"Feature","properties":{"kind":"blob","cls":4,"id":17},"geometry":{"type":"Polygon","coordinates":[[[-116.5,-56.38],[-114.5,-55.62],[-113.88,-55.0],[-113.62,-54.0],[-114.5,-52.88],[-116.12,-52.25],[-115.38,-50.75],[-116.25,-49.62],[-117.75,-49.12],[-120.0,-49.38],[-121.38,-50.75],[-121.12,-51.75],[-120.5,-52.38],[-119.12,-52.75],[-120.12,-53.5],[-120.38,-54.5],[-119.5,-55.62],[-116.5,-56.38]]]}},{"type":"Feature","properties":{"kind":"blob","cls":4,"id":18},"geometry":{"type":"Polygon","coordinates":[[[168.5,47.38],[171.0,47.38],[172.5,48.38],[173.12,49.5],[172.88,50.5],[170.75,51.62],[169.25,51.62],[167.5,50.88],[166.38,49.25],[167.0,47.88],[168.5,47.38]]]}},{"type":"Feature","properties":{"kind":"blob","cls":4,"id":19},"geometry":{"type":"Polygon","coordinates":[[[35.75,-69.62],[45.75,-67.88],[45.88,-67.0],[43.5,-65.62],[38.25,-65.38],[32.5,-66.12],[29.62,-67.5],[29.38,-68.5],[30.0,-69.12],[35.75,-69.62]]]}},{"type":"Feature","properties":{"kind":"blob","cls":5,"id":20},"geometry":{"type":"Polygon","coordinates":[[[31.38,-70.0],[31.5,-70.12],[31.62,-70.0],[31.38,-70.0]]]}},{"type":"Feature","properties":{"kind":"blob","cls":4,"id":21},"geometry":{"type":"Polygon","coordinates":[[[-107.25,-59.38],[-105.88,-58.5],[-105.62,-57.5],[-106.75,-56.12],[-108.75,-55.38],[-110.75,-55.38],[-112.75,-56.12],[-113.38,-57.0],[-113.12,-58.0],[-111.0,-59.38],[-107.25,-59.38]]]}},{"type":"Feature","properties":{"kind":"blob","cls":3,"id":22},"geometry":{"type":"MultiPolygon","coordinates":[[[[165.25,53.38],[167.0,53.88],[168.12,55.0],[168.12,56.25],[167.25,57.12],[165.0,57.88],[161.5,57.38],[160.38,56.5],[161.38,55.75],[161.38,55.0],[160.25,54.88],[160.12,55.25],[160.62,55.5],[160.0,56.12],[159.88,54.75],[160.75,53.88],[165.25,53.38]]],[[[160.25,56.38],[160.12,56.25],[160.25,56.12],[160.25,56.38]]]]}},{"type":"Feature","properties":{"kind":"blob","cls":3,"id":23},"geometry":{"type":"Polygon","coordinates":[[[41.5,73.12],[43.88,73.5],[35.0,75.12],[32.25,76.12],[31.88,76.75],[35.25,76.88],[38.5,76.38],[42.75,75.12],[43.75,74.62],[44.5,73.62],[47.0,74.62],[49.75,75.12],[51.12,76.25],[49.75,77.38],[47.5,77.88],[36.25,78.12],[30.75,77.12],[29.75,76.62],[29.12,75.75],[30.25,74.62],[32.25,73.88],[41.5,73.12]]]}},{"type":"Feature","properties":{"kind":"blob","cls":4,"id":24},"geometry":{"type":"Polygon","coordinates":[[[159.25,-69.62],[160.0,-69.12],[162.0,-68.88],[163.38,-68.0],[163.38,-67.0],[162.0,-66.12],[159.0,-65.38],[153.5,-65.38],[151.25,-65.88],[149.62,-67.0],[149.62,-68.0],[150.0,-68.38],[155.5,-69.38],[159.25,-69.62]]]}},{"type":"Feature","properties":{"kind":"blob","cls":4,"id":25},"geometry":{"type":"Polygon","coordinates":[[[-47.0,-81.38],[-39.5,-80.62],[-30.88,-78.75],[-35.38,-78.5],[-33.0,-77.38],[-31.5,-77.38],[-28.25,-76.38],[-23.38,-76.0],[-28.25,-75.88],[-34.75,-76.38],[-39.5,-77.12],[-40.75,-77.88],[-55.75,-77.88],[-60.0,-78.62],[-61.88,-79.75],[-60.0,-80.88],[-47.0,-81.38]],[[-48.38,-80.0],[-47.0,-78.88],[-43.88,-79.5],[-45.25,-80.12],[-48.38,-80.0]],[[-46.88,-78.25],[-45.88,-78.25],[-46.0,-78.38],[-46.88,-78.25]]]}},{"type":"Feature","properties":{"kind":"blob","cls":4,"id":26},"geometry":{"type":"Polygon","coordinates":[[[115.0,-51.12],[116.75,-50.38],[117.38,-49.5],[117.12,-48.0],[115.0,-46.88],[113.75,-46.88],[112.0,-47.62],[111.38,-48.5],[111.62,-50.0],[113.0,-50.88],[115.0,-51.12]]]}},{"type":"Feature","properties":{"kind":"blob","cls":3,"id":27},"geometry":{"type":"Polygon","coordinates":[[[162.5,-79.62],[163.75,-79.88],[168.0,-79.38],[170.25,-78.62],[170.62,-77.75],[168.0,-76.62],[163.5,-76.12],[162.38,-77.0],[164.62,-78.5],[161.75,-78.62],[162.5,-79.62]],[[166.62,-77.5],[169.12,-77.5],[169.0,-77.62],[166.62,-77.5]]]}},{"type":"Feature","properties":{"kind":"blob","cls":5,"id":28},"geometry":{"type":"Polygon","coordinates":[[[-52.25,-66.88],[-49.0,-66.12],[-47.88,-65.25],[-47.88,-64.25],[-50.0,-62.88],[-54.25,-62.62],[-57.0,-63.38],[-57.88,-64.0],[-57.75,-64.38],[-58.12,-64.25],[-58.12,-65.25],[-57.0,-66.12],[-52.25,-66.88]]]}},{"type":"Feature","properties":{"kind":"blob","cls":0,"id":29},"geometry":{"type":"Polygon","coordinates":[[[-122.0,20.12],[-121.25,20.12],[-119.62,21.25],[-119.62,22.75],[-121.5,24.12],[-122.75,23.88],[-123.62,23.0],[-123.62,21.5],[-122.75,21.62],[-122.0,20.12]]]}},{"type":"Feature","properties":{"kind":"blob","cls":4,"id":30},"geometry":{"type":"Polygon","coordinates":[[[162.62,-71.5],[162.5,-70.62],[163.25,-70.62],[163.75,-71.12],[164.5,-71.12],[164.62,-70.75],[162.5,-69.88],[159.62,-69.75],[160.25,-70.38],[162.62,-71.5]]]}},{"type":"Feature","properties":{"kind":"blob","cls":4,"id":31},"geometry":{"type":"Polygon","coordinates":[[[-74.75,-68.88],[-69.0,-68.88],[-67.75,-68.38],[-66.62,-67.25],[-66.62,-66.75],[-67.5,-65.88],[-68.75,-65.38],[-74.5,-65.12],[-76.75,-65.62],[-78.12,-66.75],[-78.12,-67.5],[-77.25,-68.38],[-74.75,-68.88]]]}},{"type":"Feature","properties":{"kind":"blob","cls":4,"id":32},"geometry":{"type":"Polygon","coordinates":[[[-79.0,-79.12],[-77.75,-78.88],[-76.88,-78.25],[-76.88,-77.75],[-77.75,-77.12],[-78.75,-77.38],[-79.0,-79.12]]]}},{"type":"Feature","properties":{"kind":"blob","cls":1,"id":33},"geometry":{"type":"Polygon","coordinates":[[[-50.0,52.88],[-48.0,53.62],[-47.38,54.5],[-47.38,55.5],[-48.0,56.12],[-50.0,56.88],[-51.75,56.88],[-53.75,56.12],[-54.38,55.5],[-54.12,54.0],[-52.75,53.12],[-50.0,52.88]]]}},{"type":"Feature","properties":{"kind":"blob","cls":4,"id":34},"geometry":{"type":"Polygon","coordinates":[[[-39.5,57.62],[-37.75,58.12],[-36.5,59.12],[-32.75,59.12],[-30.25,60.12],[-29.62,60.75],[-29.62,61.75],[-31.25,62.88],[-32.5,63.12],[-36.75,63.12],[-39.25,62.12],[-41.25,61.88],[-43.25,61.12],[-44.62,59.75],[-44.62,59.25],[-43.5,58.12],[-39.5,57.62]]]}},{"type":"Feature","properties":{"kind":"blob","cls":3,"id":35},"geometry":{"type":"Polygon","coordinates":[[[-80.0,53.12],[-76.25,53.12],[-74.38,54.5],[-74.38,55.75],[-77.0,57.88],[-80.75,58.38],[-82.75,57.88],[-83.12,57.5],[-82.62,57.0],[-83.0,56.62],[-84.12,56.5],[-84.12,55.0],[-83.25,54.12],[-80.0,53.12]]]}},{"type":"Feature","properties":{"kind":"blob","cls":1,"id":36},"geometry":{"type":"Polygon","coordinates":[[[-60.75,-25.12],[-59.88,-24.25],[-60.12,-21.0],[-60.88,-20.25],[-60.88,-18.75],[-62.0,-17.12],[-63.38,-16.75],[-63.12,-15.0],[-64.0,-13.88],[-66.5,-13.88],[-67.62,-15.0],[-67.62,-15.5],[-67.0,-15.62],[-65.5,-17.12],[-64.0,-17.62],[-63.38,-18.25],[-63.88,-19.0],[-63.12,-19.5],[-63.38,-20.75],[-64.12,-21.0],[-63.62,-21.75],[-64.38,-22.75],[-64.62,-24.0],[-63.5,-24.88],[-60.75,-25.12]]]}},{"type":"Feature","properties":{"kind":"blob","cls":0,"id":37},"geometry":{"type":"Polygon","coordinates":[[[-93.0,58.38],[-91.12,59.0],[-94.25,60.38],[-96.25,62.12],[-97.25,61.88],[-98.12,61.0],[-98.12,60.0],[-96.75,58.88],[-93.0,58.38]]]}},{"type":"Feature","properties":{"kind":"blob","cls":4,"id":38},"geometry":{"type":"Polygon","coordinates":[[[140.25,69.88],[143.0,70.38],[144.62,71.25],[144.62,72.25],[143.75,73.38],[142.75,73.88],[139.75,74.38],[134.25,74.12],[132.25,73.38],[131.38,72.5],[131.38,71.75],[133.0,70.62],[140.25,69.88]]]}},{"type":"Feature","properties":{"kind":"blob","cls":2,"id":39},"geometry":{"type":"Polygon","coordinates":[[[159.25,26.88],[160.62,28.5],[160.38,29.75],[159.5,30.62],[157.0,30.62],[155.62,29.0],[155.88,28.0],[156.75,27.12],[159.25,26.88]]]}},{"type":"Feature","properties":{"kind":"blob","cls":4,"id":40},"geometry":{"type":"Polygon","coordinates":[[[179.75,74.12],[179.75,78.88],[170.75,78.62],[167.75,77.88],[167.12,77.25],[167.75,76.12],[171.25,74.88],[176.25,74.12],[179.75,74.12]]]}},{"type":"Feature","properties":{"kind":"blob","cls":4,"id":40},"geometry":{"type":"Polygon","coordinates":[[[-179.75,78.62],[-180.0,74.12],[-175.0,74.62],[-173.25,75.38],[-172.62,76.25],[-173.5,77.38],[-174.5,77.88],[-177.75,78.62],[-179.75,78.62]]]}},{"type":"Feature","properties":{"kind":"blob","cls":1,"id":41},"geometry":{"type":"Polygon","coordinates":[[[-51.5,62.38],[-52.12,63.75],[-52.12,64.75],[-51.5,65.38],[-50.25,65.12],[-49.88,65.5],[-50.25,65.88],[-52.25,65.62],[-53.0,66.38],[-54.75,66.38],[-57.75,65.38],[-58.38,64.5],[-58.38,63.75],[-56.5,62.38],[-51.5,62.38]]]}},{"type":"Feature","properties":{"kind":"blob","cls":6,"id":42},"geometry":{"type":"Polygon","coordinates":[[[168.75,15.62],[170.62,17.75],[170.38,19.25],[169.0,20.12],[167.5,19.88],[165.38,17.25],[165.38,16.25],[165.75,15.88],[168.75,15.62]]]}},{"type":"Feature","properties":{"kind":"blob","cls":1,"id":43},"geometry":{"type":"Polygon","coordinates":[[[-90.0,60.62],[-89.88,61.0],[-90.75,61.88],[-91.75,62.38],[-93.62,62.5],[-90.75,60.88],[-90.0,60.62]]]}},{"type":"Feature","properties":{"kind":"blob","cls":0,"id":44},"geometry":{"type":"Polygon","coordinates":[[[148.25,13.12],[149.75,13.12],[150.62,14.25],[150.38,15.75],[149.0,16.62],[147.75,16.38],[146.88,15.25],[147.12,13.75],[148.25,13.12]]]}},{"type":"Feature","properties":{"kind":"blob","cls":1,"id":45},"geometry":{"type":"Polygon","coordinates":[[[89.75,58.38],[91.5,58.88],[92.62,60.0],[92.62,61.25],[91.0,62.38],[89.75,62.62],[87.5,62.62],[87.0,61.88],[85.25,61.88],[84.38,61.0],[84.38,60.0],[85.75,58.88],[89.75,58.38]]]}},{"type":"Feature","properties":{"kind":"blob","cls":3,"id":46},"geometry":{"type":"Polygon","coordinates":[[[-51.75,67.38],[-50.5,67.62],[-50.38,68.25],[-52.0,71.12],[-57.5,71.12],[-59.0,70.62],[-59.88,69.75],[-59.88,69.25],[-59.0,68.38],[-56.75,67.62],[-51.75,67.38]],[[-53.25,69.62],[-53.88,70.0],[-52.62,69.75],[-53.25,69.62]],[[-53.12,70.5],[-52.12,70.5],[-52.25,70.38],[-53.12,70.5]]]}},{"type":"Feature","properties":{"kind":"blob","cls":4,"id":47},"geometry":{"type":"Polygon","coordinates":[[[-52.75,-34.88],[-51.12,-34.0],[-50.88,-32.5],[-51.5,-31.62],[-53.25,-31.12],[-54.88,-32.0],[-54.88,-34.0],[-52.75,-34.88]]]}},{"type":"Feature","properties":{"kind":"blob","cls":3,"id":48},"geometry":{"type":"Polygon","coordinates":[[[-80.0,27.62],[-78.75,28.38],[-76.75,28.88],[-75.62,30.0],[-75.62,31.0],[-77.5,32.38],[-81.25,31.12],[-82.12,30.25],[-82.38,29.25],[-81.25,27.88],[-80.0,27.62]]]}},{"type":"Feature","properties":{"kind":"blob","cls":0,"id":49},"geometry":{"type":"Polygon","coordinates":[[[109.75,15.62],[111.25,15.62],[112.12,16.75],[111.88,18.25],[110.5,19.12],[109.25,18.88],[108.38,17.75],[108.62,16.25],[109.75,15.62]]]}},{"type":"Feature","properties":{"kind":"blob","cls":1,"id":50},"geometry":{"type":"Polygon","coordinates":[[[-121.5,37.62],[-120.38,38.25],[-121.88,40.25],[-122.0,41.12],[-122.88,40.75],[-122.62,39.5],[-123.12,39.5],[-123.62,40.5],[-123.5,41.88],[-124.88,40.75],[-124.88,39.75],[-123.5,37.88],[-121.5,37.62]]]}},{"type":"Feature","properties":{"kind":"blob","cls":3,"id":51},"geometry":{"type":"Polygon","coordinates":[[[-122.62,41.75],[-122.5,41.62],[-122.38,41.75],[-122.62,41.75]]]}},{"type":"Feature","properties":{"kind":"blob","cls":5,"id":52},"geometry":{"type":"Polygon","coordinates":[[[-103.0,76.62],[-99.75,77.38],[-97.38,79.25],[-109.25,79.38],[-109.88,79.75],[-108.5,80.38],[-101.88,81.0],[-111.5,81.38],[-119.0,80.38],[-121.12,79.25],[-120.75,78.12],[-118.5,77.12],[-116.0,76.62],[-103.0,76.62]]]}},{"type":"Feature","properties":{"kind":"blob","cls":4,"id":53},"geometry":{"type":"Polygon","coordinates":[[[70.25,28.88],[72.25,28.88],[74.5,29.88],[75.12,30.75],[75.12,32.25],[72.25,32.38],[70.25,31.88],[70.12,30.0],[69.12,29.5],[70.25,28.88]]]}},{"type":"Feature","properties":{"kind":"blob","cls":6,"id":54},"geometry":{"type":"Polygon","coordinates":[[[167.5,-41.12],[169.38,-39.75],[169.62,-38.0],[168.5,-36.62],[166.0,-36.12],[163.75,-36.88],[162.88,-37.75],[162.88,-39.25],[164.0,-40.38],[167.5,-41.12]],[[167.0,-37.88],[166.38,-37.25],[167.25,-36.88],[167.38,-37.5],[167.0,-37.88]]]}},{"type":"Feature","properties":{"kind":"blob","cls":3,"id":55},"geometry":{"type":"Polygon","coordinates":[[[-122.88,42.25],[-122.75,42.12],[-122.62,42.25],[-122.88,42.25]]]}},{"type":"Feature","properties":{"kind":"blob","cls":3,"id":56},"geometry":{"type":"Polygon","coordinates":[[[-78.0,-39.62],[-77.38,-39.75],[-78.12,-39.0],[-78.12,-38.25],[-77.75,-37.88],[-76.75,-37.88],[-75.88,-38.75],[-75.5,-39.88],[-74.75,-39.62],[-73.62,-38.25],[-73.88,-37.25],[-76.0,-35.62],[-78.0,-36.12],[-78.88,-37.0],[-79.12,-38.25],[-78.0,-39.62]]]}},{"type":"Feature","properties":{"kind":"blob","cls":3,"id":57},"geometry":{"type":"Polygon","coordinates":[[[-68.75,-33.12],[-68.0,-32.88],[-67.38,-32.0],[-67.5,-31.38],[-68.12,-31.5],[-67.62,-31.0],[-68.25,-29.88],[-68.62,-30.5],[-68.75,-33.12]]]}},{"type":"Feature","properties":{"kind":"blob","cls":3,"id":58},"geometry":{"type":"Polygon","coordinates":[[[58.5,29.12],[59.88,29.75],[59.88,31.0],[59.5,31.38],[58.5,31.38],[57.62,30.5],[58.5,29.12]]]}},{"type":"Feature","properties":{"kind":"blob","cls":4,"id":59},"geometry":{"type":"Polygon","coordinates":[[[46.75,30.88],[48.0,31.38],[48.62,32.75],[47.75,33.38],[47.25,32.88],[46.75,33.12],[45.5,34.38],[44.62,33.75],[44.38,32.25],[45.0,31.38],[46.75,30.88]]]}},{"type":"Feature","properties":{"kind":"blob","cls":3,"id":60},"geometry":{"type":"Polygon","coordinates":[[[63.0,29.38],[63.62,30.0],[62.12,30.5],[61.62,31.75],[62.38,32.75],[61.75,32.88],[61.25,33.62],[60.38,33.0],[60.38,31.0],[61.0,29.88],[63.0,29.38]]]}},{"type":"Feature","properties":{"kind":"blob","cls":4,"id":61},"geometry":{"type":"Polygon","coordinates":[[[-71.25,-32.62],[-70.62,-32.75],[-71.12,-32.0],[-71.0,-29.62],[-71.62,-30.5],[-71.62,-32.0],[-71.25,-32.62]]]}},{"type":"Feature","properties":{"kind":"blob","cls":1,"id":62},"geometry":{"type":"Polygon","coordinates":[[[-2.5,43.12],[-1.62,44.0],[-0.12,46.5],[-0.5,46.88],[-3.0,47.38],[-4.25,46.88],[-5.12,46.0],[-5.12,44.25],[-4.5,43.62],[-2.5,43.12]]]}},{"type":"Feature","properties":{"kind":"blob","cls":5,"id":63},"geometry":{"type":"Polygon","coordinates":[[[68.62,30.0],[68.75,29.88],[68.88,30.0],[68.62,30.0]]]}},{"type":"Feature","properties":{"kind":"blob","cls":5,"id":64},"geometry":{"type":"Polygon","coordinates":[[[93.75,25.38],[94.62,26.25],[93.0,26.88],[92.88,26.25],[93.75,25.38]]]}},{"type":"Feature","properties":{"kind":"blob","cls":5,"id":65},"geometry":{"type":"MultiPolygon","coordinates":[[[[95.0,25.38],[94.88,25.25],[95.0,25.12],[95.0,25.38]]],[[[95.25,25.38],[95.88,25.5],[95.5,25.88],[95.25,25.38]]]]}},{"type":"Feature","properties":{"kind":"blob","cls":1,"id":66},"geometry":{"type":"Polygon","coordinates":[[[-77.12,-40.0],[-77.0,-40.12],[-76.88,-40.0],[-77.12,-40.0]]]}},{"type":"Feature","properties":{"kind":"blob","cls":4,"id":67},"geometry":{"type":"Polygon","coordinates":[[[-24.88,73.75],[-24.5,73.38],[-23.88,74.25],[-24.5,74.38],[-24.88,73.75]]]}},{"type":"Feature","properties":{"kind":"blob","cls":3,"id":68},"geometry":{"type":"Polygon","coordinates":[[[44.0,-39.12],[45.62,-38.0],[45.88,-37.25],[44.75,-35.62],[43.0,-34.62],[42.0,-34.62],[40.38,-35.75],[40.38,-37.25],[41.75,-38.62],[44.0,-39.12]]]}},{"type":"Feature","properties":{"kind":"blob","cls":3,"id":69},"geometry":{"type":"Polygon","coordinates":[[[64.75,36.12],[65.5,36.12],[68.38,38.25],[68.0,38.62],[66.38,37.75],[66.62,38.75],[67.12,39.0],[66.88,39.25],[68.5,40.12],[66.75,39.88],[64.12,38.25],[63.88,37.5],[64.75,36.12]]]}},{"type":"Feature","properties":{"kind":"blob","cls":3,"id":70},"geometry":{"type":"Polygon","coordinates":[[[64.5,-32.62],[65.62,-31.5],[65.62,-30.5],[65.0,-29.62],[63.25,-29.12],[62.0,-29.62],[61.38,-30.5],[61.38,-31.5],[61.88,-32.25],[64.5,-32.62]]]}},{"type":"Feature","properties":{"kind":"center","id":1,"lat":-65.75,"lon":120.25,"mslp":954.1,"hvtl":64.5,"hvtu":-60.2,"hb":21.6,"idx":0.6,"cls":3,"psfc":954.1,"terrain":false,"radius_km":200,"name":"asym shallow warm","track":"T01"},"geometry":{"type":"Point","coordinates":[120.25,-65.75]}},{"type":"Feature","properties":{"kind":"center","id":2,"lat":-68.25,"lon":-158.5,"mslp":955.8,"hvtl":110.2,"hvtu":-74.1,"hb":-14.0,"idx":1.0,"cls":1,"psfc":955.8,"terrain":false,"radius_km":200,"name":"sym shallow warm","track":"T13"},"geometry":{"type":"Point","coordinates":[-158.5,-68.25]}},{"type":"Feature","properties":{"kind":"center","id":3,"lat":-61.0,"lon":-0.25,"mslp":959.1,"hvtl":24.2,"hvtu":3.3,"hb":-27.5,"idx":0.5,"cls":0,"psfc":959.1,"terrain":false,"radius_km":200,"name":"sym deep warm","track":"T24"},"geometry":{"type":"Point","coordinates":[-0.25,-61.0]}},{"type":"Feature","properties":{"kind":"center","id":4,"lat":-66.0,"lon":103.25,"mslp":962.1,"hvtl":-99.9,"hvtu":-121.2,"hb":-2.8,"idx":-2.4,"cls":5,"psfc":918.4,"terrain":false,"radius_km":200,"name":"sym cold"},"geometry":{"type":"Point","coordinates":[103.25,-66.0]}},{"type":"Feature","properties":{"kind":"center","id":5,"lat":-55.0,"lon":17.25,"mslp":962.3,"hvtl":-163.8,"hvtu":-294.7,"hb":96.3,"idx":-2.8,"cls":4,"psfc":962.3,"terrain":false,"radius_km":200,"name":"asym cold","track":"T20"},"geometry":{"type":"Point","coordinates":[17.25,-55.0]}},{"type":"Feature","properties":{"kind":"center","id":6,"lat":-66.5,"lon":109.25,"mslp":962.4,"hvtl":31.3,"hvtu":-29.8,"hb":40.8,"idx":0.3,"cls":3,"psfc":962.4,"terrain":false,"radius_km":200,"name":"asym shallow warm","track":"T30"},"geometry":{"type":"Point","coordinates":[109.25,-66.5]}},{"type":"Feature","properties":{"kind":"center","id":7,"lat":-58.25,"lon":90.0,"mslp":963.4,"hvtl":-266.3,"hvtu":-409.4,"hb":72.4,"idx":-3.0,"cls":4,"psfc":963.3,"terrain":false,"radius_km":200,"name":"asym cold","track":"T23"},"geometry":{"type":"Point","coordinates":[90.0,-58.25]}},{"type":"Feature","properties":{"kind":"center","id":8,"lat":-66.5,"lon":13.75,"mslp":968.1,"hvtl":47.2,"hvtu":-76.8,"hb":-3.5,"idx":0.2,"cls":1,"psfc":968.1,"terrain":false,"radius_km":200,"name":"sym shallow warm"},"geometry":{"type":"Point","coordinates":[13.75,-66.5]}},{"type":"Feature","properties":{"kind":"center","id":9,"lat":-68.75,"lon":74.5,"mslp":968.3,"hvtl":-334.3,"hvtu":-47.9,"hb":53.8,"idx":-2.4,"cls":4,"psfc":968.3,"terrain":false,"radius_km":200,"name":"asym cold"},"geometry":{"type":"Point","coordinates":[74.5,-68.75]}},{"type":"Feature","properties":{"kind":"center","id":10,"lat":-65.5,"lon":51.5,"mslp":968.6,"hvtl":-194.6,"hvtu":-140.9,"hb":19.3,"idx":-2.8,"cls":4,"psfc":968.6,"terrain":false,"radius_km":200,"name":"asym cold","track":"T41"},"geometry":{"type":"Point","coordinates":[51.5,-65.5]}},{"type":"Feature","properties":{"kind":"center","id":11,"lat":56.25,"lon":151.0,"mslp":969.1,"hvtl":62.7,"hvtu":-21.9,"hb":10.1,"idx":0.9,"cls":3,"psfc":969.1,"terrain":false,"radius_km":200,"name":"asym shallow warm","track":"T43"},"geometry":{"type":"Point","coordinates":[151.0,56.25]}},{"type":"Feature","properties":{"kind":"center","id":12,"lat":-67.0,"lon":9.25,"mslp":970.4,"hvtl":29.8,"hvtu":-56.8,"hb":6.2,"idx":0.1,"cls":1,"psfc":970.4,"terrain":false,"radius_km":200,"name":"sym shallow warm","track":"T05"},"geometry":{"type":"Point","coordinates":[9.25,-67.0]}},{"type":"Feature","properties":{"kind":"center","id":13,"lat":-68.75,"lon":-108.75,"mslp":970.8,"hvtl":-88.7,"hvtu":-25.2,"hb":5.1,"idx":-1.7,"cls":5,"psfc":970.8,"terrain":false,"radius_km":200,"name":"sym cold","track":"T25"},"geometry":{"type":"Point","coordinates":[-108.75,-68.75]}},{"type":"Feature","properties":{"kind":"center","id":14,"lat":-67.5,"lon":10.0,"mslp":970.8,"hvtl":21.7,"hvtu":-25.6,"hb":6.2,"idx":0.2,"cls":1,"psfc":970.8,"terrain":false,"radius_km":200,"name":"sym shallow warm"},"geometry":{"type":"Point","coordinates":[10.0,-67.5]}},{"type":"Feature","properties":{"kind":"center","id":15,"lat":-67.75,"lon":10.5,"mslp":971.0,"hvtl":29.8,"hvtu":-23.0,"hb":5.8,"idx":0.4,"cls":1,"psfc":971.0,"terrain":false,"radius_km":200,"name":"sym shallow warm"},"geometry":{"type":"Point","coordinates":[10.5,-67.75]}},{"type":"Feature","properties":{"kind":"center","id":16,"lat":-68.0,"lon":11.25,"mslp":971.2,"hvtl":32.1,"hvtu":-26.2,"hb":5.2,"idx":0.4,"cls":1,"psfc":971.2,"terrain":false,"radius_km":200,"name":"sym shallow warm"},"geometry":{"type":"Point","coordinates":[11.25,-68.0]}},{"type":"Feature","properties":{"kind":"center","id":17,"lat":-54.25,"lon":-117.0,"mslp":971.8,"hvtl":-24.4,"hvtu":-138.0,"hb":10.4,"idx":-1.4,"cls":4,"psfc":971.7,"terrain":false,"radius_km":200,"name":"asym cold"},"geometry":{"type":"Point","coordinates":[-117.0,-54.25]}},{"type":"Feature","properties":{"kind":"center","id":18,"lat":49.5,"lon":169.75,"mslp":972.5,"hvtl":-278.2,"hvtu":-367.6,"hb":94.4,"idx":-3.0,"cls":4,"psfc":972.5,"terrain":false,"radius_km":200,"name":"asym cold","track":"T02"},"geometry":{"type":"Point","coordinates":[169.75,49.5]}},{"type":"Feature","properties":{"kind":"center","id":19,"lat":-67.75,"lon":37.25,"mslp":972.5,"hvtl":-66.9,"hvtu":-189.1,"hb":11.7,"idx":-2.1,"cls":4,"psfc":972.5,"terrain":false,"radius_km":200,"name":"asym cold","track":"T21"},"geometry":{"type":"Point","coordinates":[37.25,-67.75]}},{"type":"Feature","properties":{"kind":"center","id":20,"lat":-70.0,"lon":31.5,"mslp":973.4,"hvtl":-10.8,"hvtu":-114.5,"hb":-0.2,"idx":-1.0,"cls":5,"psfc":970.6,"terrain":false,"radius_km":200,"name":"sym cold"},"geometry":{"type":"Point","coordinates":[31.5,-70.0]}},{"type":"Feature","properties":{"kind":"center","id":21,"lat":-57.5,"lon":-109.5,"mslp":973.9,"hvtl":-177.3,"hvtu":-253.3,"hb":52.6,"idx":-2.9,"cls":4,"psfc":973.9,"terrain":false,"radius_km":200,"name":"asym cold","track":"T34"},"geometry":{"type":"Point","coordinates":[-109.5,-57.5]}},{"type":"Feature","properties":{"kind":"center","id":22,"lat":55.5,"lon":164.25,"mslp":975.0,"hvtl":34.2,"hvtu":-603.1,"hb":71.2,"idx":-0.3,"cls":3,"psfc":974.9,"terrain":false,"radius_km":200,"name":"asym shallow warm"},"geometry":{"type":"Point","coordinates":[164.25,55.5]}},{"type":"Feature","properties":{"kind":"center","id":23,"lat":76.0,"lon":39.75,"mslp":975.5,"hvtl":128.6,"hvtu":-80.9,"hb":15.0,"idx":1.0,"cls":3,"psfc":975.5,"terrain":false,"radius_km":200,"name":"asym shallow warm","track":"T50"},"geometry":{"type":"Point","coordinates":[39.75,76.0]}},{"type":"Feature","properties":{"kind":"center","id":24,"lat":-67.5,"lon":156.25,"mslp":975.9,"hvtl":-137.0,"hvtu":-233.6,"hb":40.3,"idx":-2.7,"cls":4,"psfc":975.9,"terrain":false,"radius_km":200,"name":"asym cold","track":"T46"},"geometry":{"type":"Point","coordinates":[156.25,-67.5]}},{"type":"Feature","properties":{"kind":"center","id":25,"lat":-79.75,"lon":-50.25,"mslp":976.1,"hvtl":-102.4,"hvtu":-61.2,"hb":49.7,"idx":-2.1,"cls":4,"psfc":945.1,"terrain":false,"radius_km":200,"name":"asym cold","track":"T51"},"geometry":{"type":"Point","coordinates":[-50.25,-79.75]}},{"type":"Feature","properties":{"kind":"center","id":26,"lat":-49.0,"lon":114.5,"mslp":979.1,"hvtl":-25.6,"hvtu":-375.8,"hb":11.7,"idx":-1.5,"cls":4,"psfc":979.1,"terrain":false,"radius_km":200,"name":"asym cold","track":"T18"},"geometry":{"type":"Point","coordinates":[114.5,-49.0]}},{"type":"Feature","properties":{"kind":"center","id":27,"lat":-77.75,"lon":163.25,"mslp":982.7,"hvtl":121.7,"hvtu":-122.7,"hb":14.1,"idx":0.8,"cls":3,"psfc":902.4,"terrain":false,"radius_km":200,"name":"asym shallow warm","track":"T64"},"geometry":{"type":"Point","coordinates":[163.25,-77.75]}},{"type":"Feature","properties":{"kind":"center","id":28,"lat":-65.0,"lon":-53.0,"mslp":982.8,"hvtl":-58.6,"hvtu":-89.1,"hb":7.4,"idx":-1.8,"cls":5,"psfc":982.8,"terrain":false,"radius_km":200,"name":"sym cold"},"geometry":{"type":"Point","coordinates":[-53.0,-65.0]}},{"type":"Feature","properties":{"kind":"center","id":29,"lat":22.0,"lon":-121.75,"mslp":982.8,"hvtl":56.1,"hvtu":140.6,"hb":6.8,"idx":1.9,"cls":0,"psfc":982.9,"terrain":false,"radius_km":200,"name":"sym deep warm","track":"T42"},"geometry":{"type":"Point","coordinates":[-121.75,22.0]}},{"type":"Feature","properties":{"kind":"center","id":30,"lat":-69.75,"lon":159.75,"mslp":983.5,"hvtl":-120.3,"hvtu":-182.9,"hb":11.1,"idx":-2.6,"cls":4,"psfc":919.5,"terrain":false,"radius_km":200,"name":"asym cold","track":"T37"},"geometry":{"type":"Point","coordinates":[159.75,-69.75]}},{"type":"Feature","properties":{"kind":"center","id":31,"lat":-67.25,"lon":-72.5,"mslp":984.0,"hvtl":-128.1,"hvtu":-164.8,"hb":14.5,"idx":-2.6,"cls":4,"psfc":984.0,"terrain":false,"radius_km":200,"name":"asym cold","track":"T68"},"geometry":{"type":"Point","coordinates":[-72.5,-67.25]}},{"type":"Feature","properties":{"kind":"center","id":32,"lat":-77.25,"lon":-77.75,"mslp":988.3,"hvtl":-220.9,"hvtu":-82.2,"hb":64.3,"idx":-2.6,"cls":4,"psfc":900.1,"terrain":false,"radius_km":200,"name":"asym cold","track":"T55"},"geometry":{"type":"Point","coordinates":[-77.75,-77.25]}},{"type":"Feature","properties":{"kind":"center","id":33,"lat":55.0,"lon":-51.0,"mslp":989.4,"hvtl":21.9,"hvtu":-212.3,"hb":7.7,"idx":-0.5,"cls":1,"psfc":989.4,"terrain":false,"radius_km":200,"name":"sym shallow warm","track":"T56"},"geometry":{"type":"Point","coordinates":[-51.0,55.0]}},{"type":"Feature","properties":{"kind":"center","id":34,"lat":59.75,"lon":-40.5,"mslp":993.8,"hvtl":-59.1,"hvtu":-356.0,"hb":52.9,"idx":-2.1,"cls":4,"psfc":993.8,"terrain":false,"radius_km":200,"name":"asym cold","track":"T62"},"geometry":{"type":"Point","coordinates":[-40.5,59.75]}},{"type":"Feature","properties":{"kind":"center","id":35,"lat":56.0,"lon":-79.5,"mslp":996.2,"hvtl":9.9,"hvtu":-99.5,"hb":25.8,"idx":-0.6,"cls":3,"psfc":994.8,"terrain":false,"radius_km":200,"name":"asym shallow warm","track":"T87"},"geometry":{"type":"Point","coordinates":[-79.5,56.0]}},{"type":"Feature","properties":{"kind":"center","id":36,"lat":-18.75,"lon":-63.25,"mslp":998.0,"hvtl":32.4,"hvtu":-133.2,"hb":-4.6,"idx":-0.2,"cls":1,"psfc":944.0,"terrain":false,"radius_km":200,"name":"sym shallow warm","track":"T91"},"geometry":{"type":"Point","coordinates":[-63.25,-18.75]}},{"type":"Feature","properties":{"kind":"center","id":37,"lat":60.25,"lon":-94.0,"mslp":999.0,"hvtl":37.6,"hvtu":6.6,"hb":2.0,"idx":0.8,"cls":0,"psfc":999.0,"terrain":false,"radius_km":200,"name":"sym deep warm","track":"T90"},"geometry":{"type":"Point","coordinates":[-94.0,60.25]}},{"type":"Feature","properties":{"kind":"center","id":38,"lat":72.5,"lon":138.25,"mslp":999.2,"hvtl":-68.8,"hvtu":-148.2,"hb":41.7,"idx":-2.1,"cls":4,"psfc":999.2,"terrain":false,"radius_km":200,"name":"asym cold"},"geometry":{"type":"Point","coordinates":[138.25,72.5]}},{"type":"Feature","properties":{"kind":"center","id":39,"lat":28.75,"lon":158.0,"mslp":999.5,"hvtl":73.8,"hvtu":10.1,"hb":12.2,"idx":1.4,"cls":2,"psfc":999.5,"terrain":false,"radius_km":200,"name":"asym deep warm","track":"T44"},"geometry":{"type":"Point","coordinates":[158.0,28.75]}},{"type":"Feature","properties":{"kind":"center","id":40,"lat":76.5,"lon":177.25,"mslp":999.8,"hvtl":-2.4,"hvtu":-189.8,"hb":11.6,"idx":-1.0,"cls":4,"psfc":999.8,"terrain":false,"radius_km":200,"name":"asym cold","track":"T96"},"geometry":{"type":"Point","coordinates":[177.25,76.5]}},{"type":"Feature","properties":{"kind":"center","id":41,"lat":64.0,"lon":-54.0,"mslp":1001.7,"hvtl":138.0,"hvtu":-124.6,"hb":-6.5,"idx":0.9,"cls":1,"psfc":1001.7,"terrain":false,"radius_km":200,"name":"sym shallow warm"},"geometry":{"type":"Point","coordinates":[-54.0,64.0]}},{"type":"Feature","properties":{"kind":"center","id":42,"lat":18.0,"lon":168.5,"mslp":1001.9,"hvtl":-24.6,"hvtu":83.7,"hb":10.6,"idx":0.2,"cls":6,"psfc":1001.9,"terrain":false,"radius_km":200,"name":"shallow cold","track":"T12"},"geometry":{"type":"Point","coordinates":[168.5,18.0]}},{"type":"Feature","properties":{"kind":"center","id":43,"lat":60.75,"lon":-90.25,"mslp":1002.6,"hvtl":110.6,"hvtu":-79.8,"hb":-16.6,"idx":0.9,"cls":1,"psfc":1002.6,"terrain":false,"radius_km":200,"name":"sym shallow warm"},"geometry":{"type":"Point","coordinates":[-90.25,60.75]}},{"type":"Feature","properties":{"kind":"center","id":44,"lat":14.75,"lon":148.75,"mslp":1004.1,"hvtl":14.3,"hvtu":4.1,"hb":-0.8,"idx":0.3,"cls":0,"psfc":1004.1,"terrain":false,"radius_km":200,"name":"sym deep warm","track":"T06"},"geometry":{"type":"Point","coordinates":[148.75,14.75]}},{"type":"Feature","properties":{"kind":"center","id":45,"lat":60.5,"lon":88.5,"mslp":1004.3,"hvtl":22.0,"hvtu":-173.5,"hb":-20.9,"idx":-0.5,"cls":1,"psfc":989.0,"terrain":false,"radius_km":200,"name":"sym shallow warm","track":"T111"},"geometry":{"type":"Point","coordinates":[88.5,60.5]}},{"type":"Feature","properties":{"kind":"center","id":46,"lat":68.25,"lon":-54.0,"mslp":1004.7,"hvtl":46.4,"hvtu":-156.9,"hb":13.3,"idx":-0.0,"cls":3,"psfc":1004.5,"terrain":false,"radius_km":200,"name":"asym shallow warm"},"geometry":{"type":"Point","coordinates":[-54.0,68.25]}},{"type":"Feature","properties":{"kind":"center","id":47,"lat":-33.0,"lon":-53.0,"mslp":1004.9,"hvtl":-77.4,"hvtu":-84.4,"hb":31.8,"idx":-2.0,"cls":4,"psfc":1004.3,"terrain":false,"radius_km":200,"name":"asym cold","track":"T110"},"geometry":{"type":"Point","coordinates":[-53.0,-33.0]}},{"type":"Feature","properties":{"kind":"center","id":48,"lat":29.5,"lon":-80.25,"mslp":1006.2,"hvtl":36.7,"hvtu":-99.0,"hb":22.9,"idx":-0.1,"cls":3,"psfc":1006.2,"terrain":false,"radius_km":200,"name":"asym shallow warm","track":"T116"},"geometry":{"type":"Point","coordinates":[-80.25,29.5]}},{"type":"Feature","properties":{"kind":"center","id":49,"lat":17.25,"lon":110.25,"mslp":1006.6,"hvtl":37.4,"hvtu":19.3,"hb":-18.1,"idx":0.9,"cls":0,"psfc":1006.6,"terrain":false,"radius_km":200,"name":"sym deep warm"},"geometry":{"type":"Point","coordinates":[110.25,17.25]}},{"type":"Feature","properties":{"kind":"center","id":50,"lat":39.75,"lon":-122.0,"mslp":1006.7,"hvtl":40.4,"hvtu":-152.7,"hb":7.3,"idx":-0.1,"cls":1,"psfc":1001.7,"terrain":false,"radius_km":200,"name":"sym shallow warm"},"geometry":{"type":"Point","coordinates":[-122.0,39.75]}},{"type":"Feature","properties":{"kind":"center","id":51,"lat":41.75,"lon":-122.5,"mslp":1009.0,"hvtl":136.2,"hvtu":-149.7,"hb":31.5,"idx":0.8,"cls":3,"psfc":911.0,"terrain":true,"radius_km":200,"name":"asym shallow warm"},"geometry":{"type":"Point","coordinates":[-122.5,41.75]}},{"type":"Feature","properties":{"kind":"center","id":52,"lat":78.5,"lon":-109.5,"mslp":1009.7,"hvtl":-76.1,"hvtu":-48.3,"hb":4.0,"idx":-1.7,"cls":5,"psfc":1007.6,"terrain":false,"radius_km":200,"name":"sym cold","track":"T126"},"geometry":{"type":"Point","coordinates":[-109.5,78.5]}},{"type":"Feature","properties":{"kind":"center","id":53,"lat":31.5,"lon":72.0,"mslp":1009.7,"hvtl":-51.9,"hvtu":-34.7,"hb":13.5,"idx":-1.3,"cls":4,"psfc":990.4,"terrain":false,"radius_km":200,"name":"asym cold","track":"T103"},"geometry":{"type":"Point","coordinates":[72.0,31.5]}},{"type":"Feature","properties":{"kind":"center","id":54,"lat":-39.0,"lon":166.5,"mslp":1010.0,"hvtl":-70.5,"hvtu":73.5,"hb":23.2,"idx":-0.6,"cls":6,"psfc":1010.0,"terrain":false,"radius_km":200,"name":"shallow cold","track":"T120"},"geometry":{"type":"Point","coordinates":[166.5,-39.0]}},{"type":"Feature","properties":{"kind":"center","id":55,"lat":42.25,"lon":-122.75,"mslp":1011.3,"hvtl":151.8,"hvtu":-149.4,"hb":36.4,"idx":0.9,"cls":3,"psfc":912.5,"terrain":true,"radius_km":200,"name":"asym shallow warm"},"geometry":{"type":"Point","coordinates":[-122.75,42.25]}},{"type":"Feature","properties":{"kind":"center","id":56,"lat":-37.75,"lon":-76.5,"mslp":1011.6,"hvtl":22.1,"hvtu":-81.2,"hb":20.3,"idx":-0.2,"cls":3,"psfc":1011.6,"terrain":false,"radius_km":200,"name":"asym shallow warm","track":"T102"},"geometry":{"type":"Point","coordinates":[-76.5,-37.75]}},{"type":"Feature","properties":{"kind":"center","id":57,"lat":-30.0,"lon":-68.25,"mslp":1012.3,"hvtl":50.3,"hvtu":-324.3,"hb":50.1,"idx":-0.1,"cls":3,"psfc":906.6,"terrain":true,"radius_km":200,"name":"asym shallow warm"},"geometry":{"type":"Point","coordinates":[-68.25,-30.0]}},{"type":"Feature","properties":{"kind":"center","id":58,"lat":30.0,"lon":58.25,"mslp":1012.7,"hvtl":113.2,"hvtu":-40.1,"hb":11.8,"idx":1.2,"cls":3,"psfc":979.7,"terrain":false,"radius_km":200,"name":"asym shallow warm","track":"T114"},"geometry":{"type":"Point","coordinates":[58.25,30.0]}},{"type":"Feature","properties":{"kind":"center","id":59,"lat":32.25,"lon":48.5,"mslp":1014.1,"hvtl":-61.4,"hvtu":-107.6,"hb":32.0,"idx":-1.9,"cls":4,"psfc":1003.6,"terrain":false,"radius_km":200,"name":"asym cold"},"geometry":{"type":"Point","coordinates":[48.5,32.25]}},{"type":"Feature","properties":{"kind":"center","id":60,"lat":31.5,"lon":61.75,"mslp":1014.3,"hvtl":155.0,"hvtu":-67.7,"hb":23.5,"idx":1.2,"cls":3,"psfc":958.4,"terrain":false,"radius_km":200,"name":"asym shallow warm","track":"T133"},"geometry":{"type":"Point","coordinates":[61.75,31.5]}},{"type":"Feature","properties":{"kind":"center","id":61,"lat":-30.75,"lon":-71.0,"mslp":1014.5,"hvtl":-44.7,"hvtu":-272.9,"hb":34.5,"idx":-1.8,"cls":4,"psfc":933.7,"terrain":false,"radius_km":200,"name":"asym cold","track":"T97"},"geometry":{"type":"Point","coordinates":[-71.0,-30.75]}},{"type":"Feature","properties":{"kind":"center","id":62,"lat":45.0,"lon":-2.25,"mslp":1014.8,"hvtl":100.6,"hvtu":-157.0,"hb":-22.9,"idx":0.6,"cls":1,"psfc":1014.8,"terrain":false,"radius_km":200,"name":"sym shallow warm","track":"T129"},"geometry":{"type":"Point","coordinates":[-2.25,45.0]}},{"type":"Feature","properties":{"kind":"center","id":63,"lat":30.0,"lon":68.75,"mslp":1014.9,"hvtl":-38.5,"hvtu":-24.5,"hb":5.2,"idx":-1.0,"cls":5,"psfc":904.1,"terrain":true,"radius_km":200,"name":"sym cold"},"geometry":{"type":"Point","coordinates":[68.75,30.0]}},{"type":"Feature","properties":{"kind":"center","id":64,"lat":26.75,"lon":93.0,"mslp":1015.1,"hvtl":-44.5,"hvtu":-75.4,"hb":3.3,"idx":-1.5,"cls":5,"psfc":1005.4,"terrain":false,"radius_km":200,"name":"sym cold","track":"T124"},"geometry":{"type":"Point","coordinates":[93.0,26.75]}},{"type":"Feature","properties":{"kind":"center","id":65,"lat":25.5,"lon":95.75,"mslp":1015.2,"hvtl":-32.3,"hvtu":-100.5,"hb":7.2,"idx":-1.4,"cls":5,"psfc":988.9,"terrain":false,"radius_km":200,"name":"sym cold","track":"T122"},"geometry":{"type":"Point","coordinates":[95.75,25.5]}},{"type":"Feature","properties":{"kind":"center","id":66,"lat":-40.0,"lon":-77.0,"mslp":1015.7,"hvtl":86.8,"hvtu":-32.3,"hb":-9.6,"idx":1.1,"cls":1,"psfc":1015.7,"terrain":false,"radius_km":200,"name":"sym shallow warm"},"geometry":{"type":"Point","coordinates":[-77.0,-40.0]}},{"type":"Feature","properties":{"kind":"center","id":67,"lat":73.5,"lon":-24.75,"mslp":1017.3,"hvtl":-250.4,"hvtu":-278.1,"hb":36.6,"idx":-3.0,"cls":4,"psfc":982.5,"terrain":false,"radius_km":200,"name":"asym cold","track":"T57"},"geometry":{"type":"Point","coordinates":[-24.75,73.5]}},{"type":"Feature","properties":{"kind":"center","id":68,"lat":-36.5,"lon":42.5,"mslp":1017.9,"hvtl":12.1,"hvtu":-143.6,"hb":30.0,"idx":-0.7,"cls":3,"psfc":1017.9,"terrain":false,"radius_km":200,"name":"asym shallow warm"},"geometry":{"type":"Point","coordinates":[42.5,-36.5]}},{"type":"Feature","properties":{"kind":"center","id":69,"lat":37.5,"lon":67.25,"mslp":1020.7,"hvtl":41.9,"hvtu":-242.4,"hb":64.7,"idx":-0.2,"cls":3,"psfc":980.1,"terrain":false,"radius_km":200,"name":"asym shallow warm"},"geometry":{"type":"Point","coordinates":[67.25,37.5]}},{"type":"Feature","properties":{"kind":"center","id":70,"lat":-30.5,"lon":63.75,"mslp":1020.9,"hvtl":53.2,"hvtu":-192.1,"hb":35.7,"idx":0.0,"cls":3,"psfc":1020.9,"terrain":false,"radius_km":200,"name":"asym shallow warm","track":"T135"},"geometry":{"type":"Point","coordinates":[63.75,-30.5]}}]}